{"type": "FeatureCollection", "features": [{"type": "Feature", "id": 114905303, "geometry": {"type": "Point", "coordinates": [11.224469, 43.9144118]}, "properties": {"amenity": "restaurant", "created_by": "Texpo", "name": "Oreste Campagna"}}, {"type": "Feature", "id": 115488217, "geometry": {"type": "Point", "coordinates": [11.2168797, 43.9084707]}, "properties": {"amenity": "restaurant", "created_by": "Texpo", "name": "Lago di Legri"}}, {"type": "Feature", "id": 290089472, "geometry": {"type": "Point", "coordinates": [11.4238324, 44.0746595]}, "properties": {"addr:housenumber": "898", "addr:street": "Moscheta", "amenity": "restaurant", "cuisine": "grill;local;buschenschank", "name": "Badia di moscheta"}}, {"type": "Feature", "id": 300687966, "geometry": {"type": "Point", "coordinates": [11.3933372, 43.79001]}, "properties": {"amenity": "restaurant", "cuisine": "italian", "name": "Lo Spiedo Girato"}}, {"type": "Feature", "id": 335926924, "geometry": {"type": "Point", "coordinates": [11.2540587, 43.7732733]}, "properties": {"addr:housenumber": "15/r", "addr:postcode": "50123", "addr:street": "Piazza dell'Olio", "amenity": "restaurant", "name": "Fiaschetteria Nuvoli", "opening_hours": "Mo-Sa 08:00-21:00", "phone": "+390552396616"}}, {"type": "Feature", "id": 335930294, "geometry": {"type": "Point", "coordinates": [11.2664312, 43.7711916]}, "properties": {"amenity": "restaurant", "name": "Il Cibreo"}}, {"type": "Feature", "id": 336738041, "geometry": {"type": "Point", "coordinates": [11.2013555, 43.691909]}, "properties": {"amenity": "restaurant", "cuisine": "regional", "name": "Trattoria la Baracchina"}}, {"type": "Feature", "id": 339685230, "geometry": {"type": "Point", "coordinates": [11.4221087, 43.7702791]}, "properties": {"amenity": "restaurant", "cuisine": "regional", "name": "La Bottega di Rosano"}}, {"type": "Feature", "id": 402524770, "geometry": {"type": "Point", "coordinates": [11.0945662, 43.7809796]}, "properties": {"amenity": "restaurant", "cuisine": "italian", "name": "La Panoramica"}}, {"type": "Feature", "id": 402524773, "geometry": {"type": "Point", "coordinates": [11.0975732, 43.7799214]}, "properties": {"addr:city": "Signa", "addr:country": "IT", "addr:housenumber": "3", "addr:street": "Via Egisto ferroni", "amenity": "restaurant", "cuisine": "pizza", "name": "Da Foffo"}}, {"type": "Feature", "id": 402574092, "geometry": {"type": "Point", "coordinates": [11.0957518, 43.7762797]}, "properties": {"amenity": "restaurant"}}, {"type": "Feature", "id": 403872071, "geometry": {"type": "Point", "coordinates": [11.4354664, 44.1216818]}, "properties": {"amenity": "restaurant", "cuisine": "regional", "name": "Da Iolanda"}}, {"type": "Feature", "id": 413993382, "geometry": {"type": "Point", "coordinates": [10.9126048, 43.5534191]}, "properties": {"amenity": "restaurant"}}, {"type": "Feature", "id": 429959503, "geometry": {"type": "Point", "coordinates": [11.3851628, 43.5539087]}, "properties": {"amenity": "restaurant", "cuisine": "regional", "name": "Villa San Michele", "tourism": "hotel"}}, {"type": "Feature", "id": 443635867, "geometry": {"type": "Point", "coordinates": [11.1347105, 43.8215809]}, "properties": {"amenity": "restaurant", "cuisine": "regional", "name": "L'intingolo"}}, {"type": "Feature", "id": 443635870, "geometry": {"type": "Point", "coordinates": [11.1336829, 43.8241785]}, "properties": {"amenity": "restaurant", "cuisine": "pizza", "name": "Da Rodolfo"}}, {"type": "Feature", "id": 443931786, "geometry": {"type": "Point", "coordinates": [11.4427967, 43.6108909]}, "properties": {"amenity": "restaurant", "cuisine": "italian"}}, {"type": "Feature", "id": 443931936, "geometry": {"type": "Point", "coordinates": [11.4494756, 43.6113333]}, "properties": {"amenity": "restaurant", "cuisine": "italian"}}, {"type": "Feature", "id": 456822663, "geometry": {"type": "Point", "coordinates": [11.1553997, 43.8769422]}, "properties": {"addr:city": "Calenzano", "addr:housenumber": "10", "addr:postcode": "50041", "addr:street": "Via Macia", "amenity": "restaurant", "cuisine": "regional", "name": "Ristorante di Travalle"}}, {"type": "Feature", "id": 457713078, "geometry": {"type": "Point", "coordinates": [11.2507167, 43.7889536]}, "properties": {"amenity": "restaurant", "cuisine": "pizza", "name": "Cipiglio"}}, {"type": "Feature", "id": 468096474, "geometry": {"type": "Point", "coordinates": [11.2416544, 43.7931272]}, "properties": {"amenity": "restaurant", "cuisine": "pizza", "name": "Laterna Blu"}}, {"type": "Feature", "id": 468096509, "geometry": {"type": "Point", "coordinates": [11.2466034, 43.7745959]}, "properties": {"amenity": "restaurant", "cuisine": "italian", "name": "La Grotta di Leo"}}, {"type": "Feature", "id": 468096529, "geometry": {"type": "Point", "coordinates": [11.2601442, 43.7866215]}, "properties": {"amenity": "restaurant", "cuisine": "italian", "name": "Panta Rei", "opening_hours": "We-Mo 19:00-24:00"}}, {"type": "Feature", "id": 468096577, "geometry": {"type": "Point", "coordinates": [11.2499572, 43.7866757]}, "properties": {"amenity": "restaurant", "cuisine": "asian", "name": "Buona Fortuna"}}, {"type": "Feature", "id": 468096607, "geometry": {"type": "Point", "coordinates": [11.2503489, 43.7730881]}, "properties": {"amenity": "restaurant", "cuisine": "italian", "name": "al Trebbio"}}, {"type": "Feature", "id": 471496022, "geometry": {"type": "Point", "coordinates": [11.2334541, 43.7867432]}, "properties": {"amenity": "restaurant", "cuisine": "pizza", "name": "Senzanome"}}, {"type": "Feature", "id": 474993428, "geometry": {"type": "Point", "coordinates": [11.3753911, 43.7388601]}, "properties": {"addr:city": "Bagno a Ripoli", "addr:street": "Via Ponti di Millo", "amenity": "restaurant", "cuisine": "regional", "email": "info@nuovoranch.it", "name": "Nuovo Ranch", "opening_hours": "solo la sera chiuso luned\u00ec", "outdoor_seating": "yes", "takeaway": "no"}}, {"type": "Feature", "id": 496489091, "geometry": {"type": "Point", "coordinates": [11.1037725, 43.6725435]}, "properties": {"amenity": "restaurant", "name": "Il Focolare"}}, {"type": "Feature", "id": 496491175, "geometry": {"type": "Point", "coordinates": [11.08476, 43.6644704]}, "properties": {"amenity": "restaurant", "name": "Il Mezzo Marinaio"}}, {"type": "Feature", "id": 529715295, "geometry": {"type": "Point", "coordinates": [10.8905558, 43.5738654]}, "properties": {"addr:city": "Montaione", "addr:country": "IT", "addr:housenumber": "16", "addr:postcode": "50050", "addr:street": "Via Mura", "amenity": "restaurant", "cuisine": "tuscan", "name": "Ristorante il Caminetto"}}, {"type": "Feature", "id": 538784387, "geometry": {"type": "Point", "coordinates": [11.1730524, 43.7388494]}, "properties": {"amenity": "restaurant", "name": "Anastasia"}}, {"type": "Feature", "id": 543736101, "geometry": {"type": "Point", "coordinates": [11.2649092, 43.7619724]}, "properties": {"amenity": "restaurant", "name": "La Loggia"}}, {"type": "Feature", "id": 583524533, "geometry": {"type": "Point", "coordinates": [11.4639668, 43.7022768]}, "properties": {"amenity": "restaurant", "name": "Dot.Com", "wheelchair": "no"}}, {"type": "Feature", "id": 589084736, "geometry": {"type": "Point", "coordinates": [11.2429045, 43.7750808]}, "properties": {"amenity": "restaurant", "cuisine": "pizza", "name": "La Rotonda"}}, {"type": "Feature", "id": 590526978, "geometry": {"type": "Point", "coordinates": [11.2832892, 43.7870735]}, "properties": {"amenity": "restaurant", "name": "Osteria God\u00f2"}}, {"type": "Feature", "id": 590537269, "geometry": {"type": "Point", "coordinates": [11.2119915, 43.7936062]}, "properties": {"amenity": "restaurant", "name": "Pizzeria Pizzaman"}}, {"type": "Feature", "id": 595635453, "geometry": {"type": "Point", "coordinates": [11.2568912, 43.783195]}, "properties": {"amenity": "restaurant", "cuisine": "greek", "name": "Odissea", "name:el": "\u039f\u03b4\u03cd\u03c3\u03c3\u03b5\u03b9\u03b1"}}, {"type": "Feature", "id": 595642611, "geometry": {"type": "Point", "coordinates": [11.2541025, 43.7790596]}, "properties": {"amenity": "restaurant", "cuisine": "pizza", "name": "Il giardino di Barbano", "operator": "Forasiepi Giancarlo & C. s.n.c.", "phone": "+39 055 486752"}}, {"type": "Feature", "id": 600260593, "geometry": {"type": "Point", "coordinates": [11.1797421, 43.5648443]}, "properties": {"amenity": "restaurant", "name": "Trattoria la Regina"}}, {"type": "Feature", "id": 601662167, "geometry": {"type": "Point", "coordinates": [11.528767, 43.6754766]}, "properties": {"amenity": "restaurant", "cuisine": "pizza", "name": "Stagnino"}}, {"type": "Feature", "id": 615046353, "geometry": {"type": "Point", "coordinates": [11.2147281, 43.9603175]}, "properties": {"amenity": "restaurant", "cuisine": "regional", "name": "La Bottega del Cornocchio"}}, {"type": "Feature", "id": 615049978, "geometry": {"type": "Point", "coordinates": [11.2137028, 43.9460808]}, "properties": {"amenity": "restaurant", "cuisine": "regional", "name": "Da Gianni"}}, {"type": "Feature", "id": 618779290, "geometry": {"type": "Point", "coordinates": [11.234656, 43.8638402]}, "properties": {"amenity": "restaurant", "cuisine": "italian", "name": "Ristorante Vecciolino"}}, {"type": "Feature", "id": 619481911, "geometry": {"type": "Point", "coordinates": [11.3191182, 43.7522244]}, "properties": {"addr:city": "Bagno a Ripoli", "amenity": "restaurant"}}, {"type": "Feature", "id": 623913279, "geometry": {"type": "Point", "coordinates": [11.1858649, 43.793932]}, "properties": {"amenity": "restaurant", "name": "Trattoria da Burde"}}, {"type": "Feature", "id": 638377515, "geometry": {"type": "Point", "coordinates": [10.8713295, 43.5602058]}, "properties": {"amenity": "restaurant", "name": "Castellare di Tonda"}}, {"type": "Feature", "id": 638377524, "geometry": {"type": "Point", "coordinates": [10.8801369, 43.5836868]}, "properties": {"amenity": "restaurant", "name": "Trattoria Il lago"}}, {"type": "Feature", "id": 638377530, "geometry": {"type": "Point", "coordinates": [10.8983459, 43.5788887]}, "properties": {"amenity": "restaurant", "name": "Casa Masi"}}, {"type": "Feature", "id": 638377535, "geometry": {"type": "Point", "coordinates": [10.9543623, 43.5395033]}, "properties": {"amenity": "restaurant", "name": "Risorante Pizzeria Pinchiorba"}}, {"type": "Feature", "id": 638377542, "geometry": {"type": "Point", "coordinates": [10.9277612, 43.5194865]}, "properties": {"amenity": "restaurant", "name": "Ristorante Pizzeria Le tre case"}}, {"type": "Feature", "id": 638377550, "geometry": {"type": "Point", "coordinates": [10.9566837, 43.5398864]}, "properties": {"amenity": "restaurant", "name": "Ristorante Pizzeria Non sul Collo"}}, {"type": "Feature", "id": 638377554, "geometry": {"type": "Point", "coordinates": [10.9553226, 43.5409038]}, "properties": {"amenity": "restaurant", "name": "Pizzeria Rimondino"}}, {"type": "Feature", "id": 638377559, "geometry": {"type": "Point", "coordinates": [10.944906, 43.5327269]}, "properties": {"amenity": "restaurant", "name": "La Montagnola"}}, {"type": "Feature", "id": 638377567, "geometry": {"type": "Point", "coordinates": [10.9470582, 43.5335068]}, "properties": {"amenity": "restaurant", "name": "Al Mirador della Catalana"}}, {"type": "Feature", "id": 638377576, "geometry": {"type": "Point", "coordinates": [10.9555447, 43.541925]}, "properties": {"amenity": "restaurant", "name": "Il Castagno"}}, {"type": "Feature", "id": 638377579, "geometry": {"type": "Point", "coordinates": [10.9130954, 43.5532441]}, "properties": {"amenity": "restaurant", "name": "Osteria del Pesce Rosso"}}, {"type": "Feature", "id": 638377584, "geometry": {"type": "Point", "coordinates": [10.9055704, 43.5580217]}, "properties": {"amenity": "restaurant", "name": "La Tavernetta"}}, {"type": "Feature", "id": 638377585, "geometry": {"type": "Point", "coordinates": [10.9141307, 43.5520039]}, "properties": {"amenity": "restaurant", "name": "Carpe Diem"}}, {"type": "Feature", "id": 638377588, "geometry": {"type": "Point", "coordinates": [10.9145419, 43.5518679]}, "properties": {"amenity": "restaurant", "name": "L'Erasmus"}}, {"type": "Feature", "id": 638377594, "geometry": {"type": "Point", "coordinates": [10.9122951, 43.5534228]}, "properties": {"amenity": "restaurant", "name": "Ristorante Pizzeria Corte Antica"}}, {"type": "Feature", "id": 638377600, "geometry": {"type": "Point", "coordinates": [10.9537779, 43.5522743]}, "properties": {"amenity": "restaurant", "name": "Borgoforte"}}, {"type": "Feature", "id": 638377605, "geometry": {"type": "Point", "coordinates": [10.9893792, 43.5908654]}, "properties": {"amenity": "restaurant", "name": "Ristorante Bowling Samarcanda"}}, {"type": "Feature", "id": 638377609, "geometry": {"type": "Point", "coordinates": [10.9681039, 43.6003236]}, "properties": {"amenity": "restaurant", "name": "Ristorante Il tulipano", "wheelchair": "yes"}}, {"type": "Feature", "id": 638377615, "geometry": {"type": "Point", "coordinates": [10.961499, 43.6133663]}, "properties": {"amenity": "restaurant", "name": "Ristorante Pizzeria"}}, {"type": "Feature", "id": 638377630, "geometry": {"type": "Point", "coordinates": [10.9762358, 43.6055122]}, "properties": {"amenity": "restaurant", "name": "Ristorante Pizzeria Renai"}}, {"type": "Feature", "id": 638377637, "geometry": {"type": "Point", "coordinates": [10.9655371, 43.6055515]}, "properties": {"amenity": "restaurant", "name": "Pizzeria di l\u00e0 dal Ponte"}}, {"type": "Feature", "id": 638377645, "geometry": {"type": "Point", "coordinates": [10.9697756, 43.6064357]}, "properties": {"amenity": "restaurant", "name": "Pizzeria Tavola Calda Patrizia"}}, {"type": "Feature", "id": 638377653, "geometry": {"type": "Point", "coordinates": [10.9696364, 43.6036512]}, "properties": {"amenity": "restaurant", "name": "Pizzolando"}}, {"type": "Feature", "id": 638377658, "geometry": {"type": "Point", "coordinates": [10.9702556, 43.6044379]}, "properties": {"amenity": "restaurant", "name": "Ristorante Pizzeria da Carlo"}}, {"type": "Feature", "id": 638377661, "geometry": {"type": "Point", "coordinates": [10.9685789, 43.6052763]}, "properties": {"amenity": "restaurant", "name": "Osteria La Magona"}}, {"type": "Feature", "id": 638377676, "geometry": {"type": "Point", "coordinates": [10.9661689, 43.6141626]}, "properties": {"amenity": "restaurant", "name": "Circolo ARCI \"Puppino\""}}, {"type": "Feature", "id": 638377679, "geometry": {"type": "Point", "coordinates": [10.9653872, 43.6135948]}, "properties": {"amenity": "restaurant", "name": "Special Pizza"}}, {"type": "Feature", "id": 638377686, "geometry": {"type": "Point", "coordinates": [10.9666819, 43.5974056]}, "properties": {"amenity": "restaurant", "name": "Pizzeria Volterrani", "wheelchair": "limited"}}, {"type": "Feature", "id": 646575070, "geometry": {"type": "Point", "coordinates": [11.0152276, 43.6235675]}, "properties": {"amenity": "restaurant", "cuisine": "regional", "name": "Il Gazebo"}}, {"type": "Feature", "id": 650293952, "geometry": {"type": "Point", "coordinates": [11.1689199, 43.6385176]}, "properties": {"amenity": "restaurant", "name": "La Botte"}}, {"type": "Feature", "id": 650396317, "geometry": {"type": "Point", "coordinates": [11.0351523, 43.7189079]}, "properties": {"amenity": "restaurant", "name": "Trattoria del Turbone"}}, {"type": "Feature", "id": 651307878, "geometry": {"type": "Point", "coordinates": [11.1652679, 43.6457054]}, "properties": {"amenity": "restaurant", "name": "Alimentari Trattoria"}}, {"type": "Feature", "id": 660479091, "geometry": {"type": "Point", "coordinates": [11.2542633, 43.7684227]}, "properties": {"amenity": "restaurant", "name": "Buca dell'Orafo"}}, {"type": "Feature", "id": 660479093, "geometry": {"type": "Point", "coordinates": [11.2551024, 43.7735128]}, "properties": {"addr:housenumber": "8", "addr:street": "Piazza di San Giovanni", "amenity": "restaurant", "name": "Buca di San Giovanni"}}, {"type": "Feature", "id": 715021298, "geometry": {"type": "Point", "coordinates": [11.244652, 43.796999]}, "properties": {"amenity": "restaurant", "cuisine": "pizza", "name": "da Franco"}}, {"type": "Feature", "id": 715021398, "geometry": {"type": "Point", "coordinates": [11.243279, 43.8073266]}, "properties": {"amenity": "restaurant", "name": "Le Gore"}}, {"type": "Feature", "id": 715021411, "geometry": {"type": "Point", "coordinates": [11.2422486, 43.8043799]}, "properties": {"amenity": "restaurant"}}, {"type": "Feature", "id": 715021444, "geometry": {"type": "Point", "coordinates": [11.2490314, 43.8070388]}, "properties": {"amenity": "restaurant"}}, {"type": "Feature", "id": 715021523, "geometry": {"type": "Point", "coordinates": [11.2492567, 43.8059316]}, "properties": {"amenity": "restaurant"}}, {"type": "Feature", "id": 715759082, "geometry": {"type": "Point", "coordinates": [11.2410756, 43.7963599]}, "properties": {"amenity": "restaurant", "name": "4 mori"}}, {"type": "Feature", "id": 715788359, "geometry": {"type": "Point", "coordinates": [11.2717005, 43.7868162]}, "properties": {"amenity": "restaurant"}}, {"type": "Feature", "id": 715788360, "geometry": {"type": "Point", "coordinates": [11.2715503, 43.787126]}, "properties": {"amenity": "restaurant"}}, {"type": "Feature", "id": 750009161, "geometry": {"type": "Point", "coordinates": [11.2337145, 43.7945697]}, "properties": {"amenity": "restaurant", "cuisine": "pizza", "name": "Pizza Man"}}, {"type": "Feature", "id": 750009192, "geometry": {"type": "Point", "coordinates": [11.2459128, 43.7991423]}, "properties": {"amenity": "restaurant", "cuisine": "pizza", "name": "I sette peccati", "wheelchair": "yes"}}, {"type": "Feature", "id": 750009280, "geometry": {"type": "Point", "coordinates": [11.240219, 43.7968711]}, "properties": {"amenity": "restaurant", "name": "Dalmazia"}}, {"type": "Feature", "id": 750009510, "geometry": {"type": "Point", "coordinates": [11.2335345, 43.8104477]}, "properties": {"amenity": "restaurant"}}, {"type": "Feature", "id": 750009578, "geometry": {"type": "Point", "coordinates": [11.2408102, 43.8066393]}, "properties": {"amenity": "restaurant", "name": "Trattoria Pinco Pallino"}}, {"type": "Feature", "id": 750017278, "geometry": {"type": "Point", "coordinates": [11.2636149, 43.7840325]}, "properties": {"addr:housenumber": "2", "amenity": "restaurant", "name": "Perseus"}}, {"type": "Feature", "id": 750017552, "geometry": {"type": "Point", "coordinates": [11.2729502, 43.7838624]}, "properties": {"addr:street": "Viale dei Mille", "amenity": "restaurant", "cuisine": "japanese", "name": "Wabi Sabi"}}, {"type": "Feature", "id": 750017564, "geometry": {"type": "Point", "coordinates": [11.2771238, 43.7833899]}, "properties": {"amenity": "restaurant"}}, {"type": "Feature", "id": 750017604, "geometry": {"type": "Point", "coordinates": [11.2720276, 43.7833899]}, "properties": {"amenity": "restaurant"}}, {"type": "Feature", "id": 750017607, "geometry": {"type": "Point", "coordinates": [11.2723494, 43.7834054]}, "properties": {"amenity": "restaurant"}}, {"type": "Feature", "id": 762502635, "geometry": {"type": "Point", "coordinates": [10.9267, 43.7877923]}, "properties": {"amenity": "restaurant", "name": "Il Ristoro del Museo"}}, {"type": "Feature", "id": 763212309, "geometry": {"type": "Point", "coordinates": [11.4166885, 44.069511]}, "properties": {"amenity": "restaurant", "cuisine": "italian", "name": "Da santina"}}, {"type": "Feature", "id": 766462663, "geometry": {"type": "Point", "coordinates": [10.9280728, 43.4926412]}, "properties": {"addr:housenumber": "2", "addr:street": "Via Volterrana", "amenity": "restaurant", "cuisine": "regional", "name": "Il Castagno", "payment:mastercard": "yes"}}, {"type": "Feature", "id": 796778857, "geometry": {"type": "Point", "coordinates": [11.2452572, 43.7247494]}, "properties": {"amenity": "restaurant", "name": "Vecchia Scodella"}}, {"type": "Feature", "id": 800579108, "geometry": {"type": "Point", "coordinates": [11.4869176, 44.1748648]}, "properties": {"amenity": "restaurant"}}, {"type": "Feature", "id": 843289325, "geometry": {"type": "Point", "coordinates": [11.339115, 43.9035482]}, "properties": {"amenity": "restaurant", "cuisine": "regional", "name": "Lake Forest"}}, {"type": "Feature", "id": 847636198, "geometry": {"type": "Point", "coordinates": [11.188372, 43.6584756]}, "properties": {"amenity": "restaurant"}}, {"type": "Feature", "id": 847636430, "geometry": {"type": "Point", "coordinates": [11.186827, 43.6574122]}, "properties": {"amenity": "restaurant", "name": "Ristorante Nello", "name:en": "Restaurant Nello"}}, {"type": "Feature", "id": 847636617, "geometry": {"type": "Point", "coordinates": [11.1827608, 43.6580021]}, "properties": {"amenity": "restaurant", "name": "Cinque Di Vino"}}, {"type": "Feature", "id": 847636794, "geometry": {"type": "Point", "coordinates": [11.1847349, 43.656768]}, "properties": {"amenity": "restaurant"}}, {"type": "Feature", "id": 847643469, "geometry": {"type": "Point", "coordinates": [11.1846277, 43.6584834]}, "properties": {"amenity": "restaurant"}}, {"type": "Feature", "id": 847651252, "geometry": {"type": "Point", "coordinates": [11.1836725, 43.6532505]}, "properties": {"amenity": "restaurant", "name": "Il Fedino"}}, {"type": "Feature", "id": 847654299, "geometry": {"type": "Point", "coordinates": [11.18187, 43.6515194]}, "properties": {"amenity": "restaurant"}}, {"type": "Feature", "id": 847688278, "geometry": {"type": "Point", "coordinates": [11.1793905, 43.6494953]}, "properties": {"amenity": "restaurant", "name": "Villa Borromeo"}}, {"type": "Feature", "id": 849873767, "geometry": {"type": "Point", "coordinates": [11.4583577, 44.154234]}, "properties": {"amenity": "restaurant", "name": "Osteria La Faina"}}, {"type": "Feature", "id": 851239755, "geometry": {"type": "Point", "coordinates": [11.1857246, 43.6567937]}, "properties": {"amenity": "restaurant"}}, {"type": "Feature", "id": 852764087, "geometry": {"type": "Point", "coordinates": [11.129034, 43.6841596]}, "properties": {"amenity": "restaurant", "name": "La Tenda Rossa"}}, {"type": "Feature", "id": 854422617, "geometry": {"type": "Point", "coordinates": [11.1976603, 43.6827609]}, "properties": {"amenity": "restaurant", "name": "L'Albergaccio di Niccol\u00f2 Machiavelli"}}, {"type": "Feature", "id": 854429832, "geometry": {"type": "Point", "coordinates": [11.1788956, 43.6339302]}, "properties": {"amenity": "restaurant", "name": "Mamma Rosa"}}, {"type": "Feature", "id": 854441844, "geometry": {"type": "Point", "coordinates": [11.1903433, 43.6152366]}, "properties": {"amenity": "restaurant", "name": "La Trattoria del Pesce"}}, {"type": "Feature", "id": 919575005, "geometry": {"type": "Point", "coordinates": [11.2385295, 44.0006281]}, "properties": {"amenity": "restaurant", "name": "La Pizzeria"}}, {"type": "Feature", "id": 919575006, "geometry": {"type": "Point", "coordinates": [11.2384379, 44.0011494]}, "properties": {"addr:street": "Via della Repubblica", "amenity": "restaurant", "name": "Trattoria Il Cavallino Bianco", "source": "Sourvey"}}, {"type": "Feature", "id": 928997503, "geometry": {"type": "Point", "coordinates": [11.2427035, 43.9984027]}, "properties": {"amenity": "restaurant", "name": "Pizzeria Il gatto e la Volpe"}}, {"type": "Feature", "id": 929119036, "geometry": {"type": "Point", "coordinates": [11.0798735, 43.7896354]}, "properties": {"amenity": "restaurant", "name": "Ristorante la Quercia di villa Castelletti"}}, {"type": "Feature", "id": 938211195, "geometry": {"type": "Point", "coordinates": [11.2503414, 43.7924223]}, "properties": {"addr:housenumber": "12/r", "addr:street": "Piazza Giorgini", "alt_name": "Trattoria Fratelli Briganti", "amenity": "restaurant", "cuisine": "italian", "name": "I Briganti"}}, {"type": "Feature", "id": 938212680, "geometry": {"type": "Point", "coordinates": [11.2378115, 43.7888176]}, "properties": {"amenity": "restaurant", "name": "Premier"}}, {"type": "Feature", "id": 938226659, "geometry": {"type": "Point", "coordinates": [11.2510026, 43.7921053]}, "properties": {"amenity": "restaurant", "cuisine": "italian", "name": "La farmacia dei sani"}}, {"type": "Feature", "id": 942823560, "geometry": {"type": "Point", "coordinates": [11.2632715, 43.7841951]}, "properties": {"amenity": "restaurant"}}, {"type": "Feature", "id": 946016501, "geometry": {"type": "Point", "coordinates": [11.2438827, 43.7917013]}, "properties": {"amenity": "restaurant", "name": "La Biritullera"}}, {"type": "Feature", "id": 948228563, "geometry": {"type": "Point", "coordinates": [11.2162023, 43.7708987]}, "properties": {"amenity": "restaurant", "name": "Pizzeria Calypso"}}, {"type": "Feature", "id": 954915530, "geometry": {"type": "Point", "coordinates": [11.2412394, 43.7945929]}, "properties": {"amenity": "restaurant", "cuisine": "pizza", "name": "Pit Stop"}}, {"type": "Feature", "id": 968559271, "geometry": {"type": "Point", "coordinates": [11.4672102, 43.9281161]}, "properties": {"amenity": "restaurant", "name": "La Casa del Prosciutto", "toilets:wheelchair": "no", "wheelchair": "no"}}, {"type": "Feature", "id": 971951562, "geometry": {"type": "Point", "coordinates": [11.2135002, 43.7917398]}, "properties": {"addr:housenumber": "21", "addr:street": "Via del Barco", "amenity": "restaurant", "cuisine": "seafood", "name": "Da Settimo", "phone": "+39 055 433458", "website": "http://www.ristorantedasettimo.com/"}}, {"type": "Feature", "id": 972064737, "geometry": {"type": "Point", "coordinates": [11.2408724, 43.7836607]}, "properties": {"amenity": "restaurant", "cuisine": "pizza", "name": "Trattoria-Pizzeria S. Jacopino"}}, {"type": "Feature", "id": 972590940, "geometry": {"type": "Point", "coordinates": [11.2156767, 43.7922435]}, "properties": {"amenity": "restaurant", "cuisine": "pizza", "name": "Tito Peccati di gola"}}, {"type": "Feature", "id": 972591514, "geometry": {"type": "Point", "coordinates": [11.2172494, 43.7920035]}, "properties": {"addr:city": "Firenze", "addr:postcode": "50127", "addr:street": "Via Francesco Baracca", "amenity": "restaurant", "capacity": "100", "cuisine": "pizza", "name": "Movida", "phone": "+39 055 422 1333", "smoking": "isolated", "takeaway": "yes"}}, {"type": "Feature", "id": 1001048039, "geometry": {"type": "Point", "coordinates": [11.2950054, 43.778868]}, "properties": {"amenity": "restaurant", "name": "Il Grappolo"}}, {"type": "Feature", "id": 1037155669, "geometry": {"type": "Point", "coordinates": [11.2565875, 43.7347553]}, "properties": {"amenity": "restaurant", "name": "La Rinascente"}}, {"type": "Feature", "id": 1052541659, "geometry": {"type": "Point", "coordinates": [11.4716194, 43.6182626]}, "properties": {"amenity": "restaurant"}}, {"type": "Feature", "id": 1074954217, "geometry": {"type": "Point", "coordinates": [11.2139383, 43.5730869]}, "properties": {"amenity": "restaurant"}}, {"type": "Feature", "id": 1075024518, "geometry": {"type": "Point", "coordinates": [11.2091576, 43.5768148]}, "properties": {"amenity": "restaurant"}}, {"type": "Feature", "id": 1075024584, "geometry": {"type": "Point", "coordinates": [11.1978537, 43.5931687]}, "properties": {"amenity": "restaurant", "name": "La Tancia"}}, {"type": "Feature", "id": 1076691359, "geometry": {"type": "Point", "coordinates": [11.2717617, 43.6327381]}, "properties": {"amenity": "restaurant"}}, {"type": "Feature", "id": 1088094441, "geometry": {"type": "Point", "coordinates": [11.2827104, 43.6250344]}, "properties": {"amenity": "restaurant"}}, {"type": "Feature", "id": 1091053424, "geometry": {"type": "Point", "coordinates": [11.2349686, 43.535584]}, "properties": {"amenity": "restaurant", "name": "Ristorante Palazzo Pretorio"}}, {"type": "Feature", "id": 1096289183, "geometry": {"type": "Point", "coordinates": [11.2990364, 43.9650804]}, "properties": {"amenity": "restaurant", "cuisine": "italian", "name": "Girodibacco"}}, {"type": "Feature", "id": 1106259426, "geometry": {"type": "Point", "coordinates": [11.2495654, 43.7722252]}, "properties": {"amenity": "restaurant", "name": "La Spada"}}, {"type": "Feature", "id": 1130258441, "geometry": {"type": "Point", "coordinates": [11.6118394, 44.0752858]}, "properties": {"amenity": "restaurant"}}, {"type": "Feature", "id": 1186329702, "geometry": {"type": "Point", "coordinates": [11.1352784, 43.8202177]}, "properties": {"amenity": "restaurant", "cuisine": "pizza", "name": "Meryanna"}}, {"type": "Feature", "id": 1232539670, "geometry": {"type": "Point", "coordinates": [11.0256868, 43.6858947]}, "properties": {"amenity": "restaurant"}}, {"type": "Feature", "id": 1238068525, "geometry": {"type": "Point", "coordinates": [11.1066966, 43.7709014]}, "properties": {"amenity": "restaurant", "cuisine": "italian", "name": "Trattoria Sanesi"}}, {"type": "Feature", "id": 1240039132, "geometry": {"type": "Point", "coordinates": [10.9005639, 43.5614991]}, "properties": {"amenity": "restaurant", "cuisine": "italian", "name": "I' Di...vino"}}, {"type": "Feature", "id": 1241683774, "geometry": {"type": "Point", "coordinates": [10.8999431, 43.5262197]}, "properties": {"amenity": "restaurant"}}, {"type": "Feature", "id": 1245582618, "geometry": {"type": "Point", "coordinates": [10.8952609, 43.523577]}, "properties": {"addr:city": "San Vivaldo", "addr:housenumber": "21", "addr:street": "Via San Vivaldo", "amenity": "restaurant", "cuisine": "italian", "name": "Osteria San Vivaldo", "operator": "Alari Carlo Maria", "outdoor_seating": "yes"}}, {"type": "Feature", "id": 1260426264, "geometry": {"type": "Point", "coordinates": [11.2392767, 43.7894718]}, "properties": {"amenity": "restaurant", "cuisine": "pizza", "name": "a foho"}}, {"type": "Feature", "id": 1260432730, "geometry": {"type": "Point", "coordinates": [11.2478117, 43.7959964]}, "properties": {"amenity": "restaurant", "name": "Pizzeria Il Poggetto"}}, {"type": "Feature", "id": 1260432768, "geometry": {"type": "Point", "coordinates": [11.2440244, 43.7979128]}, "properties": {"amenity": "restaurant", "cuisine": "pizza", "name": "Il Purgatorio"}}, {"type": "Feature", "id": 1263357019, "geometry": {"type": "Point", "coordinates": [11.2409972, 43.8030572]}, "properties": {"amenity": "restaurant", "cuisine": "italian", "name": "Trattoria \"La Carretta\""}}, {"type": "Feature", "id": 1267376465, "geometry": {"type": "Point", "coordinates": [11.2696362, 43.7871578]}, "properties": {"amenity": "restaurant", "cuisine": "regional"}}, {"type": "Feature", "id": 1277077482, "geometry": {"type": "Point", "coordinates": [11.2626533, 43.7700819]}, "properties": {"addr:housenumber": "30r", "addr:postcode": "59100", "addr:street": "Via Ghibellina", "amenity": "restaurant", "cuisine": "spanish", "name": "Salamanca"}}, {"type": "Feature", "id": 1283622346, "geometry": {"type": "Point", "coordinates": [11.2493033, 43.7716039]}, "properties": {"addr:city": "Firenze", "addr:housename": "Palazzo Rucellai", "addr:housenumber": "6/r", "addr:postcode": "50123", "addr:street": "Via dei Palchetti", "amenity": "restaurant", "cuisine": "regional", "name": "Fiaschetteria Il Latini", "opening_hours": "Tu-Su 12:00-00:00", "website": "http://www.illatini.com/"}}, {"type": "Feature", "id": 1295743548, "geometry": {"type": "Point", "coordinates": [11.221876, 43.7926125]}, "properties": {"addr:city": "Firenze", "addr:housenumber": "73G", "addr:postcode": "50127", "addr:street": "Via Di Novoli", "amenity": "restaurant", "cuisine": "regional", "name": "Osteria Di Poneta", "opening_hours": "19:00-23:00", "phone": "+ 39 055 411 082", "smoking": "isolated", "takeaway": "no"}}, {"type": "Feature", "id": 1299990984, "geometry": {"type": "Point", "coordinates": [11.612919, 44.0761195]}, "properties": {"amenity": "restaurant"}}, {"type": "Feature", "id": 1299990993, "geometry": {"type": "Point", "coordinates": [11.6156659, 44.0758254]}, "properties": {"amenity": "restaurant", "name": "Ristorante \"La Colombaia\""}}, {"type": "Feature", "id": 1338337267, "geometry": {"type": "Point", "coordinates": [11.2612653, 43.771303]}, "properties": {"amenity": "restaurant", "name": "I Ghibellini"}}, {"type": "Feature", "id": 1341528408, "geometry": {"type": "Point", "coordinates": [11.2609705, 43.7627897]}, "properties": {"amenity": "restaurant", "cuisine": "italian", "name": "La Beppa Fioraia"}}, {"type": "Feature", "id": 1376503119, "geometry": {"type": "Point", "coordinates": [11.260006, 43.7698442]}, "properties": {"addr:housenumber": "1/r", "addr:street": "Via Isola delle Stinche", "amenity": "restaurant", "cuisine": "italian;regional", "fax": "+39 055 289573", "name": "Trattoria Pallottino", "phone": "+39 055 289573", "website": "http://www.trattoriapallottino.com"}}, {"type": "Feature", "id": 1457867979, "geometry": {"type": "Point", "coordinates": [11.2475745, 43.7730989]}, "properties": {"addr:housenumber": "31r", "addr:postcode": "50123", "addr:street": "Via Palazzuolo", "amenity": "restaurant", "cuisine": "italian", "name": "Osteria dei Centopoveri", "opening_hours": "Mo-Su 12:00-15:00, 19:00-23:00", "website": "http://www.centopoveri.it"}}, {"type": "Feature", "id": 1457997572, "geometry": {"type": "Point", "coordinates": [11.2454649, 43.7742024]}, "properties": {"addr:housenumber": "124", "addr:postcode": "50123", "addr:street": "Via palazzuolo", "amenity": "restaurant", "cuisine": "regional", "name": "\u00cc Vinaino"}}, {"type": "Feature", "id": 1464813552, "geometry": {"type": "Point", "coordinates": [11.2518615, 43.7747253]}, "properties": {"addr:housenumber": "10r", "amenity": "restaurant", "cuisine": "regional;italian;pizza", "name": "Ristorante Lorenzo de' Medici", "phone": "+39 055 212932", "website": "http://www.lorenzodemedici.eu"}}, {"type": "Feature", "id": 1464813762, "geometry": {"type": "Point", "coordinates": [11.2524754, 43.7746402]}, "properties": {"amenity": "restaurant", "name": "Ciro & sons"}}, {"type": "Feature", "id": 1464813765, "geometry": {"type": "Point", "coordinates": [11.2530468, 43.7747215]}, "properties": {"amenity": "restaurant", "name": "Trattoria lo Stracotto"}}, {"type": "Feature", "id": 1464813929, "geometry": {"type": "Point", "coordinates": [11.2529612, 43.7744483]}, "properties": {"amenity": "restaurant", "name": "Cipolla Rossa Osteria"}}, {"type": "Feature", "id": 1464817871, "geometry": {"type": "Point", "coordinates": [11.2547338, 43.7745434]}, "properties": {"amenity": "restaurant", "name": "Trattoria San Lorenzo"}}, {"type": "Feature", "id": 1464820815, "geometry": {"type": "Point", "coordinates": [11.2584648, 43.7747293]}, "properties": {"amenity": "restaurant", "name": "Trattoria i'grullo"}}, {"type": "Feature", "id": 1464863060, "geometry": {"type": "Point", "coordinates": [11.2635343, 43.7735905]}, "properties": {"amenity": "restaurant", "name": "Trattoria Accadi"}}, {"type": "Feature", "id": 1468429068, "geometry": {"type": "Point", "coordinates": [11.2594367, 43.7690327]}, "properties": {"amenity": "restaurant", "name": "Francesco", "toilets": "yes", "toilets:access": "customers"}}, {"type": "Feature", "id": 1472949117, "geometry": {"type": "Point", "coordinates": [10.9220378, 43.6715523]}, "properties": {"amenity": "restaurant", "cuisine": "italian", "name": "Pensavo Peggio"}}, {"type": "Feature", "id": 1476409387, "geometry": {"type": "Point", "coordinates": [11.2327419, 43.8122877]}, "properties": {"addr:housenumber": "318", "addr:postcode": "50141", "addr:street": "Via Reginaldo Giuliani", "amenity": "restaurant", "cuisine": "regional", "name": "Mania Carioca", "website": "http://maniacariocafirenze.it"}}, {"type": "Feature", "id": 1480255261, "geometry": {"type": "Point", "coordinates": [11.2891841, 43.7563291]}, "properties": {"amenity": "restaurant", "name": "Convivium"}}, {"type": "Feature", "id": 1509292890, "geometry": {"type": "Point", "coordinates": [11.2463756, 43.8431135]}, "properties": {"amenity": "restaurant", "name": "Caravanserraglio"}}, {"type": "Feature", "id": 1517850064, "geometry": {"type": "Point", "coordinates": [11.2175908, 43.8612603]}, "properties": {"amenity": "restaurant", "cuisine": "italian", "name": "La Bottega di Morello"}}, {"type": "Feature", "id": 1575619311, "geometry": {"type": "Point", "coordinates": [11.254534, 43.7765625]}, "properties": {"addr:housenumber": "2/R", "addr:street": "Via Rosina", "amenity": "restaurant", "cuisine": "regional", "name": "Trattoria Mario", "website": "http://trattoria-mario.com/"}}, {"type": "Feature", "id": 1588977167, "geometry": {"type": "Point", "coordinates": [11.2538032, 43.7859577]}, "properties": {"addr:city": "Firenze", "addr:housenumber": "9r", "addr:postcode": "50129", "addr:street": "Via della Cernaia", "amenity": "restaurant", "cuisine": "pizza", "cuisine_1": "primi piatti", "name": "Pizzeria Spera", "opening_hours": "Dal marted\u00ec al venerd\u00ec 12:00\u201314:30, 19:00\u201322:30 -Sabato e domenica 19:00\u201322:30", "phone": "+39 055 495286", "takeaway": "yes", "website": "http://www.pizzeriaspera.it/"}}, {"type": "Feature", "id": 1645066755, "geometry": {"type": "Point", "coordinates": [11.3508887, 43.8802358]}, "properties": {"amenity": "restaurant"}}, {"type": "Feature", "id": 1665542793, "geometry": {"type": "Point", "coordinates": [11.4441553, 43.6777361]}, "properties": {"addr:housename": "Hotel Tenuta il Burchio", "addr:housenumber": "4", "addr:postcode": "50064", "addr:street": "Burchio - via Poggio al Burchio", "amenity": "restaurant", "cuisine": "regional", "name": "Ristorante della Tenuta", "website": "www.ilburchio.it"}}, {"type": "Feature", "id": 1665548885, "geometry": {"type": "Point", "coordinates": [11.4452608, 43.6791002]}, "properties": {"amenity": "restaurant", "cuisine": "italian", "name": "Antica Trattoria", "opening_hours": "Tu-Su 12:30-14:30, 19:30-21:30"}}, {"type": "Feature", "id": 1665551411, "geometry": {"type": "Point", "coordinates": [11.4451789, 43.679215]}, "properties": {"amenity": "restaurant", "contact:phone": "+39 055 8330880", "cuisine": "italian", "name": "La Casereccia", "note": "Yes, this restaurant also sells some \"alimentari\"", "shop": "convenience"}}, {"type": "Feature", "id": 1675533741, "geometry": {"type": "Point", "coordinates": [11.1753063, 43.850769]}, "properties": {"addr:housenumber": "83", "addr:street": "Via Baldanzese", "alt_name": "Notte d\u00ec", "amenity": "restaurant", "cuisine": "pizza", "name": "Notted\u00ec", "website": "http://www.ristorantenottedi.it/", "wheelchair": "yes"}}, {"type": "Feature", "id": 1704241016, "geometry": {"type": "Point", "coordinates": [11.3939351, 43.652872]}, "properties": {"addr:housenumber": "3", "amenity": "restaurant", "cuisine": "italian", "description": "Ristorante Zia Emilia", "name": "Zia Emilia", "phone": "+39 055 8337829", "wheelchair": "yes"}}, {"type": "Feature", "id": 1715110026, "geometry": {"type": "Point", "coordinates": [11.247615, 43.7742041]}, "properties": {"addr:housenumber": "28r", "addr:street": "Via della Scala", "amenity": "restaurant", "cuisine": "italian", "name": "Tirabaralla", "website": "http://www.tirabaralla.it/"}}, {"type": "Feature", "id": 1715189878, "geometry": {"type": "Point", "coordinates": [11.2464356, 43.7691535]}, "properties": {"amenity": "restaurant", "cuisine": "pizza", "source": "survey"}}, {"type": "Feature", "id": 1719791765, "geometry": {"type": "Point", "coordinates": [11.2370349, 43.7754284]}, "properties": {"amenity": "restaurant", "name": "Conte Mascetti", "source": "survey"}}, {"type": "Feature", "id": 1721626277, "geometry": {"type": "Point", "coordinates": [11.0492803, 43.6974504]}, "properties": {"addr:city": "Montelupo Fiorentino", "addr:housenumber": "99", "addr:postcode": "50056", "addr:street": "Via Pulica", "amenity": "restaurant", "cuisine": "pizza", "name": "Ristorante Lo Spigo"}}, {"type": "Feature", "id": 1728199111, "geometry": {"type": "Point", "coordinates": [11.2633873, 43.7699161]}, "properties": {"addr:city": "Firenze", "addr:country": "IT", "addr:housenumber": "70r", "addr:postcode": "50122", "addr:street": "Via Ghibellina", "amenity": "restaurant", "cuisine": "regional", "email": "info@daqueiganzi.it", "name": "da Que' Ganzi", "operator": "I Moschettieri s.r.l.", "phone": "+39 055 2260010", "ref:vatin": "IT05917770488", "restaurant:type": "trattoria;osteria", "website": "http://www.daqueiganzi.it"}}, {"type": "Feature", "id": 1730300235, "geometry": {"type": "Point", "coordinates": [11.1067967, 43.7709708]}, "properties": {"amenity": "restaurant", "name": "Voltapagina"}}, {"type": "Feature", "id": 1741893513, "geometry": {"type": "Point", "coordinates": [11.2651392, 43.8415055]}, "properties": {"addr:city": "Sesto Fiorentino", "addr:housenumber": "20", "addr:postcode": "50019", "addr:street": "Via Dante da Castiglione", "amenity": "restaurant", "cuisine": "regional", "name": "Piccolo Trianon", "phone": "+39 055 402007"}}, {"type": "Feature", "id": 1749891643, "geometry": {"type": "Point", "coordinates": [11.2601227, 43.8583608]}, "properties": {"amenity": "restaurant", "cuisine": "pizza", "name": "Il Vecchio Ranch"}}, {"type": "Feature", "id": 1754108954, "geometry": {"type": "Point", "coordinates": [11.4727179, 43.6163203]}, "properties": {"amenity": "restaurant", "cuisine": "italian", "name": "Vineria La Porta del Chianti"}}, {"type": "Feature", "id": 1755436028, "geometry": {"type": "Point", "coordinates": [10.9430909, 43.7197298]}, "properties": {"amenity": "restaurant", "name": "Pizzeria gli scugnizzi"}}, {"type": "Feature", "id": 1763597197, "geometry": {"type": "Point", "coordinates": [11.2137685, 43.6113818]}, "properties": {"addr:housenumber": "4", "addr:street": "Via Santa Maria a Macerata", "amenity": "restaurant", "contact:phone": "+39 055 8244392", "name": "A Casa Mia"}}, {"type": "Feature", "id": 1768068478, "geometry": {"type": "Point", "coordinates": [11.1356091, 43.8221506]}, "properties": {"amenity": "restaurant", "name": "La fontana"}}, {"type": "Feature", "id": 1770621958, "geometry": {"type": "Point", "coordinates": [11.5487629, 43.7318181]}, "properties": {"amenity": "restaurant", "cuisine": "italian"}}, {"type": "Feature", "id": 1775784387, "geometry": {"type": "Point", "coordinates": [11.2050324, 43.9222095]}, "properties": {"amenity": "restaurant", "cuisine": "italian", "name": "Carmagnini del '500"}}, {"type": "Feature", "id": 1794902081, "geometry": {"type": "Point", "coordinates": [11.2209463, 43.7706987]}, "properties": {"addr:housenumber": "187", "addr:postcode": "50143", "amenity": "restaurant", "cuisine": "italian", "name": "A casa mia"}}, {"type": "Feature", "id": 1820244597, "geometry": {"type": "Point", "coordinates": [11.2568922, 43.7778846]}, "properties": {"addr:housenumber": "16r", "addr:street": "Via San Gallo", "amenity": "restaurant", "cuisine": "greek", "name": "Ristorante Greco Dioniso", "website": "http://www.ristorantegrecodioniso-firenze.com/"}}, {"type": "Feature", "id": 1830881086, "geometry": {"type": "Point", "coordinates": [11.1565392, 43.880923]}, "properties": {"amenity": "restaurant", "cuisine": "italian", "name": "Cocciopesto"}}, {"type": "Feature", "id": 1835154330, "geometry": {"type": "Point", "coordinates": [11.1856472, 43.6568622]}, "properties": {"amenity": "restaurant"}}, {"type": "Feature", "id": 1848264341, "geometry": {"type": "Point", "coordinates": [11.3013724, 43.7624641]}, "properties": {"amenity": "restaurant", "cuisine": "pizza;italian_pizza;fish", "name": "Firenze Sud"}}, {"type": "Feature", "id": 1852888905, "geometry": {"type": "Point", "coordinates": [11.3854641, 44.1111878]}, "properties": {"amenity": "restaurant", "name": "Contessa Lina"}}, {"type": "Feature", "id": 1852942390, "geometry": {"type": "Point", "coordinates": [11.3139282, 44.0992056]}, "properties": {"amenity": "restaurant", "name": "Natalina"}}, {"type": "Feature", "id": 1853420094, "geometry": {"type": "Point", "coordinates": [11.2751958, 44.0955143]}, "properties": {"amenity": "restaurant"}}, {"type": "Feature", "id": 1868669159, "geometry": {"type": "Point", "coordinates": [11.4531084, 43.7215948]}, "properties": {"amenity": "restaurant", "cuisine": "pizza", "name": "Trattoria da Brunero"}}, {"type": "Feature", "id": 1880658231, "geometry": {"type": "Point", "coordinates": [11.2503862, 43.7670805]}, "properties": {"addr:housenumber": "1/R", "addr:street": "Via dei Vellutini", "amenity": "restaurant", "name": "Trattoria 4 Leoni", "toilets:wheelchair": "no", "wheelchair": "limited", "wheelchair:description": "Leider hat das Restaurant nur drau\u00dfen Platz f\u00fcr Rollstohlfahrerinnen. \r\nDas bistecca alla Fiorentina habe ich dort schon zweimal gegessen und es war imho sehr gut.\r\nEine Toilette ist in der N\u00e4he."}}, {"type": "Feature", "id": 1888749565, "geometry": {"type": "Point", "coordinates": [11.5289678, 43.6966909]}, "properties": {"amenity": "restaurant"}}, {"type": "Feature", "id": 1912786295, "geometry": {"type": "Point", "coordinates": [11.1932129, 43.7537738]}, "properties": {"addr:city": "Scandicci", "addr:postcode": "50018", "addr:street": "Piazza Marconi", "amenity": "restaurant", "name": "Pizzeria Bartolozzi", "phone": "+39 055 2591351", "wheelchair": "yes", "wheelchair:description": "Il bagno per Disabili si trova ad un metro all'esterno della pizzeria"}}, {"type": "Feature", "id": 1912984664, "geometry": {"type": "Point", "coordinates": [11.2403638, 43.7564119]}, "properties": {"addr:housenumber": "89r", "addr:postcode": "50124", "addr:street": "Via Senese", "amenity": "restaurant", "cuisine": "italian", "name": "Trattoria Ruggero", "source": "local_knowledge"}}, {"type": "Feature", "id": 1912994767, "geometry": {"type": "Point", "coordinates": [11.2416369, 43.7599094]}, "properties": {"addr:housenumber": "23r", "addr:postcode": "50124", "addr:street": "Via Senese", "amenity": "restaurant", "cuisine": "italian", "name": "Pizzeria L'Antica Porta", "source": "local_knowledge", "website": "http://www.anticaportafirenze.it/"}}, {"type": "Feature", "id": 1918646384, "geometry": {"type": "Point", "coordinates": [11.3943576, 43.651302]}, "properties": {"amenity": "restaurant", "cuisine": "italian", "description": "Ristorante Becattini", "name": "Becattini", "wheelchair": "yes"}}, {"type": "Feature", "id": 1923796155, "geometry": {"type": "Point", "coordinates": [11.0501819, 43.6965747]}, "properties": {"amenity": "restaurant", "cuisine": "regional", "name": "La lanterna"}}, {"type": "Feature", "id": 1929509345, "geometry": {"type": "Point", "coordinates": [11.2724881, 43.7673311]}, "properties": {"amenity": "restaurant", "name": "La Taverna", "source": "survey"}}, {"type": "Feature", "id": 1930310333, "geometry": {"type": "Point", "coordinates": [11.2158434, 43.9849924]}, "properties": {"addr:postcode": "50031", "addr:street": "via Meucci", "amenity": "restaurant", "name": "Torracchione", "name:en": "Torracchione", "name:it": "Torracchione", "opening_hours": "Mo-Su 10:00-20:00"}}, {"type": "Feature", "id": 1938471773, "geometry": {"type": "Point", "coordinates": [11.3979936, 43.7866226]}, "properties": {"amenity": "restaurant"}}, {"type": "Feature", "id": 1938642747, "geometry": {"type": "Point", "coordinates": [11.3982779, 43.7863922]}, "properties": {"amenity": "restaurant", "cuisine": "burger"}}, {"type": "Feature", "id": 1939399671, "geometry": {"type": "Point", "coordinates": [11.467259, 43.7706611]}, "properties": {"amenity": "restaurant", "cuisine": "fish", "name": "Boccon Divino"}}, {"type": "Feature", "id": 1940388855, "geometry": {"type": "Point", "coordinates": [11.2504274, 43.8235194]}, "properties": {"amenity": "restaurant", "name": "Lo Strettoio"}}, {"type": "Feature", "id": 1942812476, "geometry": {"type": "Point", "coordinates": [11.5159118, 43.6510461]}, "properties": {"amenity": "restaurant", "cuisine": "italian", "name": "Laghi della tranquillit\u00e0"}}, {"type": "Feature", "id": 1963212572, "geometry": {"type": "Point", "coordinates": [11.4882431, 43.8267856]}, "properties": {"amenity": "restaurant"}}, {"type": "Feature", "id": 1963220890, "geometry": {"type": "Point", "coordinates": [11.4462687, 43.8167828]}, "properties": {"amenity": "restaurant", "name": "il mulino a vento"}}, {"type": "Feature", "id": 1973538942, "geometry": {"type": "Point", "coordinates": [11.3155663, 43.5841244]}, "properties": {"addr:postcode": "50022", "addr:street": "Piazza Trento", "amenity": "restaurant", "name": "Enoteca Ristorante Fuoripiazza", "website": "www.enotecaristorantefuoripiazza.it"}}, {"type": "Feature", "id": 1988383335, "geometry": {"type": "Point", "coordinates": [11.3558615, 43.5493529]}, "properties": {"addr:city": "Greve in Chanti", "addr:housenumber": "6", "addr:postcode": "50022", "addr:street": "Localit\u00e0 Lamole", "amenity": "restaurant", "name": "Ristoro di Lamole", "phone": "+39 055 8547050", "website": "http://www.ristorodilamole.it", "wheelchair": "no", "wheelchair:description": "Con aiuto \u00e8 possibile entrare da dietro. With help it is possible to enter from the back."}}, {"type": "Feature", "id": 1995571276, "geometry": {"type": "Point", "coordinates": [11.149392, 43.854429]}, "properties": {"amenity": "restaurant"}}, {"type": "Feature", "id": 2083632921, "geometry": {"type": "Point", "coordinates": [11.2517381, 43.7741617]}, "properties": {"amenity": "restaurant", "name": "Trattoria La Madia", "phone": "+39 055 218563"}}, {"type": "Feature", "id": 2108976770, "geometry": {"type": "Point", "coordinates": [11.4398681, 44.0955516]}, "properties": {"addr:housenumber": "2", "addr:street": "via casetta di Tiara", "amenity": "restaurant", "cuisine": "regional", "name": "Ristorante da Sonia", "source": "Bing"}}, {"type": "Feature", "id": 2109980539, "geometry": {"type": "Point", "coordinates": [11.1749726, 44.0098053]}, "properties": {"amenity": "restaurant", "cuisine": "italian", "name": "Circolo S.Michele", "phone": "+39 055 841035;+39 333 1720072;+39 320 9063486"}}, {"type": "Feature", "id": 2116792619, "geometry": {"type": "Point", "coordinates": [11.3391234, 44.1727625]}, "properties": {"amenity": "restaurant"}}, {"type": "Feature", "id": 2125421001, "geometry": {"type": "Point", "coordinates": [11.2516176, 43.7747389]}, "properties": {"addr:housenumber": "4/r", "addr:postcode": "50123", "addr:street": "Via del Melarancio", "amenity": "restaurant", "cuisine": "italian", "name": "Ristorante CuCo", "website": "http://cucofirenze.blogspot.it/"}}, {"type": "Feature", "id": 2134264626, "geometry": {"type": "Point", "coordinates": [11.2385309, 43.7892154]}, "properties": {"amenity": "restaurant", "cuisine": "pizza", "name": "pulcinella"}}, {"type": "Feature", "id": 2143135103, "geometry": {"type": "Point", "coordinates": [11.4993403, 43.7318343]}, "properties": {"amenity": "restaurant", "cuisine": "pizza", "name": "Pizzeria il Cacciatore"}}, {"type": "Feature", "id": 2178131776, "geometry": {"type": "Point", "coordinates": [11.2838385, 43.7872774]}, "properties": {"amenity": "restaurant"}}, {"type": "Feature", "id": 2179116185, "geometry": {"type": "Point", "coordinates": [11.157324, 43.8550336]}, "properties": {"addr:city": "Calenzano", "addr:housenumber": "31", "addr:street": "Via della Fogliaia", "amenity": "restaurant", "cuisine": "pizza", "name": "Chiaroscuro"}}, {"type": "Feature", "id": 2180372693, "geometry": {"type": "Point", "coordinates": [11.173279, 43.5528734]}, "properties": {"addr:city": "Tavarnelle Val di Pesa", "addr:country": "IT", "addr:housenumber": "191", "addr:postcode": "50028", "addr:street": "Via Roma", "amenity": "restaurant", "email": "max@borgodicortefreda.com", "fax": "+39 055 8076707", "name": "Ristorante Cortefreda", "phone": "+39 055 8073333", "website": "http://www.ristorantecortefreda.com"}}, {"type": "Feature", "id": 2187707112, "geometry": {"type": "Point", "coordinates": [11.1403294, 43.8459989]}, "properties": {"addr:housenumber": "22/24/26", "addr:postcode": "50013", "addr:street": "Via Fratelli Cervi", "amenity": "restaurant", "cuisine": "steak_house", "name": "Roadhouse", "operator": "Roadhouse Grill Italia"}}, {"type": "Feature", "id": 2206536417, "geometry": {"type": "Point", "coordinates": [11.2416613, 43.7671499]}, "properties": {"addr:housenumber": "9/10r", "addr:street": "Piazza Torquato Tasso", "alt_name": "Trattoria BBQ Firenze", "amenity": "restaurant", "cuisine": "italian", "name": "Trattoria BBQ", "source": "local_knowledge", "website": "http://www.trattoriabbq.com/"}}, {"type": "Feature", "id": 2206536418, "geometry": {"type": "Point", "coordinates": [11.2415487, 43.7670298]}, "properties": {"addr:housenumber": "14r", "addr:street": "Piazza Torquato Tasso", "amenity": "restaurant", "cuisine": "italian", "name": "Al Tranvai", "source": "local_knowledge", "website": "http://www.altranvai.it"}}, {"type": "Feature", "id": 2235703691, "geometry": {"type": "Point", "coordinates": [11.2504697, 43.7717307]}, "properties": {"addr:housenumber": "27", "addr:street": "Via della Spada", "amenity": "restaurant", "name": "Trattoria Marione", "website": "www.casatrattoria.com"}}, {"type": "Feature", "id": 2241544400, "geometry": {"type": "Point", "coordinates": [11.4843108, 43.6248807]}, "properties": {"amenity": "restaurant"}}, {"type": "Feature", "id": 2241615351, "geometry": {"type": "Point", "coordinates": [11.5181281, 43.654727]}, "properties": {"amenity": "restaurant"}}, {"type": "Feature", "id": 2287779018, "geometry": {"type": "Point", "coordinates": [11.2579744, 43.7706853]}, "properties": {"addr:housenumber": "8/R", "addr:street": "Via del Proconsolo", "amenity": "restaurant", "cuisine": "italian", "internet_access": "wlan", "name": "Gusto Leo", "website": "http://www.gustoleo.com/"}}, {"type": "Feature", "id": 2291571406, "geometry": {"type": "Point", "coordinates": [11.4476863, 43.5988459]}, "properties": {"amenity": "restaurant", "cuisine": "italian", "name": "Perlamora"}}, {"type": "Feature", "id": 2291594631, "geometry": {"type": "Point", "coordinates": [11.4197984, 43.6094699]}, "properties": {"amenity": "restaurant", "cuisine": "italian", "name": "La Palagina"}}, {"type": "Feature", "id": 2292273559, "geometry": {"type": "Point", "coordinates": [11.2533868, 43.7772385]}, "properties": {"addr:housenumber": "6r", "addr:street": "Via Panicale", "amenity": "restaurant", "name": "La Burrasca", "operator": "ELIOS s.a.s.", "phone": "+39 055 215827", "ref:vatin": "IT05782626487"}}, {"type": "Feature", "id": 2292290482, "geometry": {"type": "Point", "coordinates": [11.0350178, 43.7193533]}, "properties": {"amenity": "restaurant", "cuisine": "italian", "name": "Bonnani"}}, {"type": "Feature", "id": 2292917289, "geometry": {"type": "Point", "coordinates": [11.1158158, 43.5976583]}, "properties": {"amenity": "restaurant", "cuisine": "italian", "name": "C'era una Volta"}}, {"type": "Feature", "id": 2296338174, "geometry": {"type": "Point", "coordinates": [11.2497937, 43.7685006]}, "properties": {"addr:housenumber": "11, 12/R", "addr:street": "Piazza de' Frescobaldi", "amenity": "restaurant", "cuisine": "italian", "name": "Gelataria Santa Trinita", "opening_hours": "Mar\u2013Dom: 9 a.m. \u2013 11:30 a.m., 6 p.m. \u2013 9:30 p.m.", "phone": "+39 55 238 1130", "website": "http://www.gelateriasantatrinita.it/"}}, {"type": "Feature", "id": 2298207209, "geometry": {"type": "Point", "coordinates": [11.2923618, 43.7402296]}, "properties": {"addr:housenumber": "28r", "addr:postcode": "50126", "addr:street": "Via Chiantigiana", "amenity": "restaurant", "cuisine": "regional", "name": "Osteria Di'Giogo", "source": "local_knowledge", "website": "www.osteria-giogo.it"}}, {"type": "Feature", "id": 2298621250, "geometry": {"type": "Point", "coordinates": [11.1951623, 43.7984015]}, "properties": {"addr:city": "Firenze", "addr:housenumber": "27/A", "addr:street": "Via Primo Settembre", "amenity": "restaurant", "cuisine": "pizza", "name": "Interno 27"}}, {"type": "Feature", "id": 2301327156, "geometry": {"type": "Point", "coordinates": [11.3395736, 43.8512159]}, "properties": {"amenity": "restaurant", "cuisine": "italian", "internet_access": "no", "name": "La casa del prosciutto"}}, {"type": "Feature", "id": 2310460927, "geometry": {"type": "Point", "coordinates": [11.6552841, 43.9328052]}, "properties": {"amenity": "restaurant", "name": "Il Muraglione"}}, {"type": "Feature", "id": 2329800473, "geometry": {"type": "Point", "coordinates": [11.6888086, 44.0733957]}, "properties": {"addr:housenumber": "2", "addr:street": "Via di Valle Acerreta", "amenity": "restaurant", "name": "Agriturismo Badia della Valle"}}, {"type": "Feature", "id": 2353576522, "geometry": {"type": "Point", "coordinates": [11.3091387, 43.7819294]}, "properties": {"addr:housenumber": "51R", "addr:postcode": "50135", "addr:street": "Via Gabriele D'Annunzio", "amenity": "restaurant", "cuisine": "regional", "name": "Trattoria Osvaldo", "website": "http://www.trattoriaosvaldo.it/index.shtml"}}, {"type": "Feature", "id": 2355849981, "geometry": {"type": "Point", "coordinates": [10.8577112, 43.5709564]}, "properties": {"amenity": "restaurant"}}, {"type": "Feature", "id": 2357960320, "geometry": {"type": "Point", "coordinates": [11.1234657, 43.8270499]}, "properties": {"amenity": "restaurant", "cuisine": "pizza", "name": "Bella vita"}}, {"type": "Feature", "id": 2357960321, "geometry": {"type": "Point", "coordinates": [11.1251191, 43.8264065]}, "properties": {"amenity": "restaurant", "name": "Self Service La forchetta", "operator": "Ge.Ri."}}, {"type": "Feature", "id": 2361641253, "geometry": {"type": "Point", "coordinates": [11.2480272, 43.7690682]}, "properties": {"addr:city": "Firenze", "addr:country": "IT", "addr:housenumber": "1/r", "addr:postcode": "50123", "addr:street": "Piazza degli Scarlatti", "amenity": "restaurant", "cuisine": "italian;seafood;mediterranean", "email": "info@lungarnobistrot.it", "name": "Lungarno Bistrot", "opening_hours": "Mo-Su 12:30 - 15:00, 19:00 - 23:00", "phone": "0552654541", "source": "Comune di Firenze", "website": "http://www.lungarnobistrot.it"}}, {"type": "Feature", "id": 2361642979, "geometry": {"type": "Point", "coordinates": [11.2419831, 43.7704326]}, "properties": {"addr:city": "Firenze", "addr:country": "IT", "addr:housenumber": "1R", "addr:postcode": "50123", "addr:street": "Via Sant'Onofrio", "amenity": "restaurant", "cuisine": "italian", "name": "All'Antico Ristoro di Cambi", "phone": "+39055217134", "source": "Comune di Firenze", "website": "http://www.anticoristorodicambi.it"}}, {"type": "Feature", "id": 2361643750, "geometry": {"type": "Point", "coordinates": [11.251282, 43.7728638]}, "properties": {"addr:city": "Firenze", "addr:country": "IT", "addr:housenumber": "1R", "addr:postcode": "50123", "addr:street": "Via del Trebbio", "amenity": "restaurant", "name": "Buca Lapi", "opening_hours": "Mo-Sa 19:00-22:00", "source": "Comune di Firenze"}}, {"type": "Feature", "id": 2361645360, "geometry": {"type": "Point", "coordinates": [11.2504033, 43.7673258]}, "properties": {"addr:city": "Firenze", "addr:country": "IT", "addr:housenumber": "1", "addr:postcode": "50125", "addr:street": "Piazza della Passera", "amenity": "restaurant", "name": "5 e Cinque", "phone": "+39 055 274 1583", "source": "Comune di Firenze"}}, {"type": "Feature", "id": 2361650903, "geometry": {"type": "Point", "coordinates": [11.2447596, 43.7734355]}, "properties": {"addr:city": "Firenze", "addr:country": "IT", "addr:housenumber": "10 R", "addr:street": "Via Maso Finiguerra", "amenity": "restaurant", "name:en": "Ristorante Pizzeria Maso", "source": "Comune di Firenze"}}, {"type": "Feature", "id": 2361651054, "geometry": {"type": "Point", "coordinates": [11.255555, 43.7737491]}, "properties": {"addr:city": "Firenze", "addr:country": "IT", "addr:housenumber": "10", "addr:postcode": "50122", "addr:street": "Via dei Martelli", "amenity": "restaurant", "name": "Pizza Brio", "name:it": "Pizza Brio", "source": "Comune di Firenze"}}, {"type": "Feature", "id": 2361651297, "geometry": {"type": "Point", "coordinates": [11.2427483, 43.7686458]}, "properties": {"addr:city": "Firenze", "addr:country": "IT", "addr:housenumber": "10", "addr:postcode": "50124", "addr:street": "Piazza Piattellina", "amenity": "restaurant", "cuisine": "italian", "name": "I' Brindellone", "name:it": "I' Brindellone", "phone": "+39 055 217879", "source": "Comune di Firenze"}}, {"type": "Feature", "id": 2361653517, "geometry": {"type": "Point", "coordinates": [11.2539167, 43.7780195]}, "properties": {"addr:city": "Firenze", "addr:country": "IT", "addr:housenumber": "100r", "addr:street": "Via Guelfa", "amenity": "restaurant", "cuisine": "italian", "internet_access": "wlan", "name": "La Divina Osteria", "source": "Comune di Firenze", "website": "http://www.ladivinaosteria.it/"}}, {"type": "Feature", "id": 2361653525, "geometry": {"type": "Point", "coordinates": [11.246053, 43.7739172]}, "properties": {"addr:city": "Firenze", "addr:country": "IT", "addr:housenumber": "100 R", "addr:street": "Via Palazzuolo", "amenity": "restaurant", "name": "Trattoria Da Giorgio", "source": "Comune di Firenze"}}, {"type": "Feature", "id": 2361657887, "geometry": {"type": "Point", "coordinates": [11.2475677, 43.7664649]}, "properties": {"addr:city": "Firenze", "addr:country": "IT", "addr:housenumber": "11r", "addr:postcode": "50125", "addr:street": "Piazza Santo Spirito", "amenity": "restaurant", "name": "Tamer\u00f3", "source": "Comune di Firenze"}}, {"type": "Feature", "id": 2361658273, "geometry": {"type": "Point", "coordinates": [11.2464163, 43.7668174]}, "properties": {"addr:city": "Firenze", "addr:country": "IT", "addr:housenumber": "11R", "addr:postcode": "50125", "addr:street": "Via Sant'Agostino", "amenity": "restaurant", "cuisine": "vegan", "internet_access": "wlan", "name": "#RAW", "opening_hours": "Tu-We, Sa-Su 11:00-16:00; Th-Fr 11:00-16:00, 19:00-22:00", "phone": "+39055219379", "source": "Comune di Firenze", "website": "https://www.facebook.com/HashtagRawVegan/"}}, {"type": "Feature", "id": 2361658358, "geometry": {"type": "Point", "coordinates": [11.2548261, 43.768438]}, "properties": {"addr:city": "Firenze", "addr:country": "IT", "addr:housenumber": "11/R", "addr:postcode": "50122", "addr:street": "Via dei Georgofili", "amenity": "restaurant", "cuisine": "fine_dining", "name": "Ora d'Aria", "opening_hours": "Tu-Sa 12:30-14:30, 19:30-22:00; Mo 19:30-22:00", "phone": "+390552001699", "source": "Comune di Firenze", "website": "http://www.oradariaristorante.com"}}, {"type": "Feature", "id": 2361658441, "geometry": {"type": "Point", "coordinates": [11.2564688, 43.7721617]}, "properties": {"addr:city": "Firenze", "addr:country": "IT", "addr:housenumber": "11/R", "addr:street": "Via delle Oche", "amenity": "restaurant", "name": "Enoteca Ristorante Coquinarius", "source": "Comune di Firenze"}}, {"type": "Feature", "id": 2361659551, "geometry": {"type": "Point", "coordinates": [11.2866482, 43.7468006]}, "properties": {"addr:city": "Firenze", "addr:country": "IT", "addr:housenumber": "11", "addr:street": "Via Giovanni Agnelli", "amenity": "restaurant", "cuisine": "burger", "source": "Comune di Firenze"}}, {"type": "Feature", "id": 2361664134, "geometry": {"type": "Point", "coordinates": [11.2663996, 43.7712079]}, "properties": {"addr:city": "Firenze", "addr:country": "IT", "addr:housenumber": "118 R", "addr:street": "Via dei Macci", "amenity": "restaurant", "source": "Comune di Firenze"}}, {"type": "Feature", "id": 2361666968, "geometry": {"type": "Point", "coordinates": [11.2620702, 43.7690464]}, "properties": {"addr:city": "Firenze", "addr:country": "IT", "addr:housenumber": "12", "addr:street": "Piazza di Santa Croce", "amenity": "restaurant", "internet_access": "yes", "internet_access:fee": "no", "name": "Finisterrae", "operator": "La Locandiera s.r.l.", "phone": "+39 055 2638675", "ref:vatin": "IT02325910483", "source": "Comune di Firenze"}}, {"type": "Feature", "id": 2361668204, "geometry": {"type": "Point", "coordinates": [11.2907729, 43.7619111]}, "properties": {"addr:city": "Firenze", "addr:country": "IT", "addr:housenumber": "12", "addr:postcode": "50126", "addr:street": "Via Erbosa", "amenity": "restaurant", "cuisine": "vegan", "name": "Bioveggy", "opening_hours": "Tu-Su 19:30-22:30", "source": "Comune di Firenze", "website": "http://www.bioveggy.it"}}, {"type": "Feature", "id": 2361672208, "geometry": {"type": "Point", "coordinates": [11.2635812, 43.7644509]}, "properties": {"addr:city": "Firenze", "addr:country": "IT", "addr:housenumber": "8r", "addr:postcode": "50125", "addr:street": "Via di San Niccol\u00f2", "amenity": "restaurant", "name:en": "hosteria del bricco", "source": "Comune di Firenze"}}, {"type": "Feature", "id": 2361677275, "geometry": {"type": "Point", "coordinates": [11.2664549, 43.7713661]}, "properties": {"addr:city": "Firenze", "addr:country": "IT", "addr:housenumber": "126", "addr:street": "Via dei Macci", "amenity": "restaurant", "cuisine": "italian", "name": "Sergio Pollini Lampredotto", "opening_hours": "24/7", "source": "Comune di Firenze"}}, {"type": "Feature", "id": 2361678635, "geometry": {"type": "Point", "coordinates": [11.2594238, 43.7678858]}, "properties": {"addr:city": "Firenze", "addr:country": "IT", "addr:housenumber": "13/R", "addr:street": "Via dei Benci", "amenity": "restaurant", "name": "Osteria de'Benci", "source": "Comune di Firenze"}}, {"type": "Feature", "id": 2361688716, "geometry": {"type": "Point", "coordinates": [11.2412979, 43.7702605]}, "properties": {"addr:city": "Firenze", "addr:country": "IT", "addr:housenumber": "145R", "addr:postcode": "50124", "addr:street": "Borgo San Frediano", "amenity": "restaurant", "building:levels": "1", "cuisine": "italian", "email": "info@borgofirenze.com", "internet_access": "wlan", "name": "B.O.r.G.O.", "name:it": "B.O.r.G.O.", "opening_hours": "Su 19:30-22:30; Tu-Sa 19:30-22:30", "operator": "Gabriele Orsolini", "phone": "055223449", "source": "Comune di Firenze"}}, {"type": "Feature", "id": 2361690351, "geometry": {"type": "Point", "coordinates": [11.2482056, 43.7667523]}, "properties": {"addr:city": "Firenze", "addr:country": "IT", "addr:housenumber": "15 R", "addr:street": "Via dei Michelozzi", "amenity": "restaurant", "name": "Gusta Osteria", "source": "Comune di Firenze"}}, {"type": "Feature", "id": 2361696137, "geometry": {"type": "Point", "coordinates": [11.2587974, 43.770517]}, "properties": {"addr:city": "Firenze", "addr:country": "IT", "addr:housenumber": "151/r", "addr:postcode": "50122", "addr:street": "Via Ghibellina", "amenity": "restaurant", "name": "Osteria del Gatto e la Volpe", "opening_hours": "Mo-Su 11:00-23:00", "phone": "+39055289264", "source": "Comune di Firenze", "toilets:wheelchair": "yes", "wheelchair": "yes"}}, {"type": "Feature", "id": 2361697218, "geometry": {"type": "Point", "coordinates": [11.2491759, 43.7723435]}, "properties": {"addr:city": "Firenze", "addr:country": "IT", "addr:housenumber": "16/r", "addr:postcode": "50123", "addr:street": "Piazza delgi Ottaviani", "amenity": "restaurant", "name": "Ristorante Buca Mario", "opening_hours": "Mo-Su 19:00-22:00", "phone": "+39055214179", "source": "Comune di Firenze"}}, {"type": "Feature", "id": 2361697534, "geometry": {"type": "Point", "coordinates": [11.2533938, 43.7758132]}, "properties": {"addr:city": "Firenze", "addr:country": "IT", "addr:housenumber": "16/R", "addr:street": "Via dell'Ariento", "amenity": "restaurant", "name": "Casa del Vino", "source": "Comune di Firenze"}}, {"type": "Feature", "id": 2361697548, "geometry": {"type": "Point", "coordinates": [11.2462382, 43.7655315]}, "properties": {"addr:city": "Firenze", "addr:country": "IT", "addr:housenumber": "16/R", "addr:street": "Via della Chiesa", "amenity": "restaurant", "name": "Il Chicco di Caffe / Trattoria La Lola", "source": "Comune di Firenze"}}, {"type": "Feature", "id": 2361706707, "geometry": {"type": "Point", "coordinates": [11.2564945, 43.7709534]}, "properties": {"addr:city": "Firenze", "addr:country": "IT", "addr:housenumber": "18R", "addr:postcode": "50122", "addr:street": "Via Dante Alighieri", "amenity": "restaurant", "name": "I'Tuscani 3", "name:en": "I'Tuscani 3", "name:es": "I'Tuscani 3", "name:it": "I'Tuscani 3", "phone": "+39 055 285 356", "source": "Comune di Firenze"}}, {"type": "Feature", "id": 2361715974, "geometry": {"type": "Point", "coordinates": [11.2612958, 43.7641573]}, "properties": {"addr:city": "Firenze", "addr:country": "IT", "addr:housenumber": "2", "addr:postcode": "50125", "addr:street": "Via San Miniato", "amenity": "restaurant", "cuisine": "italian_pizza;vegetarian", "email": "alfredo@pizzacchiere.com", "internet_access": "wlan", "name": "Zeb", "name:en": "l\u2019 Pizzacchiere", "name:it": "l\u2019 Pizzacchiere", "opening_hours": "Tu-Sa 12:15-14:30, 18:00-22:30", "phone": "+390552466332", "source": "Comune di Firenze", "website": "http://pizzacchiere.com"}}, {"type": "Feature", "id": 2361716077, "geometry": {"type": "Point", "coordinates": [11.2568343, 43.7699761]}, "properties": {"addr:city": "Firenze", "addr:country": "IT", "addr:housenumber": "2-4/R", "addr:street": "Via dei Magazzini", "amenity": "restaurant", "name": "Ristorante & Wine Bar dei Frescobaldi", "source": "Comune di Firenze"}}, {"type": "Feature", "id": 2361720374, "geometry": {"type": "Point", "coordinates": [11.2612793, 43.7641954]}, "properties": {"addr:city": "Firenze", "addr:country": "IT", "addr:housenumber": "2/1", "addr:street": "Via San Miniato", "amenity": "restaurant", "source": "Comune di Firenze"}}, {"type": "Feature", "id": 2361722019, "geometry": {"type": "Point", "coordinates": [11.2538403, 43.7706351]}, "properties": {"addr:city": "Firenze", "addr:country": "IT", "addr:housenumber": "20", "addr:street": "Via dei Lamberti", "amenity": "restaurant", "cuisine": "italian", "name:fr": "La Posta", "phone": "0039055212701", "source": "Comune di Firenze"}}, {"type": "Feature", "id": 2361728982, "geometry": {"type": "Point", "coordinates": [11.2542929, 43.7766689]}, "properties": {"addr:city": "Firenze", "addr:country": "IT", "addr:housenumber": "22 R", "addr:street": "Piazza del Mercato Centrale", "amenity": "restaurant", "name": "Trattoria Sara", "source": "Comune di Firenze"}}, {"type": "Feature", "id": 2361733639, "geometry": {"type": "Point", "coordinates": [11.2315357, 43.7867758]}, "properties": {"addr:city": "Firenze", "addr:country": "IT", "addr:housenumber": "22A", "addr:postcode": "50144", "addr:street": "Via Francesco Veracini", "amenity": "restaurant", "name": "Giotto Pizzeria-Bistrot", "name:en": "Giotto Pizzeria-Bistrot", "name:es": "Giotto Pizzeria-Bistrot", "name:it": "Giotto Pizzeria-Bistrot", "phone": "+39 055 332 332", "source": "Comune di Firenze"}}, {"type": "Feature", "id": 2361755378, "geometry": {"type": "Point", "coordinates": [11.2542502, 43.7689436]}, "properties": {"addr:city": "Firenze", "addr:country": "IT", "addr:housenumber": "24 R", "addr:street": "Via Lambertesca", "amenity": "restaurant", "name": "Mangia Pizza", "source": "Comune di Firenze"}}, {"type": "Feature", "id": 2361762315, "geometry": {"type": "Point", "coordinates": [11.2552837, 43.7774898]}, "properties": {"addr:city": "Firenze", "addr:country": "IT", "addr:housenumber": "24A", "addr:postcode": "50129", "addr:street": "Via Guelfa", "amenity": "restaurant", "cuisine": "korean", "name": "Il Coco - Chicken & Beer", "opening_hours": "Tu-Su 12:00-23:00", "phone": "+39055214977", "source": "Comune di Firenze"}}, {"type": "Feature", "id": 2361764708, "geometry": {"type": "Point", "coordinates": [11.2471498, 43.7726743]}, "properties": {"addr:city": "Firenze", "addr:country": "IT", "addr:housenumber": "25/R", "addr:street": "Via del Porcellana", "amenity": "restaurant", "name": "Trattoria Sostanza", "source": "Comune di Firenze"}}, {"type": "Feature", "id": 2361764761, "geometry": {"type": "Point", "coordinates": [11.2755596, 43.776475]}, "properties": {"addr:city": "Firenze", "addr:country": "IT", "addr:housenumber": "25 R", "addr:street": "Viale Giuseppe Mazzini", "amenity": "restaurant", "name": "Ristorante Portofino", "source": "Comune di Firenze"}}, {"type": "Feature", "id": 2361771134, "geometry": {"type": "Point", "coordinates": [11.2597791, 43.7681627]}, "properties": {"addr:city": "Firenze", "addr:country": "IT", "addr:housenumber": "27 R", "addr:street": "Via dei Benci", "amenity": "restaurant", "name": "Moyo Kitchen", "source": "Comune di Firenze"}}, {"type": "Feature", "id": 2361772669, "geometry": {"type": "Point", "coordinates": [11.2569928, 43.7764914]}, "properties": {"addr:city": "Firenze", "addr:country": "IT", "addr:housenumber": "27", "addr:postcode": "50129", "addr:street": "Via Cavour", "amenity": "restaurant", "name": "Il Desco Bistro", "name:en": "Il Desco Bistro", "name:es": "Il Desco Bistro", "name:it": "Il Desco Bistro", "phone": "+39 055 288 330", "source": "Comune di Firenze", "website": "http://www.ildescofirenze.it/"}}, {"type": "Feature", "id": 2361796228, "geometry": {"type": "Point", "coordinates": [11.2513127, 43.7727509]}, "properties": {"addr:city": "Firenze", "addr:country": "IT", "addr:housenumber": "3", "addr:street": "Piazza Antinori", "amenity": "restaurant", "name": "Cantinetta Antinori", "opening_hours": "Mo-Sa 12:00-14:30, 19:00-22:30", "source": "Comune di Firenze"}}, {"type": "Feature", "id": 2361796726, "geometry": {"type": "Point", "coordinates": [11.2840522, 43.7746054]}, "properties": {"addr:city": "Firenze", "addr:country": "IT", "addr:housenumber": "3", "addr:street": "Via Damiano Chiesa", "amenity": "restaurant", "source": "Comune di Firenze"}}, {"type": "Feature", "id": 2361801042, "geometry": {"type": "Point", "coordinates": [11.2935379, 43.7851268]}, "properties": {"addr:city": "Firenze", "addr:country": "IT", "addr:housenumber": "3", "addr:street": "Viale Augusto Righi", "amenity": "restaurant", "name": "I' giuggiolo", "phone": "+39 055 606240", "source": "Comune di Firenze", "website": "http://www.igiuggiolo.com"}}, {"type": "Feature", "id": 2361805173, "geometry": {"type": "Point", "coordinates": [11.2573817, 43.7807208]}, "properties": {"addr:city": "Firenze", "addr:country": "IT", "addr:housenumber": "30r", "addr:postcode": "50129", "addr:street": "Via delle Ruote", "amenity": "restaurant", "name": "Il Vegetariano", "phone": "+39 055 475030", "source": "Comune di Firenze", "website": "http://il-vegetariano.it"}}, {"type": "Feature", "id": 2361807907, "geometry": {"type": "Point", "coordinates": [11.2466585, 43.7676854]}, "properties": {"addr:city": "Firenze", "addr:country": "IT", "addr:housenumber": "31R", "addr:street": "Via Maffia", "amenity": "restaurant", "cuisine": "pizza,_italian", "name": "O'munaciello", "name:en": "O'munaciello", "name:it": "O'munaciello", "source": "Comune di Firenze", "website": "www.munaciello.com"}}, {"type": "Feature", "id": 2361808454, "geometry": {"type": "Point", "coordinates": [11.2423202, 43.77897]}, "properties": {"addr:city": "Firenze", "addr:country": "IT", "addr:housenumber": "31r-33r", "addr:postcode": "50144", "addr:street": "Viale Fratelli Rosselli", "amenity": "restaurant", "name": "Haveli Indian Restaurant", "phone": "+39 055 355695", "source": "Comune di Firenze", "website": "http://florenceindianrestaurant.it"}}, {"type": "Feature", "id": 2361822552, "geometry": {"type": "Point", "coordinates": [11.2598834, 43.7682881]}, "properties": {"addr:city": "Firenze", "addr:country": "IT", "addr:housenumber": "33 R", "addr:street": "Via dei Benci", "amenity": "restaurant", "name": "Red Garter", "source": "Comune di Firenze"}}, {"type": "Feature", "id": 2361834456, "geometry": {"type": "Point", "coordinates": [11.2407568, 43.7690029]}, "properties": {"addr:city": "Firenze", "addr:country": "IT", "addr:housenumber": "35A", "addr:postcode": "50124", "addr:street": "Via dell'Orto", "amenity": "restaurant", "cuisine": "italian;italian_pizza", "internet_access": "wlan", "name": "Trattoria dell'Orto", "name:de": "Trattoria dell'Orto", "phone": "+39055224148", "source": "Comune di Firenze", "website": "http://trattoriadellorto.com"}}, {"type": "Feature", "id": 2361838894, "geometry": {"type": "Point", "coordinates": [11.2510896, 43.7678769]}, "properties": {"addr:city": "Firenze", "addr:country": "IT", "addr:housenumber": "37 R", "addr:street": "Borgo San Iacopo", "amenity": "restaurant", "name": "Trattoria Mamma Gina", "source": "Comune di Firenze"}}, {"type": "Feature", "id": 2361839283, "geometry": {"type": "Point", "coordinates": [11.2495081, 43.7718749]}, "properties": {"addr:city": "Firenze", "addr:country": "IT", "addr:housenumber": "37R", "addr:postcode": "50123", "addr:street": "Via dei Federighi", "amenity": "restaurant", "name": "I'Tuscani 2", "name:es": "I'Tuscani 2", "phone": "+39 055 906 5507", "source": "Comune di Firenze", "website": "http://www.ituscani2.com"}}, {"type": "Feature", "id": 2361839515, "geometry": {"type": "Point", "coordinates": [11.2369752, 43.7755141]}, "properties": {"addr:city": "Firenze", "addr:country": "IT", "addr:housenumber": "35", "addr:street": "Corso Italia", "amenity": "restaurant", "cuisine": "regional", "name": "Borderline", "source": "Tripadvisor"}}, {"type": "Feature", "id": 2361840707, "geometry": {"type": "Point", "coordinates": [11.2543384, 43.7668811]}, "properties": {"addr:city": "Firenze", "addr:country": "IT", "addr:housenumber": "37", "addr:street": "Via dei Bardi", "amenity": "restaurant", "name": "Palazzo Tempi", "name:it": "Palazzo Tempi", "source": "Comune di Firenze"}}, {"type": "Feature", "id": 2361846446, "geometry": {"type": "Point", "coordinates": [11.2578785, 43.7712218]}, "properties": {"addr:city": "Firenze", "addr:country": "IT", "addr:housenumber": "39", "addr:street": "Via del Proconsolo", "amenity": "restaurant", "capacity": "100", "cuisine": "italian;pizza;regional", "name": "Yellow Bar", "smoking": "no", "source": "Comune di Firenze"}}, {"type": "Feature", "id": 2361849065, "geometry": {"type": "Point", "coordinates": [11.2826841, 43.7626247]}, "properties": {"addr:city": "Firenze", "addr:country": "IT", "addr:housenumber": "4R", "addr:street": "Piazza Gavinana", "amenity": "restaurant", "name": "Osteria Del Nacchero", "opening_hours": "Mo-Su 12:30-23:00", "source": "Comune di Firenze"}}, {"type": "Feature", "id": 2361869777, "geometry": {"type": "Point", "coordinates": [11.2461152, 43.7640647]}, "properties": {"addr:city": "Firenze", "addr:country": "IT", "addr:housenumber": "45", "addr:street": "Via Romana", "amenity": "restaurant", "name:en": "Trattoria Boboli$$-$$$ \u0441\u0442\u0435\u0439\u043a\u0438, \u0437\u0430\u043a\u0443\u0441\u043a\u0438, \u043f\u0430\u0441\u0442\u0430", "opening_hours": "Mo-Su 08:00-22:30", "source": "Comune di Firenze"}}, {"type": "Feature", "id": 2361870933, "geometry": {"type": "Point", "coordinates": [11.2561502, 43.7715126]}, "properties": {"addr:city": "Firenze", "addr:country": "IT", "addr:housenumber": "36r", "addr:street": "Corso", "amenity": "restaurant", "cuisine": "italian", "name": "Chiaroscuro", "source": "Comune di Firenze", "website": "http://www.chiaroscuro.it/"}}, {"type": "Feature", "id": 2361870997, "geometry": {"type": "Point", "coordinates": [11.2540274, 43.7670724]}, "properties": {"addr:city": "Firenze", "addr:country": "IT", "addr:housenumber": "46/r", "addr:postcode": "50125", "addr:street": "Via dei Bardi", "amenity": "restaurant", "email": "firenze.pontevecchio@signorvino.it", "name": "Signorvino", "opening_hours": "Mo-Su 09:30-00:00", "phone": "+39055286258", "source": "Comune di Firenze", "website": "http://www.signorvino.com/it/negozi/firenze"}}, {"type": "Feature", "id": 2361872166, "geometry": {"type": "Point", "coordinates": [11.264573, 43.7713972]}, "properties": {"addr:city": "Firenze", "addr:country": "IT", "addr:housenumber": "47r", "addr:postcode": "50122", "addr:street": "Via Pietrapiana", "amenity": "restaurant", "cuisine": "vegan", "name": "Universo Vegano", "opening_hours": "Mo-Fr 10:00-23:00; Sa-Su 10:00-00:00", "phone": "+39 338 847 7269", "source": "Comune di Firenze", "website": "http://universovegano.it"}}, {"type": "Feature", "id": 2361875993, "geometry": {"type": "Point", "coordinates": [11.2654843, 43.7700265]}, "properties": {"addr:city": "Firenze", "addr:country": "IT", "addr:housenumber": "48", "addr:street": "Via dell'Agnolo", "amenity": "restaurant", "name": "Osteria La Vinaina", "source": "Comune di Firenze"}}, {"type": "Feature", "id": 2361876795, "geometry": {"type": "Point", "coordinates": [11.2404463, 43.7690751]}, "properties": {"addr:city": "Firenze", "addr:country": "IT", "addr:housenumber": "49/A", "addr:street": "Via dell'Orto", "amenity": "restaurant", "name": "Il Guscio", "source": "Comune di Firenze"}}, {"type": "Feature", "id": 2361883827, "geometry": {"type": "Point", "coordinates": [11.2419718, 43.7677601]}, "properties": {"addr:city": "Firenze", "addr:country": "IT", "addr:housenumber": "50 R", "addr:postcode": "50124", "addr:street": "Via del Leone", "amenity": "restaurant", "name": "Trattoria Pandemonio di casa Brogi", "opening_hours": "Mo-Sa 12:30-13:30, 19:30-22:30", "source": "Comune di Firenze"}}, {"type": "Feature", "id": 2361887231, "geometry": {"type": "Point", "coordinates": [11.2496212, 43.772421]}, "properties": {"addr:city": "Firenze", "addr:country": "IT", "addr:housenumber": "51", "addr:postcode": "50123", "addr:street": "Via del Moro", "amenity": "restaurant", "name": "Pensavo Peggio", "source": "Comune di Firenze"}}, {"type": "Feature", "id": 2361889849, "geometry": {"type": "Point", "coordinates": [11.2250685, 43.7910523]}, "properties": {"addr:city": "Firenze", "addr:country": "IT", "addr:housenumber": "53/G", "addr:postcode": "50127", "addr:street": "Via di Novoli", "amenity": "restaurant", "cuisine": "chinese", "name": "Bamboo Sushi Wok", "phone": "+39 055 414 852", "source": "Comune di Firenze"}}, {"type": "Feature", "id": 2361890892, "geometry": {"type": "Point", "coordinates": [11.2766694, 43.7632074]}, "properties": {"addr:city": "Firenze", "addr:country": "IT", "addr:housenumber": "55/A", "addr:postcode": "50126", "addr:street": "Via Giampaolo Orsini", "amenity": "restaurant", "name": "Crepapelle", "opening_hours": "Mo-Su 19:30-23:00", "source": "Comune di Firenze", "website": "http://crepapelle.org"}}, {"type": "Feature", "id": 2361892167, "geometry": {"type": "Point", "coordinates": [11.2561049, 43.7769437]}, "properties": {"addr:city": "Firenze", "addr:country": "IT", "addr:housenumber": "56r", "addr:street": "Via dei Ginori", "amenity": "restaurant", "cuisine": "italian_pizza", "email": "contatti@simbiosi.bio", "internet_access": "wlan", "name": "simBIOsi", "phone": "+39 055 0640115", "source": "Comune di Firenze", "website": "http://www.simbiosi.bio"}}, {"type": "Feature", "id": 2361893449, "geometry": {"type": "Point", "coordinates": [11.2500234, 43.7681082]}, "properties": {"addr:city": "Firenze", "addr:country": "IT", "addr:housenumber": "57 R", "addr:street": "Borgo San Iacopo", "amenity": "restaurant", "cuisine": "italian", "name": "Trattoria Cammillo", "source": "Comune di Firenze"}}, {"type": "Feature", "id": 2361894628, "geometry": {"type": "Point", "coordinates": [11.2534329, 43.7672377]}, "properties": {"addr:city": "Firenze", "addr:country": "IT", "addr:housenumber": "58/r", "addr:postcode": "50125", "addr:street": "Via dei Bardi", "amenity": "restaurant", "name:en": "Golden View Open Bar", "name:ru": "Golden View Open Bar", "source": "Comune di Firenze"}}, {"type": "Feature", "id": 2361894646, "geometry": {"type": "Point", "coordinates": [11.2604721, 43.7721357]}, "properties": {"addr:city": "Firenze", "addr:country": "IT", "addr:housenumber": "58R", "addr:street": "Via dell'Oriuolo", "amenity": "restaurant", "name": "Trattoria l'Oriuolo", "source": "Comune di Firenze"}}, {"type": "Feature", "id": 2361895884, "geometry": {"type": "Point", "coordinates": [11.2478199, 43.7666532]}, "properties": {"addr:city": "Firenze", "addr:country": "IT", "addr:housenumber": "6 R", "addr:street": "Piazza Santo Spirito", "amenity": "restaurant", "name": "Trattoria Borgo Antico", "source": "Comune di Firenze"}}, {"type": "Feature", "id": 2361896595, "geometry": {"type": "Point", "coordinates": [11.2617033, 43.7715963]}, "properties": {"addr:city": "Firenze", "addr:country": "IT", "addr:housenumber": "6/R", "addr:street": "Volta di San Piero", "amenity": "restaurant", "name": "Antico Noe", "source": "Comune di Firenze"}}, {"type": "Feature", "id": 2361901024, "geometry": {"type": "Point", "coordinates": [11.2469887, 43.768984]}, "properties": {"addr:city": "Firenze", "addr:country": "IT", "addr:housenumber": "60 R", "addr:street": "Via Santo Spirito", "amenity": "restaurant", "name": "Il Santino", "source": "Comune di Firenze"}}, {"type": "Feature", "id": 2361901275, "geometry": {"type": "Point", "coordinates": [11.2612643, 43.764368]}, "properties": {"addr:city": "Firenze", "addr:country": "IT", "addr:housenumber": "60r", "addr:street": "Via di San Niccol\u00f2", "amenity": "restaurant", "name": "Osteria Antica Mescita San Niccolo", "source": "Comune di Firenze"}}, {"type": "Feature", "id": 2361910872, "geometry": {"type": "Point", "coordinates": [11.24676, 43.769037]}, "properties": {"addr:city": "Firenze", "addr:country": "IT", "addr:housenumber": "66/R", "addr:street": "Via Santo Spirito", "amenity": "restaurant", "name": "Il Santo Bevitore", "source": "Comune di Firenze"}}, {"type": "Feature", "id": 2361913988, "geometry": {"type": "Point", "coordinates": [11.2456437, 43.7740026]}, "properties": {"addr:city": "Firenze", "addr:country": "IT", "addr:housenumber": "69r", "addr:postcode": "50123", "addr:street": "Via Palazzuolo", "amenity": "restaurant", "cuisine": "italian", "name": "Trattoria il Contadino", "name:it": "Via Palazzuolo, 69r, 50123 Firenze, Italia", "phone": "+39 055 238 2673", "source": "Comune di Firenze", "website": "http://www.trattoriailcontadino.com"}}, {"type": "Feature", "id": 2361917268, "geometry": {"type": "Point", "coordinates": [11.2133241, 43.7727854]}, "properties": {"addr:city": "Firenze", "addr:country": "IT", "addr:housenumber": "7", "addr:postcode": "50142", "addr:street": "Via Giovan Battista Foggini", "amenity": "restaurant", "contact:phone": "+39 055 712978", "cuisine": "italian, pizza", "diet": "vegan", "name": "Ristorante Pizzeria Sciu\u00e8 Sciu\u00e8", "opening_hours": "Mo off; Tu-Su 11:30-14:30; Tu-Sa 18:30-23:30", "operator": "Solemio Srl", "outdoor_seating": "yes", "ref:vatin": "IT05400380480", "smoking": "no", "source": "local_knowledge", "takeaway": "yes", "wheelchair": "yes"}}, {"type": "Feature", "id": 2361920591, "geometry": {"type": "Point", "coordinates": [11.2574917, 43.7684379]}, "properties": {"addr:city": "Firenze", "addr:country": "IT", "addr:housenumber": "72", "addr:street": "Via dei Neri", "amenity": "restaurant", "name": "La Fettunta", "smoking": "no", "source": "Comune di Firenze"}}, {"type": "Feature", "id": 2361925704, "geometry": {"type": "Point", "coordinates": [11.2213648, 43.7928052]}, "properties": {"addr:city": "Firenze", "addr:country": "IT", "addr:housenumber": "75/O", "addr:postcode": "50127", "addr:street": "Via di Novoli", "amenity": "restaurant", "capacity": "50", "cuisine": "italian", "delivery": "no", "name": "Ristorante Pizzeria Da Franco", "smoking": "no", "source": "Comune di Firenze", "takeaway": "yes"}}, {"type": "Feature", "id": 2361932384, "geometry": {"type": "Point", "coordinates": [11.2664165, 43.7711393]}, "properties": {"addr:city": "Firenze", "addr:country": "IT", "addr:housenumber": "8r", "addr:postcode": "50122", "addr:street": "Via Andrea del Verrocchio", "amenity": "restaurant", "cuisine": "fine_dining;regional", "name": "Cibr\u00e8o ristorante", "opening_hours": "Tu-Su 12:50-14:30, 19:00-23:15", "source": "Comune di Firenze"}}, {"type": "Feature", "id": 2361934000, "geometry": {"type": "Point", "coordinates": [11.2538642, 43.7754921]}, "properties": {"addr:city": "Firenze", "addr:country": "IT", "addr:housenumber": "8 R", "addr:street": "Via del Canto de' Nelli", "amenity": "restaurant", "name": "Trattoria Gozzi", "source": "Comune di Firenze"}}, {"type": "Feature", "id": 2361949847, "geometry": {"type": "Point", "coordinates": [11.2632297, 43.7704107]}, "properties": {"addr:city": "Firenze", "addr:country": "IT", "addr:housenumber": "85 R", "addr:postcode": "50122", "addr:street": "Via dell'Agnolo", "amenity": "restaurant", "cuisine": "italian", "name": "La Cucina del Ghianda", "phone": "+390553860534", "source": "Comune di Firenze", "website": "http://www.lacucinadelghianda.it"}}, {"type": "Feature", "id": 2361951983, "geometry": {"type": "Point", "coordinates": [11.2505854, 43.7732285]}, "properties": {"addr:city": "Firenze", "addr:country": "IT", "addr:housenumber": "87 R", "addr:street": "Via del Moro", "amenity": "restaurant", "cuisine": "italian;italian_pizza;american", "internet_access": "wlan", "name": "Mattacena", "name:ru": "\u041c\u0430\u0442\u0442\u0430\u0447\u0435\u043d\u0430", "opening_hours": "Mo-Su 10:00-23:00", "source": "Comune di Firenze"}}, {"type": "Feature", "id": 2361952103, "geometry": {"type": "Point", "coordinates": [11.2623225, 43.7700306]}, "properties": {"addr:city": "Firenze", "addr:country": "IT", "addr:housenumber": "87", "addr:postcode": "50122", "addr:street": "Via Ghibellina", "amenity": "restaurant", "cuisine": "fine_dining", "name": "Enoteca Pinchiorri", "opening_hours": "Tu-Sa 19:30-22:00", "phone": "+39055242757", "source": "Comune di Firenze", "website": "http://www.enotecapinchiorri.com"}}, {"type": "Feature", "id": 2361952470, "geometry": {"type": "Point", "coordinates": [11.250759, 43.7782762]}, "properties": {"addr:city": "Firenze", "addr:country": "IT", "addr:housenumber": "87/A", "addr:street": "Via Faenza", "amenity": "restaurant", "cuisine": "Ethiopian;Eritrean", "name": "Lalibela", "opening_hours": "Mi-Mo 19:00-23:00", "smoking": "no", "source": "Comune di Firenze;local knowledge"}}, {"type": "Feature", "id": 2361955804, "geometry": {"type": "Point", "coordinates": [11.2477876, 43.7648924]}, "properties": {"addr:city": "Firenze", "addr:country": "IT", "addr:housenumber": "8-9 R", "addr:postcode": "50125", "addr:street": "Piazza di San Felice", "amenity": "restaurant", "name": "Trattoria La Mangiatoia", "source": "Comune di Firenze", "takeaway": "yes"}}, {"type": "Feature", "id": 2361956073, "geometry": {"type": "Point", "coordinates": [11.2525251, 43.7752453]}, "properties": {"addr:city": "Firenze", "addr:country": "IT", "addr:housenumber": "9r", "addr:street": "Via Faenza", "amenity": "restaurant", "cuisine": "italian", "name": "Trattoria Antellesi", "name:en": "Trattoria Antellesi", "name:it": "Trattoria Antellesi", "opening_hours": "Mo-Su 12:00-22:30", "phone": "+390552654616", "source": "Comune di Firenze"}}, {"type": "Feature", "id": 2361956662, "geometry": {"type": "Point", "coordinates": [11.253252, 43.7668446]}, "properties": {"addr:city": "Firenze", "addr:country": "IT", "addr:housenumber": "9 R", "addr:street": "Via Stracciatella", "amenity": "restaurant", "name": "Trattoria Bordino", "source": "Comune di Firenze"}}, {"type": "Feature", "id": 2361956899, "geometry": {"type": "Point", "coordinates": [11.2484656, 43.7666478]}, "properties": {"addr:city": "Firenze", "addr:country": "IT", "addr:housenumber": "9r", "addr:street": "Via dei Michelozzi", "amenity": "restaurant", "cuisine": "italian", "internet_access": "wlan", "name": "Trattoria La Casalinga", "source": "Comune di Firenze"}}, {"type": "Feature", "id": 2361956954, "geometry": {"type": "Point", "coordinates": [11.2574017, 43.7737565]}, "properties": {"addr:city": "Firenze", "addr:country": "IT", "addr:housenumber": "9 R", "addr:street": "Via dei Servi", "amenity": "restaurant", "cuisine": "regional", "description": "Mediterranean Cooking - Fish specialities", "name": "Decumanus Restaurant", "source": "Comune di Firenze"}}, {"type": "Feature", "id": 2361957237, "geometry": {"type": "Point", "coordinates": [11.2468081, 43.772356]}, "properties": {"addr:city": "Firenze", "addr:country": "IT", "addr:housenumber": "9", "addr:street": "Via del Porcellana", "amenity": "restaurant", "name": "Trattoria dei 13 gobbi", "name:en": "13 Gobbi$$-$$$ \u0441\u0442\u0435\u0439\u043a", "opening_hours": "Mo-Su 11:50-15:30, 19:10-23:15", "phone": "055284018", "source": "Comune di Firenze"}}, {"type": "Feature", "id": 2361958119, "geometry": {"type": "Point", "coordinates": [11.247382, 43.7663266]}, "properties": {"addr:city": "Firenze", "addr:country": "IT", "addr:housenumber": "9", "addr:street": "Piazza Santo Spirito", "amenity": "restaurant", "name": "Tamer\u00f2", "source": "Comune di Firenze"}}, {"type": "Feature", "id": 2361963529, "geometry": {"type": "Point", "coordinates": [11.2601169, 43.7816604]}, "properties": {"addr:city": "Firenze", "addr:country": "IT", "addr:housenumber": "92r", "addr:postcode": "50120", "addr:street": "Via San Gallo", "amenity": "restaurant", "name": "Dolce Vegan", "phone": "+39 055 019 5437", "source": "Comune di Firenze"}}, {"type": "Feature", "id": 2361965353, "geometry": {"type": "Point", "coordinates": [11.2582963, 43.7765459]}, "properties": {"addr:city": "Firenze", "addr:country": "IT", "addr:housenumber": "93 R", "addr:street": "Via Ricasoli", "amenity": "restaurant", "name": "Mangia e Bevi", "source": "Comune di Firenze"}}, {"type": "Feature", "id": 2361965921, "geometry": {"type": "Point", "coordinates": [11.251446, 43.7770275]}, "properties": {"addr:city": "Firenze", "addr:country": "IT", "addr:housenumber": "95 R", "addr:street": "Via Faenza", "amenity": "restaurant", "source": "Comune di Firenze"}}, {"type": "Feature", "id": 2364474905, "geometry": {"type": "Point", "coordinates": [11.2668752, 43.770042]}, "properties": {"amenity": "restaurant", "cuisine": "pizza", "name": "a Casa Mia", "source": "local_knowledge"}}, {"type": "Feature", "id": 2364474908, "geometry": {"type": "Point", "coordinates": [11.267413, 43.7704323]}, "properties": {"amenity": "restaurant", "cuisine": "fish", "source": "local_knowledge"}}, {"type": "Feature", "id": 2364474913, "geometry": {"type": "Point", "coordinates": [11.2669516, 43.7705185]}, "properties": {"amenity": "restaurant", "cuisine": "regional", "source": "local_knowledge"}}, {"type": "Feature", "id": 2364474914, "geometry": {"type": "Point", "coordinates": [11.2687769, 43.7707887]}, "properties": {"amenity": "restaurant", "source": "local_knowledge"}}, {"type": "Feature", "id": 2373905832, "geometry": {"type": "Point", "coordinates": [11.2529182, 43.7696683]}, "properties": {"addr:housenumber": "13", "addr:street": "Via delle Terme", "amenity": "restaurant", "name": "Hosteria Il Desco"}}, {"type": "Feature", "id": 2391896412, "geometry": {"type": "Point", "coordinates": [11.5892702, 44.0219729]}, "properties": {"amenity": "restaurant", "name": "Charlet la Baita"}}, {"type": "Feature", "id": 2391907916, "geometry": {"type": "Point", "coordinates": [11.5889989, 44.0216969]}, "properties": {"amenity": "restaurant", "name": "La casetta di Campigno (pizzeria)"}}, {"type": "Feature", "id": 2399436078, "geometry": {"type": "Point", "coordinates": [10.8588979, 43.548526]}, "properties": {"amenity": "restaurant", "name": "Ristorante Il Rosmarino"}}, {"type": "Feature", "id": 2424204495, "geometry": {"type": "Point", "coordinates": [11.2253738, 43.7719728]}, "properties": {"amenity": "restaurant", "cuisine": "pizza", "name": "Pizzeria Da Salvatore"}}, {"type": "Feature", "id": 2424204498, "geometry": {"type": "Point", "coordinates": [11.2177255, 43.7671712]}, "properties": {"amenity": "restaurant", "cuisine": "italian", "name": "Alla Corte dei Tre"}}, {"type": "Feature", "id": 2431891817, "geometry": {"type": "Point", "coordinates": [11.4027974, 43.702423]}, "properties": {"amenity": "restaurant", "cuisine": "italian"}}, {"type": "Feature", "id": 2441122955, "geometry": {"type": "Point", "coordinates": [10.9259202, 43.7857561]}, "properties": {"amenity": "restaurant"}}, {"type": "Feature", "id": 2441122962, "geometry": {"type": "Point", "coordinates": [10.9270466, 43.7876582]}, "properties": {"amenity": "restaurant"}}, {"type": "Feature", "id": 2474064404, "geometry": {"type": "Point", "coordinates": [11.260386, 43.78197]}, "properties": {"addr:city": "Firenze", "addr:country": "IT", "addr:housenumber": "110", "addr:street": "Via San Gallo", "amenity": "restaurant", "cuisine": "pizza", "drive_in": "no", "internet_access": "no", "internet_access:fee": "no", "microbrewery": "no", "name": "Pizzeria Pulcinella", "note": "Very friendly athomsphere and good food.", "outdoor_seating": "no", "takeaway": "no", "wheelchair": "yes"}}, {"type": "Feature", "id": 2489708441, "geometry": {"type": "Point", "coordinates": [11.261437, 43.77126]}, "properties": {"addr:city": "Firenze", "addr:housenumber": "4/r", "addr:postcode": "50122", "addr:street": "Piazza San Pier Maggiore", "amenity": "restaurant", "cuisine": "italian", "name": "Mastrociliegia", "opening_hours": "We-Mo 12:00-00:00", "outdoor_seating": "yes", "phone": "+390552480964", "wheelchair": "yes"}}, {"type": "Feature", "id": 2490939957, "geometry": {"type": "Point", "coordinates": [11.0881126, 43.6077992]}, "properties": {"addr:city": "Montespertoli", "addr:housenumber": "10", "addr:postcode": "50025", "addr:street": "Via Colle a Montalbino", "amenity": "restaurant", "contact:email": "info@agriturismomontalbino.it", "cuisine": "italian", "internet_access": "wlan", "name": "La Lombricaia", "outdoor_seating": "yes", "phone": "+39 0571 608089", "smoking": "outside", "website": "http://www.agriturismomontalbino.it/index.php?ristorante_eng"}}, {"type": "Feature", "id": 2545434649, "geometry": {"type": "Point", "coordinates": [11.2389667, 43.770655]}, "properties": {"addr:housenumber": "9/C", "addr:street": "Via Pisana", "amenity": "restaurant", "cuisine": "spaghetti", "name": "Ir Tegame", "phone": "+39 055 2337412"}}, {"type": "Feature", "id": 2550350974, "geometry": {"type": "Point", "coordinates": [11.2166899, 43.8230051]}, "properties": {"amenity": "restaurant", "cuisine": "italian", "name": "Top Rank", "oven": "wood_fired"}}, {"type": "Feature", "id": 2552443119, "geometry": {"type": "Point", "coordinates": [10.9898879, 43.7064548]}, "properties": {"amenity": "restaurant", "name": "Ritrovino"}}, {"type": "Feature", "id": 2576406452, "geometry": {"type": "Point", "coordinates": [11.2505798, 43.7735761]}, "properties": {"amenity": "restaurant", "cuisine": "japanese", "internet_access": "no", "microbrewery": "no", "name": "Banki Ramen", "opening_hours": "Tu-Fr 19:00-22:00;Sa 12:30-14:30", "smoking": "no", "wheelchair": "yes"}}, {"type": "Feature", "id": 2584999116, "geometry": {"type": "Point", "coordinates": [10.9292526, 43.5045866]}, "properties": {"amenity": "restaurant", "name": "Boscotondo"}}, {"type": "Feature", "id": 2602223600, "geometry": {"type": "Point", "coordinates": [11.2527724, 43.7758582]}, "properties": {"addr:city": "Firenze", "addr:country": "IT", "addr:housenumber": "42R", "addr:postcode": "50100", "addr:street": "via Sant'Antonino", "amenity": "restaurant", "cuisine": "kebab", "internet_access": "no", "name": "Newroz Kebab", "phone": "+39 349 3566831", "smoking": "no"}}, {"type": "Feature", "id": 2625556400, "geometry": {"type": "Point", "coordinates": [11.1931604, 43.7999341]}, "properties": {"addr:city": "Firenze", "addr:country": "IT", "addr:housenumber": "68/A", "addr:street": "Via Pratese", "amenity": "restaurant", "cuisine": "kebab", "name": "Bar Pizza Kebab", "operator": "Best Way s.a.s.", "phone": "+39 320 6430303", "source": "Comune di Firenze"}}, {"type": "Feature", "id": 2634913630, "geometry": {"type": "Point", "coordinates": [11.3258302, 43.546046]}, "properties": {"amenity": "restaurant", "cuisine": "italian", "name": "Fattoria Montagliari"}}, {"type": "Feature", "id": 2724212840, "geometry": {"type": "Point", "coordinates": [11.2556822, 43.7740998]}, "properties": {"amenity": "restaurant", "cuisine": "italian", "name": "Eataly", "shop": "deli", "source": "survey"}}, {"type": "Feature", "id": 2748346154, "geometry": {"type": "Point", "coordinates": [11.2539354, 43.7731524]}, "properties": {"addr:city": "Firenze", "addr:housenumber": "10", "addr:postcode": "50122", "addr:street": "Piazza dell'Olio", "amenity": "restaurant", "contact:website": "http://osteriadellolio.com/", "cuisine": "regional", "name": "Osteria dell'Olio", "payment:bitcoin": "yes", "phone": "+39 055 211466"}}, {"type": "Feature", "id": 2776622974, "geometry": {"type": "Point", "coordinates": [11.175372, 43.8035714]}, "properties": {"amenity": "restaurant", "cuisine": "italian", "name": "Il Vicolo"}}, {"type": "Feature", "id": 2776623028, "geometry": {"type": "Point", "coordinates": [11.178738, 43.8070919]}, "properties": {"amenity": "restaurant", "cuisine": "japanese", "name": "Kokusai"}}, {"type": "Feature", "id": 2777205583, "geometry": {"type": "Point", "coordinates": [11.2508983, 43.7778732]}, "properties": {"amenity": "restaurant", "cuisine": "italian", "name": "Trattoria Enzo e Piero"}}, {"type": "Feature", "id": 2786672180, "geometry": {"type": "Point", "coordinates": [11.0147349, 43.7512309]}, "properties": {"addr:city": "Capraia e Limite", "addr:housename": "Osteria Cantagallo", "addr:housenumber": "35", "addr:postcode": "50056", "addr:street": "Via Valicarda", "amenity": "restaurant", "capacity": "50", "cuisine": "regional", "ele": "230", "name": "Osteria Cantagallo", "opening_hours": "\"dal Mercoledi al Lunedi dalle 19:30 alle 23, La domenica aperto anche a Pranzo\"", "phone": "+39 0571 1820860", "website": "http://www.enricopierazzuoli.com/osteria-index.html", "wheelchair": "yes"}}, {"type": "Feature", "id": 2792899891, "geometry": {"type": "Point", "coordinates": [11.2546877, 43.7735413]}, "properties": {"amenity": "restaurant", "name": "Pizzeria a Taglio"}}, {"type": "Feature", "id": 2824378603, "geometry": {"type": "Point", "coordinates": [11.2989562, 43.8612014]}, "properties": {"amenity": "restaurant", "capacity": "300 +", "cuisine": "italian", "name": "Zocchi", "opening_hours": "Mo-Su 00:00-01:00,11:00-24:00", "smoking": "outside"}}, {"type": "Feature", "id": 2839859745, "geometry": {"type": "Point", "coordinates": [11.2606871, 44.0523942]}, "properties": {"addr:city": "Barberino Di Mugello", "addr:housenumber": "3", "addr:postcode": "50031", "addr:street": "Via di Montecarelli", "amenity": "restaurant", "cuisine": "regional", "name": "Maga Mag\u00f2", "opening_hours": "Chiuso Martedi", "smoking": "no"}}, {"type": "Feature", "id": 2839871742, "geometry": {"type": "Point", "coordinates": [11.3755682, 44.0334981]}, "properties": {"addr:city": "Scarperia", "addr:housenumber": "3", "addr:postcode": "50038", "addr:street": "Via del giogo", "amenity": "restaurant", "cuisine": "regional", "name": "Antica Osteria Nandone Omo Morto"}}, {"type": "Feature", "id": 2868023436, "geometry": {"type": "Point", "coordinates": [11.4367821, 43.7748894]}, "properties": {"amenity": "restaurant", "name": "Pizzeria Far West"}}, {"type": "Feature", "id": 2868023437, "geometry": {"type": "Point", "coordinates": [11.4383178, 43.7753932]}, "properties": {"amenity": "restaurant", "name": "Toscani da Sempre"}}, {"type": "Feature", "id": 2868023439, "geometry": {"type": "Point", "coordinates": [11.4460277, 43.7814125]}, "properties": {"amenity": "restaurant", "name": "Pizzeria Boccia"}}, {"type": "Feature", "id": 2868179728, "geometry": {"type": "Point", "coordinates": [11.5513135, 43.7922032]}, "properties": {"amenity": "restaurant", "name": "Le Cupole"}}, {"type": "Feature", "id": 2868230910, "geometry": {"type": "Point", "coordinates": [11.4393815, 43.7748039]}, "properties": {"amenity": "restaurant", "name": "Pizzeria Centrale"}}, {"type": "Feature", "id": 2868230911, "geometry": {"type": "Point", "coordinates": [11.4391874, 43.7745659]}, "properties": {"amenity": "restaurant", "name": "Il Girarrosto"}}, {"type": "Feature", "id": 2868327863, "geometry": {"type": "Point", "coordinates": [11.4450673, 43.7451872]}, "properties": {"amenity": "restaurant", "name": "Da Pampurio"}}, {"type": "Feature", "id": 2868327864, "geometry": {"type": "Point", "coordinates": [11.4262744, 43.8239145]}, "properties": {"amenity": "restaurant", "name": "Il Maccherone"}}, {"type": "Feature", "id": 2872652849, "geometry": {"type": "Point", "coordinates": [11.3441626, 43.7563059]}, "properties": {"addr:street": "Via Vicchio e Paterno", "amenity": "restaurant", "cuisine": "regional", "name": "La Gargotta", "opening_hours": "Sempre aperto"}}, {"type": "Feature", "id": 3042689933, "geometry": {"type": "Point", "coordinates": [11.1554787, 43.8609535]}, "properties": {"addr:city": "Calenzano", "addr:housenumber": "60", "addr:postcode": "50041", "addr:street": "Via del Molino", "amenity": "restaurant", "cuisine": "pizza", "name": "A tutta pizza - Piza a taglio"}}, {"type": "Feature", "id": 3062723485, "geometry": {"type": "Point", "coordinates": [10.7978602, 43.7200335]}, "properties": {"addr:city": "Fucecchio", "addr:postcode": "50054", "addr:street": "Piazza Dina Buoncristiani", "amenity": "restaurant", "capacity": "50", "cuisine": "pizza,italian,beer", "name": "Scacciapensieri", "opening_hours": "Dal marted\u00ec alla domenica e festivit\u00e0, aperti a cena", "smoking": "outside"}}, {"type": "Feature", "id": 3064751133, "geometry": {"type": "Point", "coordinates": [10.9674186, 43.6038113]}, "properties": {"addr:city": "Castelfiorentino", "addr:housenumber": "1", "addr:postcode": "50051", "addr:street": "Roosvelt", "amenity": "restaurant", "name": "Rosmarino", "phone": "+39 0571 629606", "website": "http://www.rosmarinobistrot.it/", "wheelchair": "yes"}}, {"type": "Feature", "id": 3068954504, "geometry": {"type": "Point", "coordinates": [11.5446402, 44.1120936]}, "properties": {"addr:housenumber": "5", "addr:street": "Via Prato dei Berti", "amenity": "restaurant", "name": "Cinghiale Bianco"}}, {"type": "Feature", "id": 3078986383, "geometry": {"type": "Point", "coordinates": [11.2859043, 43.7722252]}, "properties": {"amenity": "restaurant", "cuisine": "pizza"}}, {"type": "Feature", "id": 3079029586, "geometry": {"type": "Point", "coordinates": [11.3017357, 43.7646329]}, "properties": {"amenity": "restaurant", "cuisine": "pizza", "name": "Orto del Cigno"}}, {"type": "Feature", "id": 3080720895, "geometry": {"type": "Point", "coordinates": [11.3491716, 43.7883913]}, "properties": {"amenity": "restaurant", "cuisine": "pizza", "name": "Lago di Romena", "website": "http://www.lagodiromena.it/ristorante/"}}, {"type": "Feature", "id": 3089687799, "geometry": {"type": "Point", "coordinates": [11.2889611, 43.775026]}, "properties": {"amenity": "restaurant"}}, {"type": "Feature", "id": 3089718409, "geometry": {"type": "Point", "coordinates": [11.2883543, 43.7750395]}, "properties": {"amenity": "restaurant", "cuisine": "pizza"}}, {"type": "Feature", "id": 3130696453, "geometry": {"type": "Point", "coordinates": [11.2166452, 43.8242643]}, "properties": {"amenity": "restaurant", "cuisine": "pizza"}}, {"type": "Feature", "id": 3177987109, "geometry": {"type": "Point", "coordinates": [11.2048169, 43.6481814]}, "properties": {"amenity": "restaurant", "cuisine": "pizza", "name": "Caratello"}}, {"type": "Feature", "id": 3177987110, "geometry": {"type": "Point", "coordinates": [11.2063858, 43.6485594]}, "properties": {"amenity": "restaurant", "cuisine": "italian", "name": "Il gallo giallo"}}, {"type": "Feature", "id": 3200104065, "geometry": {"type": "Point", "coordinates": [11.2522041, 43.780718]}, "properties": {"amenity": "restaurant", "cuisine": "sushi", "name": "Sushi Mania"}}, {"type": "Feature", "id": 3200104076, "geometry": {"type": "Point", "coordinates": [11.2527623, 43.7814246]}, "properties": {"amenity": "restaurant", "cuisine": "italian;pizza"}}, {"type": "Feature", "id": 3205237923, "geometry": {"type": "Point", "coordinates": [11.215597, 43.8521988]}, "properties": {"amenity": "restaurant", "cuisine": "italian", "name": "Ulivo Rosso", "phone": "+39 055 4481890"}}, {"type": "Feature", "id": 3238294044, "geometry": {"type": "Point", "coordinates": [11.0330975, 43.7294634]}, "properties": {"addr:city": "Montelupo Fiorentino", "addr:housenumber": "12", "addr:postcode": "50056", "addr:street": "via Malmantile", "amenity": "restaurant", "capacity": "12", "cuisine": "italian", "name": "Agriturismo Il Cavallone", "phone": "+39057151605 +393358290414", "smoking": "outside", "website": "www.ilcavallone.it", "wheelchair": "yes"}}, {"type": "Feature", "id": 3257320370, "geometry": {"type": "Point", "coordinates": [11.0740018, 43.8003003]}, "properties": {"addr:city": "Signa", "addr:country": "IT", "addr:housenumber": "2", "addr:postcode": "50038", "addr:street": "Via San Filippo", "amenity": "restaurant", "name": "Pizzeria La Tinaia", "phone": "+39 055 875746"}}, {"type": "Feature", "id": 3379783274, "geometry": {"type": "Point", "coordinates": [11.1720469, 43.8607534]}, "properties": {"amenity": "restaurant", "cuisine": "pizza"}}, {"type": "Feature", "id": 3388907707, "geometry": {"type": "Point", "coordinates": [11.4367027, 43.627224]}, "properties": {"addr:housenumber": "52", "addr:street": "Via San Martino Altoreggi", "amenity": "restaurant", "cuisine": "italian;regional", "email": "locanda@casanuova-toscana.it", "internet_access": "wlan", "internet_access:fee": "no", "name": "Locanda Casanuova", "operator": "Gromann-Besancon", "phone": "+39 055 9500027", "tourism": "hotel", "website": "www.casanuova-toscana.it", "wheelchair": "no"}}, {"type": "Feature", "id": 3442442555, "geometry": {"type": "Point", "coordinates": [11.2564304, 43.7770682]}, "properties": {"addr:housenumber": "24/R", "addr:street": "Via Guelfa", "amenity": "restaurant", "name": "Mangiafuoco"}}, {"type": "Feature", "id": 3458190493, "geometry": {"type": "Point", "coordinates": [11.247854, 43.773821]}, "properties": {"addr:city": "Firenze", "addr:country": "IT", "addr:housenumber": "17R", "addr:postcode": "50123", "addr:province": "Toscana", "addr:street": "Via Della Scala", "amenity": "restaurant", "cuisine": "italian", "drive_in": "no", "email": "info@osteriapastella.it", "microbrewery": "no", "name": "Osteria Pastella", "phone": "+39 55 2670240", "website": "www.osteriapastella.it"}}, {"type": "Feature", "id": 3501640383, "geometry": {"type": "Point", "coordinates": [11.0439782, 43.548897]}, "properties": {"amenity": "restaurant", "name": "A Casa Tua"}}, {"type": "Feature", "id": 3501640385, "geometry": {"type": "Point", "coordinates": [11.0439199, 43.5485675]}, "properties": {"amenity": "restaurant", "name": "Da Messer Boccaccio"}}, {"type": "Feature", "id": 3501640386, "geometry": {"type": "Point", "coordinates": [11.0437953, 43.5487912]}, "properties": {"addr:housenumber": "37", "addr:street": "Via Giovanni Boccaccio", "amenity": "restaurant", "name": "Enoteca Boccaccio"}}, {"type": "Feature", "id": 3501640387, "geometry": {"type": "Point", "coordinates": [11.0431626, 43.5486906]}, "properties": {"amenity": "restaurant", "cuisine": "local", "name": "Il Castello"}}, {"type": "Feature", "id": 3517247443, "geometry": {"type": "Point", "coordinates": [11.0453987, 43.5492473]}, "properties": {"amenity": "restaurant", "cuisine": "regional", "name": "Osteria da Chichibio"}}, {"type": "Feature", "id": 3519954905, "geometry": {"type": "Point", "coordinates": [11.2540675, 43.7688023]}, "properties": {"amenity": "restaurant"}}, {"type": "Feature", "id": 3519954907, "geometry": {"type": "Point", "coordinates": [11.2541896, 43.7689466]}, "properties": {"amenity": "restaurant", "name": "Mangia Pizza"}}, {"type": "Feature", "id": 3519958952, "geometry": {"type": "Point", "coordinates": [11.2548244, 43.7685958]}, "properties": {"amenity": "restaurant", "name": "Trattoria Antico Fattore"}}, {"type": "Feature", "id": 3519958953, "geometry": {"type": "Point", "coordinates": [11.2597313, 43.7757869]}, "properties": {"amenity": "restaurant"}}, {"type": "Feature", "id": 3519960200, "geometry": {"type": "Point", "coordinates": [11.2538435, 43.7686123]}, "properties": {"amenity": "restaurant", "name": "Enoteca Salumeria Lombardi", "opening_hours": "Mo-Su 09:00-23:00", "website": "www.enoteca-lombardi.com"}}, {"type": "Feature", "id": 3527079735, "geometry": {"type": "Point", "coordinates": [11.2646673, 43.7701831]}, "properties": {"addr:housenumber": "50R", "addr:postcode": "50122", "addr:street": "Borgo Allegri", "amenity": "restaurant", "cuisine": "pizza", "email": "divina@ladivinapizza.it", "name": "La Divina Pizza", "phone": "+39 055 2347498"}}, {"type": "Feature", "id": 3574028793, "geometry": {"type": "Point", "coordinates": [11.2468004, 43.803787]}, "properties": {"amenity": "restaurant"}}, {"type": "Feature", "id": 3583534123, "geometry": {"type": "Point", "coordinates": [11.1699248, 43.8539652]}, "properties": {"addr:city": "Calenzano", "addr:housenumber": "59", "addr:postcode": "50041", "addr:street": "Via Arsiero Salvanti", "amenity": "restaurant", "capacity": "100", "cuisine": "pizza", "name": "Stargate Lasergame", "phone": "+39 331 7199516", "smoking": "no", "takeaway": "no", "website": "www.lasergamefirenze.it", "wheelchair": "yes"}}, {"type": "Feature", "id": 3586771042, "geometry": {"type": "Point", "coordinates": [11.2549636, 43.774414]}, "properties": {"addr:city": "Firenze", "addr:housenumber": "24", "addr:postcode": "50123", "addr:street": "Borgo San Lorenzo", "amenity": "restaurant", "cuisine": "italian", "name": "il Grande Nuti", "website": "http://www.ristorantenuti.com/"}}, {"type": "Feature", "id": 3642842766, "geometry": {"type": "Point", "coordinates": [11.2487936, 43.7654884]}, "properties": {"amenity": "restaurant", "name": "Gelateria Pitti"}}, {"type": "Feature", "id": 3685222279, "geometry": {"type": "Point", "coordinates": [11.2555156, 43.7758698]}, "properties": {"addr:city": "Firenze", "addr:housenumber": "8", "addr:postcode": "50123", "addr:street": "Via dei Ginori", "amenity": "restaurant", "cuisine": "international", "name": "La Menagere", "phone": "+39 055 0750600", "website": "http://www.lamenagere.it"}}, {"type": "Feature", "id": 3698860539, "geometry": {"type": "Point", "coordinates": [11.2569679, 43.7701399]}, "properties": {"amenity": "restaurant", "name": "Il Mandarino", "name:cn": "\u6c49\u5bab\u996d\u5e97"}}, {"type": "Feature", "id": 3747389756, "geometry": {"type": "Point", "coordinates": [11.1999731, 43.8313523]}, "properties": {"addr:city": "Sesto Fiorentino", "addr:housenumber": "5", "addr:postcode": "50019", "addr:street": "Via del Mercato", "amenity": "restaurant", "cuisine": "pizza,_regional", "name": "Sesto Senso", "phone": "+39 055 4480247", "website": "http://www.ristorantesestosenso.com/"}}, {"type": "Feature", "id": 3755634980, "geometry": {"type": "Point", "coordinates": [11.201087, 43.8337027]}, "properties": {"addr:city": "Sesto Fiorentino", "addr:housenumber": "393", "addr:postcode": "50019", "addr:street": "Via Antonio Gramsci", "amenity": "restaurant", "cuisine": "regional,_pizza", "name": "Ristorante Pizzeria Grotta", "phone": "+39 055 4480843", "website": "http://www.ristorantepizzeriagrotta.it/"}}, {"type": "Feature", "id": 3755658917, "geometry": {"type": "Point", "coordinates": [11.2013136, 43.8310231]}, "properties": {"addr:city": "Sesto Fiorentino", "addr:housenumber": "12", "addr:postcode": "50019", "addr:street": "Piazza Spartaco Lavagnini", "amenity": "restaurant", "cuisine": "regional", "name": "I'Quartino", "phone": "+39 055 440650"}}, {"type": "Feature", "id": 3765753035, "geometry": {"type": "Point", "coordinates": [11.199648, 43.8313962]}, "properties": {"addr:city": "Sesto Fiorentino", "addr:housenumber": "29", "addr:postcode": "50019", "addr:street": "Piazza Vittorio Veneto", "amenity": "restaurant", "cuisine": "pizza", "name": "Sesto Pub", "website": "https://www.facebook.com/Sesto-Pub-408415132563727/timeline/"}}, {"type": "Feature", "id": 3765769642, "geometry": {"type": "Point", "coordinates": [11.1901878, 43.8397014]}, "properties": {"addr:city": "Sesto Fiorentino", "addr:housenumber": "54", "addr:postcode": "50019", "addr:street": "Via Pratese", "amenity": "restaurant", "cuisine": "pizza", "name": "Ristorante Bar Pizzeria Sarzolo Turano Snc Di Turano Raffaele & C."}}, {"type": "Feature", "id": 3815877030, "geometry": {"type": "Point", "coordinates": [11.1958608, 43.7988055]}, "properties": {"amenity": "restaurant", "cuisine": "chinese"}}, {"type": "Feature", "id": 3845195818, "geometry": {"type": "Point", "coordinates": [11.322898, 43.7834055]}, "properties": {"amenity": "restaurant", "cuisine": "italian", "name": "La Sosta del Rossellino"}}, {"type": "Feature", "id": 3845199904, "geometry": {"type": "Point", "coordinates": [11.3221695, 43.7833167]}, "properties": {"amenity": "restaurant", "cuisine": "italian", "name": "La Capponcina di Settignano"}}, {"type": "Feature", "id": 3845215630, "geometry": {"type": "Point", "coordinates": [11.3014061, 43.8077045]}, "properties": {"amenity": "restaurant", "name": "Pizzaria circolo ARCI di Fiesole"}}, {"type": "Feature", "id": 3847914472, "geometry": {"type": "Point", "coordinates": [11.2400353, 43.7707178]}, "properties": {"addr:city": "Firenze", "addr:housenumber": "2 R", "addr:postcode": "50143", "addr:street": "Via Pisana", "amenity": "restaurant", "capacity": "70", "cuisine": "regional", "name": "Trattoria Sabatino", "opening_hours": "dal Luned\u00ed al venerd\u00ed  dalle 12:00 alle 14:30 e dalle 19:15 alle 22:00", "phone": "+39 055 22 59 55", "takeaway": "no", "website": "http://www.trattoriasabatino.it/"}}, {"type": "Feature", "id": 3851961305, "geometry": {"type": "Point", "coordinates": [11.2516753, 43.771882]}, "properties": {"amenity": "restaurant", "name": "Obic\u00e0"}}, {"type": "Feature", "id": 3909378477, "geometry": {"type": "Point", "coordinates": [11.2544982, 43.7765312]}, "properties": {"addr:housenumber": "26", "addr:postcode": "50123", "addr:street": "Piazza del Mercato Centrale", "amenity": "restaurant", "cuisine": "italian;mediterranean;vegetarian;vegan;italian_pizza", "email": "info@trattoriazaza.it", "internet_access": "wlan", "name": "Trattoria Za-Za", "name:zh": "\u624e\u624e\u725b\u6392 Trattoria Z\u00e0Z\u00e0", "opening_hours": "Mo-Su 11:00-23:00", "phone": "+39 055 215411", "website": "http://www.trattoriazaza.it/"}}, {"type": "Feature", "id": 3916337380, "geometry": {"type": "Point", "coordinates": [11.2927746, 43.8064851]}, "properties": {"amenity": "restaurant"}}, {"type": "Feature", "id": 3916337627, "geometry": {"type": "Point", "coordinates": [11.2937563, 43.8068742]}, "properties": {"amenity": "restaurant"}}, {"type": "Feature", "id": 3921030564, "geometry": {"type": "Point", "coordinates": [11.1316925, 43.6671171]}, "properties": {"addr:city": "Montespertoli", "addr:housenumber": "2", "addr:street": "Via Pian di Pesa", "amenity": "restaurant", "name": "Ribalta Pizzeria", "website": "http://www.ribalta.eu/"}}, {"type": "Feature", "id": 3985028057, "geometry": {"type": "Point", "coordinates": [11.2583875, 43.7698166]}, "properties": {"addr:housenumber": "48/r", "addr:street": "Via dell'Anguillara", "amenity": "restaurant", "cuisine": "sandwich", "email": "ilbufalotrippone@alice.it", "name": "Il Bufalo Trippone", "opening_hours": "Mo-Su 10:00-20:00", "operator": "Alessandro Cappelli & C. sas", "outdoor_seating": "no", "phone": "+39 055 290518", "ref:vatin": "06221880484", "shop": "wine;deli", "takeaway": "yes", "website": "http://www.ilbufalotrippone.it/", "wheelchair": "limited"}}, {"type": "Feature", "id": 3999086969, "geometry": {"type": "Point", "coordinates": [11.2580523, 43.7724974]}, "properties": {"amenity": "restaurant", "name": "Pasticceria Tabbachi", "shop": "tea"}}, {"type": "Feature", "id": 3999086990, "geometry": {"type": "Point", "coordinates": [11.2549382, 43.772786]}, "properties": {"amenity": "restaurant", "name": "Move on", "name:it": "Move on"}}, {"type": "Feature", "id": 3999086992, "geometry": {"type": "Point", "coordinates": [11.254788, 43.7735393]}, "properties": {"addr:housenumber": "24", "addr:street": "Pza S Giovanni", "amenity": "restaurant", "cuisine": "italian_pizza;italian", "internet_access": "wlan", "name": "Giotto", "name:it": "Giotto"}}, {"type": "Feature", "id": 3999092736, "geometry": {"type": "Point", "coordinates": [11.2578994, 43.7701151]}, "properties": {"amenity": "restaurant", "internet_access": "wlan", "name": "Caffe' Bistrot"}}, {"type": "Feature", "id": 3999092739, "geometry": {"type": "Point", "coordinates": [11.2579262, 43.7701616]}, "properties": {"amenity": "restaurant"}}, {"type": "Feature", "id": 4010266081, "geometry": {"type": "Point", "coordinates": [11.2502491, 43.7864242]}, "properties": {"addr:city": "Firenze", "addr:housenumber": "21/A", "addr:postcode": "50129", "addr:street": "Via dello Statuto", "amenity": "restaurant", "cuisine": "sushi", "name": "Hokkaido", "opening_hours": "Tu-Su 12:00-15:00, 19:00-23:30", "phone": "+39 055 494393", "website": "http://www.hokkaidosushi.it"}}, {"type": "Feature", "id": 4095960009, "geometry": {"type": "Point", "coordinates": [10.8093601, 43.7326268]}, "properties": {"amenity": "restaurant", "cuisine": "italian", "name": "Sapori del Borgo", "takeaway": "yes"}}, {"type": "Feature", "id": 4115768989, "geometry": {"type": "Point", "coordinates": [11.2662324, 43.7711295]}, "properties": {"addr:housenumber": "113", "addr:street": "Via dei Macci", "amenity": "restaurant", "cuisine": "italian_pizza;italian;pizza", "name": "Il Pizzaiuolo", "opening_hours": "Mo-Sa 12:30-14:30,19:30-00:30", "phone": "+39 055 241171", "website": "http://www.ilpizzaiuolo.it"}}, {"type": "Feature", "id": 4149881089, "geometry": {"type": "Point", "coordinates": [11.2531394, 43.7763027]}, "properties": {"addr:housenumber": "12R", "addr:street": "Piazza del Mercato Centrale", "amenity": "restaurant", "cuisine": "italian", "name": "Da Nerbone", "name:zh": "\u5185\u5c14\u6ce2\u8089\u644a\uff08\u725b\u809a\u5305\uff09"}}, {"type": "Feature", "id": 4158127190, "geometry": {"type": "Point", "coordinates": [10.9271036, 43.7867237]}, "properties": {"amenity": "restaurant"}}, {"type": "Feature", "id": 4161712248, "geometry": {"type": "Point", "coordinates": [11.0655336, 43.6287221]}, "properties": {"amenity": "restaurant", "cuisine": "regional", "name": "Osteria Del Tempo Perso di celeste"}}, {"type": "Feature", "id": 4162418589, "geometry": {"type": "Point", "coordinates": [11.2619946, 43.7719944]}, "properties": {"addr:housenumber": "12/R", "addr:street": "Borgo Pinti", "amenity": "restaurant", "name": "La Giostra"}}, {"type": "Feature", "id": 4181437294, "geometry": {"type": "Point", "coordinates": [11.2486967, 43.7664922]}, "properties": {"addr:housenumber": "46R", "addr:postcode": "50125", "addr:street": "Via Maggio", "amenity": "restaurant", "cuisine": "italian_pizza;vegan;vegetarian", "name": "gusta pizza", "name:en": "Gustapizza", "name:it": "Gustapizza", "opening_hours": "Tu-Su 11:00-15:30, 19:00-23:30", "phone": "+39055285068", "website": "http://facebook.com/GustapizzaFirenze"}}, {"type": "Feature", "id": 4185819895, "geometry": {"type": "Point", "coordinates": [11.2482556, 43.7767264]}, "properties": {"amenity": "restaurant", "name": "Mc Cafe"}}, {"type": "Feature", "id": 4189952005, "geometry": {"type": "Point", "coordinates": [11.2629866, 43.7742872]}, "properties": {"addr:housenumber": "26r", "addr:street": "Via degli Alfani", "amenity": "restaurant", "cuisine": "chinese", "internet_access": "wlan", "name": "Ristorante cinese Xing Wang", "opening_hours": "Mo-Su 11:00-22:30", "phone": "+39 055 2639182"}}, {"type": "Feature", "id": 4197487307, "geometry": {"type": "Point", "coordinates": [11.2618052, 43.7635952]}, "properties": {"amenity": "restaurant", "cuisine": "italian", "name": "Trattoria di San Niccolo", "outdoor_seating": "yes"}}, {"type": "Feature", "id": 4219549828, "geometry": {"type": "Point", "coordinates": [11.2573304, 43.773572]}, "properties": {"amenity": "restaurant", "name": "Le Botteghe di Donatello"}}, {"type": "Feature", "id": 4219549830, "geometry": {"type": "Point", "coordinates": [11.2581212, 43.7725018]}, "properties": {"amenity": "restaurant", "name": "Lo Scudo"}}, {"type": "Feature", "id": 4219549831, "geometry": {"type": "Point", "coordinates": [11.2578193, 43.7716397]}, "properties": {"amenity": "restaurant", "name": "Trattoria Le Mossacce"}}, {"type": "Feature", "id": 4220279019, "geometry": {"type": "Point", "coordinates": [11.2594477, 43.7679522]}, "properties": {"amenity": "restaurant", "name": "El Chico"}}, {"type": "Feature", "id": 4220279020, "geometry": {"type": "Point", "coordinates": [11.2610724, 43.7695127]}, "properties": {"amenity": "restaurant", "name": "La Schaccia Vino"}}, {"type": "Feature", "id": 4220279021, "geometry": {"type": "Point", "coordinates": [11.2609601, 43.769618]}, "properties": {"amenity": "restaurant", "name": "Osteria D\u00e9 Pazzi"}}, {"type": "Feature", "id": 4220279179, "geometry": {"type": "Point", "coordinates": [11.2580259, 43.7686677]}, "properties": {"amenity": "restaurant", "name": "Trattoria Anita"}}, {"type": "Feature", "id": 4220279180, "geometry": {"type": "Point", "coordinates": [11.2587906, 43.7679994]}, "properties": {"amenity": "restaurant", "name": "Lambel\u00ea Bistro"}}, {"type": "Feature", "id": 4220279182, "geometry": {"type": "Point", "coordinates": [11.2612205, 43.7697164]}, "properties": {"amenity": "restaurant", "cuisine": "regional", "name": "La Maremma"}}, {"type": "Feature", "id": 4221402590, "geometry": {"type": "Point", "coordinates": [11.2358385, 43.7816902]}, "properties": {"amenity": "restaurant", "name": "Osteria de' Golosi"}}, {"type": "Feature", "id": 4221448392, "geometry": {"type": "Point", "coordinates": [11.2387367, 43.7790921]}, "properties": {"amenity": "restaurant", "name": "I'Ripiglino"}}, {"type": "Feature", "id": 4221476089, "geometry": {"type": "Point", "coordinates": [11.2373686, 43.7802945]}, "properties": {"amenity": "restaurant", "name": "Mqchupiccho"}}, {"type": "Feature", "id": 4222559892, "geometry": {"type": "Point", "coordinates": [11.2311797, 43.7843858]}, "properties": {"amenity": "restaurant", "name": "La Tortuga", "restaurant:type:it": "ristorante;pizzeria"}}, {"type": "Feature", "id": 4222561391, "geometry": {"type": "Point", "coordinates": [11.2344423, 43.7825048]}, "properties": {"amenity": "restaurant", "name": "El tesoro del Peru "}}, {"type": "Feature", "id": 4222580789, "geometry": {"type": "Point", "coordinates": [11.2341877, 43.7828612]}, "properties": {"amenity": "restaurant", "name": "Norky "}}, {"type": "Feature", "id": 4222798622, "geometry": {"type": "Point", "coordinates": [11.2547226, 43.7738206]}, "properties": {"amenity": "restaurant", "name": "La Cantinetta"}}, {"type": "Feature", "id": 4222798626, "geometry": {"type": "Point", "coordinates": [11.2568331, 43.7699906]}, "properties": {"amenity": "restaurant", "name": "Dei Frescobaldi"}}, {"type": "Feature", "id": 4222799744, "geometry": {"type": "Point", "coordinates": [11.2538385, 43.7684372]}, "properties": {"amenity": "restaurant", "name": "Caff\u00e9 della Carrozze"}}, {"type": "Feature", "id": 4222799745, "geometry": {"type": "Point", "coordinates": [11.2525084, 43.7672469]}, "properties": {"amenity": "restaurant", "name": "Pizzeria Franco"}}, {"type": "Feature", "id": 4222799748, "geometry": {"type": "Point", "coordinates": [11.2548073, 43.7742575]}, "properties": {"amenity": "restaurant", "name": "Giannino in San Lorenzimo"}}, {"type": "Feature", "id": 4222799753, "geometry": {"type": "Point", "coordinates": [11.2547741, 43.774178]}, "properties": {"amenity": "restaurant", "name": "Da i Matti"}}, {"type": "Feature", "id": 4222800055, "geometry": {"type": "Point", "coordinates": [11.2548508, 43.774051]}, "properties": {"amenity": "restaurant", "name": "Osteria dell'Agnolo"}}, {"type": "Feature", "id": 4222800058, "geometry": {"type": "Point", "coordinates": [11.2565315, 43.7704787]}, "properties": {"amenity": "restaurant", "name": "Divina Commedia"}}, {"type": "Feature", "id": 4222800213, "geometry": {"type": "Point", "coordinates": [11.2581116, 43.76804]}, "properties": {"amenity": "restaurant", "fixme": "posizione", "name": "Trattoria da Benvenuto"}}, {"type": "Feature", "id": 4224393619, "geometry": {"type": "Point", "coordinates": [11.2610323, 43.7687165]}, "properties": {"amenity": "restaurant", "name": "Boccadama"}}, {"type": "Feature", "id": 4224393620, "geometry": {"type": "Point", "coordinates": [11.2611716, 43.769287]}, "properties": {"amenity": "restaurant", "name": "Dondino"}}, {"type": "Feature", "id": 4224393622, "geometry": {"type": "Point", "coordinates": [11.2611373, 43.769602]}, "properties": {"amenity": "restaurant", "name": "Marina"}}, {"type": "Feature", "id": 4224393625, "geometry": {"type": "Point", "coordinates": [11.2607432, 43.7704364]}, "properties": {"amenity": "restaurant", "name": "7 Secoli"}}, {"type": "Feature", "id": 4224393627, "geometry": {"type": "Point", "coordinates": [11.2601057, 43.770481]}, "properties": {"amenity": "restaurant", "name": "Tijuana"}}, {"type": "Feature", "id": 4224393629, "geometry": {"type": "Point", "coordinates": [11.2589804, 43.7705921]}, "properties": {"amenity": "restaurant", "name": "Rubaconte"}}, {"type": "Feature", "id": 4224395297, "geometry": {"type": "Point", "coordinates": [11.2580483, 43.7692736]}, "properties": {"amenity": "restaurant", "name": "Il Bargello"}}, {"type": "Feature", "id": 4224395392, "geometry": {"type": "Point", "coordinates": [11.2611268, 43.7703688]}, "properties": {"amenity": "restaurant", "name": "Il Teatro"}}, {"type": "Feature", "id": 4225563366, "geometry": {"type": "Point", "coordinates": [11.2545951, 43.7765665]}, "properties": {"amenity": "restaurant", "name": "Osteria Pep\u00f2"}}, {"type": "Feature", "id": 4225563500, "geometry": {"type": "Point", "coordinates": [11.2536912, 43.776431]}, "properties": {"amenity": "restaurant", "name": "Pork's"}}, {"type": "Feature", "id": 4227367056, "geometry": {"type": "Point", "coordinates": [11.257658, 43.7676809]}, "properties": {"amenity": "restaurant", "cuisine": "venezuelian", "name": "L'Areperia"}}, {"type": "Feature", "id": 4227367066, "geometry": {"type": "Point", "coordinates": [11.2573573, 43.7735537]}, "properties": {"amenity": "restaurant", "name": "Le Botteghe di Donatello"}}, {"type": "Feature", "id": 4227367203, "geometry": {"type": "Point", "coordinates": [11.2560836, 43.7736708]}, "properties": {"amenity": "restaurant", "name": "Buca Niccolini"}}, {"type": "Feature", "id": 4227367345, "geometry": {"type": "Point", "coordinates": [11.2591656, 43.7673801]}, "properties": {"amenity": "restaurant", "name": "La Buchetta"}}, {"type": "Feature", "id": 4227367500, "geometry": {"type": "Point", "coordinates": [11.2560699, 43.7722323]}, "properties": {"amenity": "restaurant", "name": "La Repubblica"}}, {"type": "Feature", "id": 4229009726, "geometry": {"type": "Point", "coordinates": [11.2501925, 43.7737241]}, "properties": {"amenity": "restaurant", "name": "Grillo"}}, {"type": "Feature", "id": 4229011142, "geometry": {"type": "Point", "coordinates": [11.2501212, 43.7739532]}, "properties": {"amenity": "restaurant", "name": "Vincanto"}}, {"type": "Feature", "id": 4229011146, "geometry": {"type": "Point", "coordinates": [11.2523968, 43.770251]}, "properties": {"amenity": "restaurant", "name": "La Bussola"}}, {"type": "Feature", "id": 4229011147, "geometry": {"type": "Point", "coordinates": [11.2533243, 43.7701585]}, "properties": {"amenity": "restaurant", "name": "La Grotta Guelfa"}}, {"type": "Feature", "id": 4229013408, "geometry": {"type": "Point", "coordinates": [11.2599613, 43.7701946]}, "properties": {"amenity": "restaurant", "name": "Ar\u00e0 \u00c8 Sud"}}, {"type": "Feature", "id": 4229013409, "geometry": {"type": "Point", "coordinates": [11.2587897, 43.7702289]}, "properties": {"addr:housenumber": "40/r", "addr:postcode": "50122", "addr:street": "Via della Vigna Vecchia", "amenity": "restaurant", "name": "Acqua al 2", "opening_hours": "Tu-Su 12:30-15:00, 19:00-01:00; Mo 19:00-01:00", "phone": "+39055284170"}}, {"type": "Feature", "id": 4229013801, "geometry": {"type": "Point", "coordinates": [11.2513572, 43.7734148]}, "properties": {"amenity": "restaurant", "name": "Alla Griglia"}}, {"type": "Feature", "id": 4229013804, "geometry": {"type": "Point", "coordinates": [11.2521227, 43.7702891]}, "properties": {"amenity": "restaurant", "name": "Enoteca Montecristo"}}, {"type": "Feature", "id": 4229013806, "geometry": {"type": "Point", "coordinates": [11.2536974, 43.7699705]}, "properties": {"amenity": "restaurant", "name": "Osteria del Porcellino"}}, {"type": "Feature", "id": 4229013809, "geometry": {"type": "Point", "coordinates": [11.2627118, 43.7700377]}, "properties": {"amenity": "restaurant", "name": "Salamanca"}}, {"type": "Feature", "id": 4229013811, "geometry": {"type": "Point", "coordinates": [11.2603014, 43.7701582]}, "properties": {"amenity": "restaurant", "name": "Caff\u00e8 Italiano"}}, {"type": "Feature", "id": 4230175039, "geometry": {"type": "Point", "coordinates": [11.1425896, 43.78597]}, "properties": {"amenity": "restaurant", "cuisine": "regional", "name": "Trattoria Angiolino"}}, {"type": "Feature", "id": 4231003140, "geometry": {"type": "Point", "coordinates": [11.2607108, 43.7706092]}, "properties": {"amenity": "restaurant", "name": "Sushinami"}}, {"type": "Feature", "id": 4231005800, "geometry": {"type": "Point", "coordinates": [11.2611753, 43.7709272]}, "properties": {"amenity": "restaurant", "name": "Gastone"}}, {"type": "Feature", "id": 4231007163, "geometry": {"type": "Point", "coordinates": [11.2561789, 43.7712532]}, "properties": {"amenity": "restaurant", "name": "Antico Barile"}}, {"type": "Feature", "id": 4231007164, "geometry": {"type": "Point", "coordinates": [11.2562114, 43.7708468]}, "properties": {"amenity": "restaurant", "name": "Birreria Centrale"}}, {"type": "Feature", "id": 4231007165, "geometry": {"type": "Point", "coordinates": [11.2579593, 43.7709411]}, "properties": {"addr:housenumber": "16r", "addr:postcode": "50122", "addr:street": "Via del Proconsolo", "amenity": "restaurant", "name": "Fishing Lab", "opening_hours": "Mo-Su 10:00-00:00", "phone": "+39055240618", "website": "http://www.fishinglab.it"}}, {"type": "Feature", "id": 4234621210, "geometry": {"type": "Point", "coordinates": [11.333306, 44.0165553]}, "properties": {"amenity": "restaurant", "name": "casa"}}, {"type": "Feature", "id": 4241554591, "geometry": {"type": "Point", "coordinates": [11.2447072, 43.7667663]}, "properties": {"amenity": "restaurant", "name": "Trattoria"}}, {"type": "Feature", "id": 4251494590, "geometry": {"type": "Point", "coordinates": [11.2671092, 43.7706631]}, "properties": {"addr:street": "Piazza Sant'Ambrogio", "amenity": "restaurant", "name": "Trattoria da Rocco"}}, {"type": "Feature", "id": 4251703889, "geometry": {"type": "Point", "coordinates": [11.2596476, 43.775788]}, "properties": {"addr:housenumber": "91", "addr:street": "Via degli Alfani", "amenity": "restaurant", "cuisine": "mediterranean;italian", "name": "Osteria de L'Ortolano"}}, {"type": "Feature", "id": 4251733991, "geometry": {"type": "Point", "coordinates": [11.2587609, 43.7652194]}, "properties": {"addr:housenumber": "16", "addr:street": "Via dei Renai", "amenity": "restaurant", "internet_access": "wlan", "name": "I Tarocchi"}}, {"type": "Feature", "id": 4252850291, "geometry": {"type": "Point", "coordinates": [11.274589, 43.7702531]}, "properties": {"addr:housenumber": "81", "addr:street": "Via Vincenzo Gioberti", "amenity": "restaurant", "name": "Il Barrino"}}, {"type": "Feature", "id": 4252850791, "geometry": {"type": "Point", "coordinates": [11.2781322, 43.7699834]}, "properties": {"addr:housenumber": "32A", "addr:street": "Via Vincenzo Gioberti", "amenity": "restaurant", "name": "Cento Canti"}}, {"type": "Feature", "id": 4258544090, "geometry": {"type": "Point", "coordinates": [11.2530758, 43.772633]}, "properties": {"addr:housenumber": "11", "addr:street": "Via dei Pecori", "amenity": "restaurant", "name": "Ristorante self-service Leonardo", "name:ru": "\u0441\u0442\u043e\u043b\u043e\u0432\u043a\u0430"}}, {"type": "Feature", "id": 4258561102, "geometry": {"type": "Point", "coordinates": [11.2650852, 43.7715111]}, "properties": {"addr:housenumber": "40", "addr:street": "Via Pietrapiano", "amenity": "restaurant", "description": "Restaurant", "name": "Vagalume Ristorante Tapas Bar"}}, {"type": "Feature", "id": 4261522064, "geometry": {"type": "Point", "coordinates": [11.2579393, 43.7682266]}, "properties": {"addr:housenumber": "50 R", "addr:street": "Via dei Neri", "amenity": "restaurant", "description": "Tripe and lampredotto. Tasty!", "name": "Club del Gusto, Trippa e Zampa"}}, {"type": "Feature", "id": 4268060383, "geometry": {"type": "Point", "coordinates": [11.1995214, 43.8311955]}, "properties": {"addr:city": "Sesto Fiorentino", "addr:housenumber": "1", "addr:postcode": "50015", "addr:street": "Via Pietro Azzarri", "amenity": "restaurant", "capacity": "15", "cuisine": "hamburger_&_panini", "name": "Mamma che fame", "smoking": "no", "takeaway": "yes"}}, {"type": "Feature", "id": 4274476657, "geometry": {"type": "Point", "coordinates": [11.2447723, 43.7667185]}, "properties": {"addr:housenumber": "47R", "addr:street": "Via Dell'Ardiglione", "amenity": "restaurant", "name": "Osteria Dell'Ardiglione"}}, {"type": "Feature", "id": 4279384090, "geometry": {"type": "Point", "coordinates": [11.2676428, 43.7713284]}, "properties": {"amenity": "restaurant", "name": "Trattoria Il Giova"}}, {"type": "Feature", "id": 4281980224, "geometry": {"type": "Point", "coordinates": [11.3191469, 43.8678929]}, "properties": {"amenity": "restaurant"}}, {"type": "Feature", "id": 4289067489, "geometry": {"type": "Point", "coordinates": [10.9493744, 43.7194589]}, "properties": {"addr:housenumber": "55", "addr:street": "Piazza della Vittoria", "amenity": "restaurant", "cuisine": "burger;italian;vegetarian;local;regional", "name": "i\u2019burghero", "opening_hours": "24/7"}}, {"type": "Feature", "id": 4307399393, "geometry": {"type": "Point", "coordinates": [11.2467843, 43.7665337]}, "properties": {"addr:housenumber": "16", "addr:postcode": "50125", "addr:street": "Piazza Santo Spirito", "amenity": "restaurant", "name": "Osteria Santo Spirito", "opening_hours": "Mo-Su 12:00-23:30", "phone": "+390552382383", "website": "http://www.osteriasantospirito.it"}}, {"type": "Feature", "id": 4311627497, "geometry": {"type": "Point", "coordinates": [10.9885838, 43.6777484]}, "properties": {"amenity": "restaurant", "name": "il contadino"}}, {"type": "Feature", "id": 4317176550, "geometry": {"type": "Point", "coordinates": [11.283301, 44.1086383]}, "properties": {"addr:city": "Firenzuola", "addr:country": "IT", "addr:postcode": "50033", "addr:street": "Via Traversa, 454", "amenity": "restaurant", "cuisine": "italian", "name": "Trattoria Bar Bibo", "phone": "+39 055 815231"}}, {"type": "Feature", "id": 4323022796, "geometry": {"type": "Point", "coordinates": [11.2519613, 43.7772479]}, "properties": {"amenity": "restaurant", "fixme": "posizione; creato con maps.me", "name": "Ristorane Le Fonticine1959"}}, {"type": "Feature", "id": 4323022996, "geometry": {"type": "Point", "coordinates": [11.2574485, 43.7725115]}, "properties": {"amenity": "restaurant", "fixme": "posizione; creato con maps.me", "name": "Sasso di Dante"}}, {"type": "Feature", "id": 4333722296, "geometry": {"type": "Point", "coordinates": [11.0450489, 43.5486833]}, "properties": {"amenity": "restaurant", "name": "L'antica fonte"}}, {"type": "Feature", "id": 4367458510, "geometry": {"type": "Point", "coordinates": [11.245927, 43.7675776]}, "properties": {"amenity": "restaurant", "name": "Trattoria Giovanni"}}, {"type": "Feature", "id": 4368509180, "geometry": {"type": "Point", "coordinates": [11.2152343, 43.7731799]}, "properties": {"addr:city": "Firenze", "addr:postcode": "50142", "addr:street": "Viale Francesco Talenti", "amenity": "restaurant", "cuisine": "japanese_and_chinese", "name": "Kazan"}}, {"type": "Feature", "id": 4386938174, "geometry": {"type": "Point", "coordinates": [11.2412022, 44.1431928]}, "properties": {"amenity": "restaurant", "name": "Ristorante l'Appennino"}}, {"type": "Feature", "id": 4388781843, "geometry": {"type": "Point", "coordinates": [11.2581231, 43.7763376]}, "properties": {"amenity": "restaurant", "name": "Snack Bar"}}, {"type": "Feature", "id": 4388781846, "geometry": {"type": "Point", "coordinates": [11.2582304, 43.7762817]}, "properties": {"amenity": "restaurant", "name": "Panini Pizze e Vini"}}, {"type": "Feature", "id": 4392651633, "geometry": {"type": "Point", "coordinates": [11.281396, 44.0776486]}, "properties": {"amenity": "restaurant", "description": "Bar/Ristorante", "name": "Albergo"}}, {"type": "Feature", "id": 4393321890, "geometry": {"type": "Point", "coordinates": [11.2584519, 43.7680977]}, "properties": {"addr:housenumber": "32", "addr:street": "Via dei Neri", "amenity": "restaurant", "cuisine": "breakfast;coffee_shop", "internet_access": "wlan", "name": "Ditta Artigianale"}}, {"type": "Feature", "id": 4395130943, "geometry": {"type": "Point", "coordinates": [11.2637141, 43.7685362]}, "properties": {"amenity": "restaurant", "name": "Canto del Ramerino"}}, {"type": "Feature", "id": 4395280994, "geometry": {"type": "Point", "coordinates": [11.3220187, 43.7263263]}, "properties": {"addr:housenumber": "22", "addr:postcode": "50012", "addr:street": "Via di Pulicciano", "amenity": "restaurant", "name": "Osteria Staccia Buratta", "name:it": "Osteria Staccia Buratta", "phone": "+39 055 621643", "website": "https://m.facebook.com/stacciaburatta.osteria/"}}, {"type": "Feature", "id": 4396368291, "geometry": {"type": "Point", "coordinates": [11.2587454, 43.7747864]}, "properties": {"amenity": "restaurant", "name": "Tavernetta del Battistero"}}, {"type": "Feature", "id": 4397748190, "geometry": {"type": "Point", "coordinates": [11.2555234, 43.7708236]}, "properties": {"amenity": "restaurant", "name": "Perch\u00e9 No!", "name:it": "Perch\u00e9 No!"}}, {"type": "Feature", "id": 4397916889, "geometry": {"type": "Point", "coordinates": [11.2529321, 43.7668985]}, "properties": {"amenity": "restaurant"}}, {"type": "Feature", "id": 4397916989, "geometry": {"type": "Point", "coordinates": [11.2603787, 43.7702476]}, "properties": {"amenity": "restaurant"}}, {"type": "Feature", "id": 4398944591, "geometry": {"type": "Point", "coordinates": [11.2572659, 43.7806391]}, "properties": {"amenity": "restaurant", "name": "Taverna del Bronzino"}}, {"type": "Feature", "id": 4402690291, "geometry": {"type": "Point", "coordinates": [11.2514547, 43.7698517]}, "properties": {"addr:housenumber": "66", "addr:postcode": "50123", "addr:street": "Via dei Santi Apostoli", "amenity": "restaurant", "name": "Le Antiche Carrozze", "opening_hours": "Mo-Su 12:00-22:30"}}, {"type": "Feature", "id": 4406974992, "geometry": {"type": "Point", "coordinates": [11.3081126, 43.7541073]}, "properties": {"amenity": "restaurant", "cuisine": "Osteria_Bruciategami", "name": "Trattoria"}}, {"type": "Feature", "id": 4413326589, "geometry": {"type": "Point", "coordinates": [11.2539506, 43.7669327]}, "properties": {"amenity": "restaurant", "name": "Le Buchette del Vino"}}, {"type": "Feature", "id": 4420059689, "geometry": {"type": "Point", "coordinates": [11.2409096, 43.7753083]}, "properties": {"addr:city": "Firenze", "addr:housenumber": "86 R", "addr:postcode": "50123", "addr:street": "Via Montebello", "amenity": "restaurant", "name": "Papero Rosso Ristorante", "toilets:wheelchair": "no", "website": "http://paperorosso.it/#_=_", "wheelchair": "limited", "wheelchair:description": "Hat eine Stufe im Eingang, aber auch Tische im Freien. Essen war lecker (imho)."}}, {"type": "Feature", "id": 4424244091, "geometry": {"type": "Point", "coordinates": [11.4663143, 43.9327398]}, "properties": {"amenity": "restaurant", "cuisine": "italian", "name": "Locanda L'Antica Porta di Levante", "name:it": "Locanda L'Antica Porta di Levante", "website": "http://anticaportadilevante.it"}}, {"type": "Feature", "id": 4426899698, "geometry": {"type": "Point", "coordinates": [11.2504247, 43.7743977]}, "properties": {"amenity": "restaurant", "name": "La Dantesca"}}, {"type": "Feature", "id": 4431536990, "geometry": {"type": "Point", "coordinates": [11.2538403, 43.7699484]}, "properties": {"amenity": "restaurant", "name": "Mercato del Porcellino"}}, {"type": "Feature", "id": 4434723254, "geometry": {"type": "Point", "coordinates": [11.25017, 43.7738712]}, "properties": {"amenity": "restaurant", "name": "Coco Club"}}, {"type": "Feature", "id": 4439960289, "geometry": {"type": "Point", "coordinates": [11.2483138, 43.7712861]}, "properties": {"addr:housenumber": "22", "addr:street": "Via del Moro", "amenity": "restaurant", "name": "Osteria di Giovanni", "opening_hours": "Mo-Su 12:30-15:00, 19:00-23:00"}}, {"type": "Feature", "id": 4442380390, "geometry": {"type": "Point", "coordinates": [11.252984, 43.7751444]}, "properties": {"addr:housenumber": "11/12", "addr:postcode": "50123", "addr:street": "Piazza di Madonna degli Aldobrandini", "amenity": "restaurant", "name": "Trattoria Il Porcospino", "phone": "39055217700"}}, {"type": "Feature", "id": 4444064457, "geometry": {"type": "Point", "coordinates": [11.2498462, 43.7707475]}, "properties": {"addr:housenumber": "50R", "addr:postcode": "50123", "addr:street": "Via del Parione", "amenity": "restaurant", "cuisine": "italian", "name": "Il Barretto"}}, {"type": "Feature", "id": 4444300290, "geometry": {"type": "Point", "coordinates": [11.2499148, 43.7699016]}, "properties": {"addr:housenumber": "4R", "addr:street": "Lungarno Corsini", "amenity": "restaurant", "cuisine": "seafood", "name": "Bistro Del Mare"}}, {"type": "Feature", "id": 4445799391, "geometry": {"type": "Point", "coordinates": [11.2449088, 43.773063]}, "properties": {"addr:housenumber": "26", "addr:street": "Borgo Ognissanti", "amenity": "restaurant", "cuisine": "mediterranean", "name": "Asporto Halal"}}, {"type": "Feature", "id": 4447028689, "geometry": {"type": "Point", "coordinates": [11.2647773, 43.7695354]}, "properties": {"amenity": "restaurant", "name": "Dino"}}, {"type": "Feature", "id": 4449013292, "geometry": {"type": "Point", "coordinates": [11.3161423, 43.5821835]}, "properties": {"addr:housenumber": "80", "addr:postcode": "50022", "addr:street": "Piazza Giacomo Matteotti", "amenity": "restaurant", "name": "Osteria Mangiando Mangiando"}}, {"type": "Feature", "id": 4453321712, "geometry": {"type": "Point", "coordinates": [11.2613145, 43.764134]}, "properties": {"amenity": "restaurant", "name": "I'Pizzacchieri"}}, {"type": "Feature", "id": 4453360689, "geometry": {"type": "Point", "coordinates": [11.2534486, 43.7671327]}, "properties": {"addr:housenumber": "52R", "addr:postcode": "50125", "addr:street": "Via dei Bardi", "amenity": "restaurant", "cuisine": "italian_pizza;vegetarian;vegan;mediterranean", "email": "stefano.masini@live.it", "name": "Amici di Ponte Vecchio Da Stefano", "opening_hours": "Tu-Sa 11:30-17:30; Su 12:00-17:30", "phone": "+39055285301", "website": "https://m.facebook.com/Amici-di-Ponte-Vecchio-201921333158731"}}, {"type": "Feature", "id": 4454842689, "geometry": {"type": "Point", "coordinates": [11.2574726, 43.770156]}, "properties": {"amenity": "restaurant", "cuisine": "italian;italian_pizza", "internet_access": "wlan", "name": "Caffe' Bistrot"}}, {"type": "Feature", "id": 4462513189, "geometry": {"type": "Point", "coordinates": [11.2422834, 43.771106]}, "properties": {"addr:housenumber": "1/R", "addr:street": "Via Sant'Onofrio", "amenity": "restaurant", "name": "All'antico ristoro di' Cambi", "phone": "+39 055 217134", "website": "http://anticoristorodicambi.it"}}, {"type": "Feature", "id": 4471751357, "geometry": {"type": "Point", "coordinates": [11.2837278, 44.1095657]}, "properties": {"addr:city": "Firenzuola", "addr:country": "IT", "addr:postcode": "50033", "addr:street": "Via Traversa, 351", "amenity": "restaurant", "cuisine": "italian", "name": "Albergo Berti E Ristorante Jolanda Di Berti Elvira Gabriella", "phone": "+39 055 815265", "tourism": "hotel"}}, {"type": "Feature", "id": 4477458890, "geometry": {"type": "Point", "coordinates": [11.265655, 43.7645065]}, "properties": {"addr:housenumber": "69/r", "addr:postcode": "50125", "addr:street": "Lungarno Benvenuto Cellini", "amenity": "restaurant", "name": "La Bottega Del Buon Caff\u00e8", "opening_hours": "Tu-Sa 12:30-15:00, 19:30-22:30; Su-Mo 19:30-22:30", "phone": "+390555535677"}}, {"type": "Feature", "id": 4477485895, "geometry": {"type": "Point", "coordinates": [11.2418737, 43.7701335]}, "properties": {"addr:housenumber": "1", "addr:postcode": "50124", "addr:street": "Piazza dei Nerli", "amenity": "restaurant", "cuisine": "pizza", "name": "Berber\u00e8", "opening_hours": "Mo-Th 19:00-00:00; Fr-Su 12:30-14:30, 19:00-00:00", "phone": "+390552382946"}}, {"type": "Feature", "id": 4477486902, "geometry": {"type": "Point", "coordinates": [11.2456343, 43.7692063]}, "properties": {"addr:housenumber": "21/r", "addr:postcode": "50124", "addr:street": "Borgo San Frediano", "amenity": "restaurant", "name": "Gesto", "opening_hours": "Mo-Su 18:00-02:00", "phone": "+39055241288", "website": "http://www.gestofailtuo.it"}}, {"type": "Feature", "id": 4477540289, "geometry": {"type": "Point", "coordinates": [11.2599814, 43.7710928]}, "properties": {"addr:housenumber": "12", "addr:postcode": "50122", "addr:street": "Via delle Seggiole", "amenity": "restaurant", "name": "Locale", "opening_hours": "Mo-Su 19:30-02:00", "phone": "+390559067188"}}, {"type": "Feature", "id": 4477609189, "geometry": {"type": "Point", "coordinates": [11.2542814, 43.7766754]}, "properties": {"addr:housenumber": "22/r", "addr:postcode": "50123", "addr:street": "Piazza del Mercato Centrale", "amenity": "restaurant", "name": "Polpa Burger Trattoria", "phone": "+39055286770", "website": "http://www.polpa.it"}}, {"type": "Feature", "id": 4477762290, "geometry": {"type": "Point", "coordinates": [11.2640838, 43.7721676]}, "properties": {"addr:housenumber": "24/26r", "addr:postcode": "50121", "addr:street": "Via di Mezzo", "amenity": "restaurant", "name": "La Pentola dell'Oro", "opening_hours": "Mo-Sa 12:30-14:30, 19:30-22:30; Su 19:30-22:30", "phone": "+39055241808"}}, {"type": "Feature", "id": 4477871589, "geometry": {"type": "Point", "coordinates": [11.2387908, 43.7707016]}, "properties": {"addr:housenumber": "37/r", "addr:postcode": "50143", "addr:street": "Via Pisana", "amenity": "restaurant", "name": "Fuor d'acqua", "opening_hours": "Mo-Sa 20:00-02:00", "phone": "+39055222299", "website": "http://fuordacqua.it"}}, {"type": "Feature", "id": 4485819573, "geometry": {"type": "Point", "coordinates": [11.2461248, 43.7654347]}, "properties": {"amenity": "restaurant", "cuisine": "italian", "name": "Caff\u00e8 Notte", "opening_hours": "7:30-2:00"}}, {"type": "Feature", "id": 4498639597, "geometry": {"type": "Point", "coordinates": [11.1060872, 43.6331202]}, "properties": {"addr:city": "Montespertoli", "addr:housenumber": "17", "addr:postcode": "50025", "addr:street": "Via Lucignano", "amenity": "restaurant", "cuisine": "vegetarian;vegan;ethnic;fusion", "description:it": "dal mercoled\u00ec al sabato 20-24, domenica 13-15, 20-24;prenotazione obbligatoria", "name": "Ristorante La Fonte", "opening_hours": "We-Sa 20:00-24:00; Su 13:00-15:00,20:00-24:00", "phone": "+39 0571 609514", "reservation": "required", "smoking": "outside"}}, {"type": "Feature", "id": 4500049193, "geometry": {"type": "Point", "coordinates": [11.459785, 43.87983]}, "properties": {"amenity": "restaurant", "name": "Bottega di Monte Giovi"}}, {"type": "Feature", "id": 4500481470, "geometry": {"type": "Point", "coordinates": [11.2414017, 43.7681972]}, "properties": {"addr:city": "Firenze", "addr:housenumber": "3/red", "addr:street": "Piazza Torquato Tasso", "amenity": "restaurant", "cuisine": "macrobiotica", "name": "Circolo Culturale Un Punto Macrobiotico", "phone": "055 221167", "takeaway": "yes"}}, {"type": "Feature", "id": 4512012192, "geometry": {"type": "Point", "coordinates": [11.2373902, 43.6400629]}, "properties": {"amenity": "restaurant", "cuisine": "american", "name": "vinile"}}, {"type": "Feature", "id": 4525474394, "geometry": {"type": "Point", "coordinates": [11.0944898, 43.7720989]}, "properties": {"amenity": "restaurant", "name": "Accademia del Coccio"}}, {"type": "Feature", "id": 4525500690, "geometry": {"type": "Point", "coordinates": [11.1088715, 43.7709676]}, "properties": {"amenity": "restaurant", "name": "Da Bertone"}}, {"type": "Feature", "id": 4543111003, "geometry": {"type": "Point", "coordinates": [11.2454782, 43.767145]}, "properties": {"addr:housenumber": "35r", "addr:street": "Via dei Serragli", "amenity": "restaurant", "name": "Trattoria Ginone"}}, {"type": "Feature", "id": 4543111004, "geometry": {"type": "Point", "coordinates": [11.2446332, 43.7659061]}, "properties": {"addr:housenumber": "108r", "addr:street": "Via dei Serragli", "amenity": "restaurant", "name": "Trattoria Diladdarno 108r"}}, {"type": "Feature", "id": 4543376493, "geometry": {"type": "Point", "coordinates": [11.2903537, 43.8072917]}, "properties": {"amenity": "restaurant", "name": "La Reggia degli Etruschi"}}, {"type": "Feature", "id": 4568299416, "geometry": {"type": "Point", "coordinates": [11.289999, 43.8441325]}, "properties": {"amenity": "restaurant", "amenity_1": "hotel", "name": "Ristorante Albergo Pizzeria \"Le Terrazze\"", "phone": "055 401434"}}, {"type": "Feature", "id": 4577865590, "geometry": {"type": "Point", "coordinates": [11.258929, 43.7678461]}, "properties": {"addr:housenumber": "17", "addr:street": "Via dei Neri", "amenity": "restaurant", "name": "La Fiaschetteria", "name:it": "La Fiaschetteria"}}, {"type": "Feature", "id": 4578950695, "geometry": {"type": "Point", "coordinates": [11.2434435, 43.7739164]}, "properties": {"amenity": "restaurant", "name": "Antica osteria", "name:it": "Antica osteria"}}, {"type": "Feature", "id": 4580805490, "geometry": {"type": "Point", "coordinates": [11.2431193, 43.7741476]}, "properties": {"amenity": "restaurant", "name": "Curtatone", "name:it": "Curtatone"}}, {"type": "Feature", "id": 4585607504, "geometry": {"type": "Point", "coordinates": [11.472507, 43.61773]}, "properties": {"amenity": "restaurant", "name": "Gli Ostinati", "name:it": "Gli Ostinati"}}, {"type": "Feature", "id": 4602256096, "geometry": {"type": "Point", "coordinates": [11.2491576, 43.7719557]}, "properties": {"amenity": "restaurant", "name": "Gargani", "name:it": "Gargani"}}, {"type": "Feature", "id": 4605847691, "geometry": {"type": "Point", "coordinates": [11.2928491, 43.8064631]}, "properties": {"amenity": "restaurant", "name": "Vinandro", "name:it": "Vinandro"}}, {"type": "Feature", "id": 4624997092, "geometry": {"type": "Point", "coordinates": [11.2520861, 43.7745458]}, "properties": {"addr:housenumber": "49/51R", "addr:street": "Via del Giglio", "amenity": "restaurant", "name": "Lorenzo de'Medici"}}, {"type": "Feature", "id": 4625007290, "geometry": {"type": "Point", "coordinates": [11.2532347, 43.7782005]}, "properties": {"addr:housenumber": "43", "addr:street": "Via Guelfa", "amenity": "restaurant", "name": "American Diner", "name:en": "American Diner"}}, {"type": "Feature", "id": 4625055690, "geometry": {"type": "Point", "coordinates": [11.2642373, 43.769718]}, "properties": {"addr:housenumber": "46 red", "addr:street": "Via Ghibellina", "amenity": "restaurant", "name": "Baccarossa"}}, {"type": "Feature", "id": 4625113489, "geometry": {"type": "Point", "coordinates": [11.2651729, 43.7808403]}, "properties": {"addr:housenumber": "30-2/H", "addr:street": "Viale Giacomo Matteotti", "amenity": "restaurant", "name": "Farina 00", "name:es": "harina 00"}}, {"type": "Feature", "id": 4625128289, "geometry": {"type": "Point", "coordinates": [11.2832642, 43.7751233]}, "properties": {"addr:housenumber": "4", "addr:street": "Viale Malta", "amenity": "restaurant", "name": "Aviazilbe campo di marte"}}, {"type": "Feature", "id": 4629907473, "geometry": {"type": "Point", "coordinates": [11.1809337, 43.8063792]}, "properties": {"amenity": "restaurant", "cuisine": "italian", "facebook": "www.facebook.com/Il-Fiorentino-Self-Service-219806561476591", "name": "Il Fiorentino Self Service", "phone": "+39 055 315012", "website": "www.ristoranteilfiorentino.com"}}, {"type": "Feature", "id": 4645670190, "geometry": {"type": "Point", "coordinates": [11.268699, 43.7704702]}, "properties": {"amenity": "restaurant", "cuisine": "pizza", "name": "Santarpia", "name:it": "Santarpia"}}, {"type": "Feature", "id": 4665010192, "geometry": {"type": "Point", "coordinates": [11.0091194, 43.7138266]}, "properties": {"amenity": "restaurant", "name": "Le fornace", "name:it": "Le fornace"}}, {"type": "Feature", "id": 4685250189, "geometry": {"type": "Point", "coordinates": [11.2631915, 43.7723763]}, "properties": {"addr:housenumber": "42R", "addr:postcode": "50122", "addr:street": "Via di Mezzo", "amenity": "restaurant", "cuisine": "italian", "internet_access": "wlan", "name": "Touch Florence", "name:en": "Touch Florence", "opening_hours": "Mo-Sa 19:30-22:30", "phone": "+390552466150", "website": "http://www.touchflorence.com"}}, {"type": "Feature", "id": 4693437692, "geometry": {"type": "Point", "coordinates": [11.2468491, 43.7759606]}, "properties": {"amenity": "restaurant", "level": "0", "name": "Trattoria dall'Oste"}}, {"type": "Feature", "id": 4693437696, "geometry": {"type": "Point", "coordinates": [11.2459234, 43.7767673]}, "properties": {"amenity": "restaurant", "cuisine": "italian", "level": "0", "name": "Il Portale"}}, {"type": "Feature", "id": 4693437697, "geometry": {"type": "Point", "coordinates": [11.2457572, 43.7765974]}, "properties": {"amenity": "restaurant", "cuisine": "pizza", "level": "0", "name": "I 4 Amici"}}, {"type": "Feature", "id": 4693437699, "geometry": {"type": "Point", "coordinates": [11.2387715, 43.7781201]}, "properties": {"amenity": "restaurant", "level": "0", "name": "H12"}}, {"type": "Feature", "id": 4693437703, "geometry": {"type": "Point", "coordinates": [11.2404488, 43.7775647]}, "properties": {"amenity": "restaurant", "level": "0", "name": "Trattoria Baldini"}}, {"type": "Feature", "id": 4693731979, "geometry": {"type": "Point", "coordinates": [11.2539164, 43.7763407]}, "properties": {"amenity": "restaurant", "level": "0", "name": "Da Pinocchio"}}, {"type": "Feature", "id": 4693731983, "geometry": {"type": "Point", "coordinates": [11.2520981, 43.7748364]}, "properties": {"amenity": "restaurant", "cuisine": "chinese", "level": "0"}}, {"type": "Feature", "id": 4693731984, "geometry": {"type": "Point", "coordinates": [11.2511811, 43.7766771]}, "properties": {"amenity": "restaurant", "cuisine": "pizza", "level": "0"}}, {"type": "Feature", "id": 4694078941, "geometry": {"type": "Point", "coordinates": [11.1816075, 43.7958286]}, "properties": {"addr:city": "Firenze", "addr:housenumber": "2", "addr:postcode": "50145", "addr:street": "Via della Saggina", "amenity": "restaurant", "capacity": "50", "cuisine": "cinese", "name": "Xiang Shun"}}, {"type": "Feature", "id": 4694084476, "geometry": {"type": "Point", "coordinates": [11.1948557, 43.7965839]}, "properties": {"addr:city": "Firenze", "addr:housenumber": "44/r", "addr:postcode": "50145", "addr:street": "Via di Peretola", "amenity": "restaurant", "capacity": "50", "cuisine": "regional", "delivery": "no", "name": "Osteria Pronto e via", "outdoor_seating": "no", "smoking": "no", "takeaway": "yes"}}, {"type": "Feature", "id": 4697701489, "geometry": {"type": "Point", "coordinates": [11.2552756, 43.7718861]}, "properties": {"amenity": "restaurant", "name": "Snack Self Service Marchetti"}}, {"type": "Feature", "id": 4700615994, "geometry": {"type": "Point", "coordinates": [11.2593877, 43.7675063]}, "properties": {"amenity": "restaurant", "name": "Le colonnine"}}, {"type": "Feature", "id": 4703884537, "geometry": {"type": "Point", "coordinates": [10.7695369, 43.745115]}, "properties": {"amenity": "restaurant", "name": "Osteria Numero Uno"}}, {"type": "Feature", "id": 4712334790, "geometry": {"type": "Point", "coordinates": [11.2551025, 43.7693888]}, "properties": {"addr:street": "Piazza della Signoria", "amenity": "restaurant", "name": "Ristorante Pizzeria il Bargello"}}, {"type": "Feature", "id": 4715045189, "geometry": {"type": "Point", "coordinates": [11.2459378, 43.7675434]}, "properties": {"amenity": "restaurant", "name": "Lospuntino", "name:it": "Lospuntino"}}, {"type": "Feature", "id": 4715082986, "geometry": {"type": "Point", "coordinates": [11.2478316, 43.7730236]}, "properties": {"amenity": "restaurant", "name": "La Boite"}}, {"type": "Feature", "id": 4715083304, "geometry": {"type": "Point", "coordinates": [11.2480783, 43.7713763]}, "properties": {"amenity": "restaurant"}}, {"type": "Feature", "id": 4716090890, "geometry": {"type": "Point", "coordinates": [11.2418412, 43.768743]}, "properties": {"addr:housenumber": "25R", "addr:street": "Via dell'Orto", "amenity": "restaurant", "name": "O'Scugnizzo", "name:en": "O'Scugnizzo", "name:it": "O'Scugnizzo", "website": "http://www.oscugnizzo.net"}}, {"type": "Feature", "id": 4717289292, "geometry": {"type": "Point", "coordinates": [11.2464656, 43.7696787]}, "properties": {"addr:housenumber": "5", "addr:street": "Lungarno Soderini", "amenity": "restaurant", "name": "Pizzeria Riva d'Arno", "name:en": "Pizzeria Riva d'Arno", "name:it": "Pizzeria Riva d'Arno"}}, {"type": "Feature", "id": 4718246190, "geometry": {"type": "Point", "coordinates": [11.2560858, 43.7706919]}, "properties": {"addr:housenumber": "15 R", "addr:postcode": "50122", "addr:street": "Via dei Cerchi", "amenity": "restaurant", "name": "Osteria Buongustai", "phone": "+39 055 291 304"}}, {"type": "Feature", "id": 4730427338, "geometry": {"type": "Point", "coordinates": [11.2543391, 43.7760845]}, "properties": {"amenity": "restaurant", "name": "Trattoria Da Garibardi"}}, {"type": "Feature", "id": 4730850976, "geometry": {"type": "Point", "coordinates": [11.2759906, 43.7701013]}, "properties": {"amenity": "restaurant"}}, {"type": "Feature", "id": 4740554399, "geometry": {"type": "Point", "coordinates": [11.254077, 43.7693739]}, "properties": {"amenity": "restaurant", "cuisine": "pizza; sandwich", "name": "Pizzeria Piccadilly", "outdoor_seating": "yes", "payment:credit_cards": "yes", "phone": "+390552396300"}}, {"type": "Feature", "id": 4740940723, "geometry": {"type": "Point", "coordinates": [11.2555441, 43.7708456]}, "properties": {"addr:housenumber": "19-rd", "addr:postcode": "50122", "addr:street": "Via dei Tavolini", "amenity": "restaurant", "cuisine": "ice_cream", "name:en": "Perche No Ice Cream", "opening_hours": "Mo-Su 12:00-23:00"}}, {"type": "Feature", "id": 4789521725, "geometry": {"type": "Point", "coordinates": [11.254655, 43.7797292]}, "properties": {"amenity": "restaurant", "name": "Fuoko Matto", "name:ru": "\u043f\u0438\u0446\u0446\u0435\u0440\u0438\u044f Fuoko Matto"}}, {"type": "Feature", "id": 4797041722, "geometry": {"type": "Point", "coordinates": [11.2683835, 43.7704494]}, "properties": {"addr:housenumber": "9/C", "addr:postcode": "50122", "addr:street": "Largo Pietro Annigoni", "amenity": "restaurant", "name": "Pizzeria Santarpia", "opening_hours": "Mo-Su 19:30-00:00"}}, {"type": "Feature", "id": 4812119744, "geometry": {"type": "Point", "coordinates": [11.2190343, 43.980312]}, "properties": {"amenity": "restaurant", "name": "Ristorante La Cavalina", "name:it": "Ristorante La Cavalina"}}, {"type": "Feature", "id": 4817039821, "geometry": {"type": "Point", "coordinates": [11.2533397, 43.7672558]}, "properties": {"addr:housenumber": "58/r", "addr:street": "Via dei Bardi", "amenity": "restaurant", "name:en": "Golden View Open Bar"}}, {"type": "Feature", "id": 4818093721, "geometry": {"type": "Point", "coordinates": [11.2636724, 43.7644506]}, "properties": {"addr:housenumber": "8r", "addr:street": "Via di San Niccol\u00f2", "amenity": "restaurant", "name": "Hosteria del Bricco"}}, {"type": "Feature", "id": 4818604723, "geometry": {"type": "Point", "coordinates": [11.2529371, 43.7766124]}, "properties": {"addr:city": "Firenze", "addr:housenumber": "4", "addr:postcode": "50123", "addr:street": "Piazza del Mercato Centrale", "amenity": "restaurant", "cuisine": "vegan;vegetarian;burger", "internet_access": "wlan", "level": "1", "name": "Veg & Veg", "website": "http://www.vegandveg.it"}}, {"type": "Feature", "id": 4825332513, "geometry": {"type": "Point", "coordinates": [11.3164262, 43.5445756]}, "properties": {"amenity": "restaurant", "cuisine": "regional", "internet_access": "no", "level": "0", "name": "Officina della Bistecca", "opening_hours": "13:00-15:30,20:00-22:30; Dec 25 off", "outdoor_seating": "yes", "smoking": "outside", "website": "http://www.dariocecchini.com/dariocecchini/a-tavola/officina-della-bistecca/", "wheelchair": "limited"}}, {"type": "Feature", "id": 4825796528, "geometry": {"type": "Point", "coordinates": [11.3163451, 43.5444325]}, "properties": {"amenity": "restaurant", "cuisine": "regional", "name": "Solociccia", "website": "http://www.dariocecchini.com/dariocecchini/a-tavola/solo-ciccia/"}}, {"type": "Feature", "id": 4838003458, "geometry": {"type": "Point", "coordinates": [10.9547156, 43.5390747]}, "properties": {"addr:city": "Gambassi Terme", "addr:housenumber": "2", "addr:postcode": "50050", "addr:street": "Via delle Ripe", "amenity": "restaurant", "cuisine": "italian", "name": "Beltempo"}}, {"type": "Feature", "id": 4838011377, "geometry": {"type": "Point", "coordinates": [10.9564135, 43.5400366]}, "properties": {"addr:city": "Gambassi Terme", "addr:housenumber": "23", "addr:postcode": "50050", "addr:street": "Via del Teatro", "amenity": "restaurant", "cuisine": "italian", "name": "Osteria Pinchiorba"}}, {"type": "Feature", "id": 4842482629, "geometry": {"type": "Point", "coordinates": [11.2612795, 43.7642036]}, "properties": {"addr:housenumber": "59r", "addr:street": "Via di San Niccol\u00f2", "amenity": "restaurant", "cuisine": "italian", "name": "Bevo Vino", "name:en": "Bevo Vino", "name:it": "Bevo Vino"}}, {"type": "Feature", "id": 4847893912, "geometry": {"type": "Point", "coordinates": [11.259696, 43.7675158]}, "properties": {"amenity": "restaurant", "cuisine": "italian", "name": "Ristorante del Fagioli", "phone": "+39 055 244285"}}, {"type": "Feature", "id": 4865980322, "geometry": {"type": "Point", "coordinates": [11.2555274, 43.7773046]}, "properties": {"addr:housenumber": "35r", "addr:postcode": "50129", "addr:street": "Via Guelfa", "amenity": "restaurant", "cuisine": "regional", "name": "Cafaggi", "name:it": "Cafaggi", "phone": "+39 055 294989", "website": "http://ristorantecafaggi.it"}}, {"type": "Feature", "id": 4867013538, "geometry": {"type": "Point", "coordinates": [11.2506514, 43.7671083]}, "properties": {"amenity": "restaurant", "cuisine": "italian_pizza", "name": "Blancazerozero La Pinsa Romana"}}, {"type": "Feature", "id": 4867512421, "geometry": {"type": "Point", "coordinates": [11.1883422, 43.5812549]}, "properties": {"addr:housenumber": "11", "addr:postcode": "50028", "addr:street": "Strada del Cerro", "amenity": "restaurant", "cuisine": "italian", "name": "La Fattoria", "name:it": "La Fattoria", "phone": "+39 055 807 0000", "website": "http://www.ristorantelafattoria-chianti.com"}}, {"type": "Feature", "id": 4867851566, "geometry": {"type": "Point", "coordinates": [11.2516805, 43.7766312]}, "properties": {"amenity": "restaurant"}}, {"type": "Feature", "id": 4868442731, "geometry": {"type": "Point", "coordinates": [11.2523065, 43.7689207]}, "properties": {"amenity": "restaurant"}}, {"type": "Feature", "id": 4874987760, "geometry": {"type": "Point", "coordinates": [11.2400846, 43.766877]}, "properties": {"amenity": "restaurant", "name": "Alla Vecchia Bettola"}}, {"type": "Feature", "id": 4885746122, "geometry": {"type": "Point", "coordinates": [11.2597396, 43.7678967]}, "properties": {"amenity": "restaurant", "name": "Oinos"}}, {"type": "Feature", "id": 4885756121, "geometry": {"type": "Point", "coordinates": [11.2403321, 43.771545]}, "properties": {"addr:postcode": "50142", "addr:street": "Lungarno di Santa Rosa", "amenity": "restaurant", "cuisine": "vegan;sandwich;international;breakfast;cake;tea;local;coffee_shop;pasta;italian;vegetarian", "name": "Santa Rosa Bistrot", "name:en": "Santa Rosa Bistrot", "name:it": "Santa Rosa Bistrot"}}, {"type": "Feature", "id": 4903780922, "geometry": {"type": "Point", "coordinates": [11.2582845, 43.7676654]}, "properties": {"addr:housenumber": "18", "addr:street": "Via de' Vagellai", "amenity": "restaurant", "cuisine": "vegan;vegetarian", "internet_access": "wlan", "name": "Libreria Brac", "opening_hours": "Mo-Su 12:00-18:00", "website": "https://m.facebook.com/libreria.brac/"}}, {"type": "Feature", "id": 4904508528, "geometry": {"type": "Point", "coordinates": [11.2459136, 43.7752407]}, "properties": {"amenity": "restaurant", "name": "Antica Trattoria il Giardino"}}, {"type": "Feature", "id": 4916844322, "geometry": {"type": "Point", "coordinates": [11.2640743, 43.7833317]}, "properties": {"addr:housenumber": "72", "addr:street": "Via Pier Capponi", "amenity": "restaurant", "name:en": "Icche Thai"}}, {"type": "Feature", "id": 4922602621, "geometry": {"type": "Point", "coordinates": [11.2532147, 43.7752909]}, "properties": {"addr:housenumber": "30R", "addr:street": "Piazza di San Lorenzo", "amenity": "restaurant", "cuisine": "italian", "name": "Le Cappelle Medicee"}}, {"type": "Feature", "id": 4926759731, "geometry": {"type": "Point", "coordinates": [11.3254543, 43.9623447]}, "properties": {"amenity": "restaurant", "cuisine": "italian", "name": "Cacio e Pere", "outdoor_seating": "yes"}}, {"type": "Feature", "id": 4926759732, "geometry": {"type": "Point", "coordinates": [11.3240951, 43.9613369]}, "properties": {"amenity": "restaurant", "name": "Da Baffo"}}, {"type": "Feature", "id": 4926759735, "geometry": {"type": "Point", "coordinates": [11.3253521, 43.9622519]}, "properties": {"amenity": "restaurant", "cuisine": "pizza"}}, {"type": "Feature", "id": 4937439421, "geometry": {"type": "Point", "coordinates": [11.3154544, 43.5840414]}, "properties": {"addr:housenumber": "3", "addr:street": "Piazza Trento", "amenity": "restaurant", "cuisine": "italian_pizza;italian", "name": "La Cantina", "opening_hours": "Mo-Su 10:00-00:00"}}, {"type": "Feature", "id": 4939775448, "geometry": {"type": "Point", "coordinates": [11.1423764, 43.536206]}, "properties": {"amenity": "restaurant", "name": "Il Paese dei Campanelli", "website": "http://www.ilpaesedeicampanelli.it/"}}, {"type": "Feature", "id": 4941417646, "geometry": {"type": "Point", "coordinates": [11.1865129, 43.8968363]}, "properties": {"amenity": "restaurant", "name": "Gli Alberi"}}, {"type": "Feature", "id": 4956887817, "geometry": {"type": "Point", "coordinates": [11.2506616, 43.7585615]}, "properties": {"amenity": "restaurant", "name": "La Terrazza del Principe"}}, {"type": "Feature", "id": 4959626721, "geometry": {"type": "Point", "coordinates": [11.2507583, 43.7736338]}, "properties": {"addr:housenumber": "11/r", "addr:postcode": "50123", "addr:street": "Via del Giglio", "amenity": "restaurant", "cuisine": "italian", "name": "Giglio Rosso", "name:it": "Giglio Rosso", "phone": "055211795", "website": "http://www.ristorantegigliorosso.com"}}, {"type": "Feature", "id": 4959848127, "geometry": {"type": "Point", "coordinates": [11.2571564, 43.7713383]}, "properties": {"addr:city": "Firenze", "addr:country": "IT", "addr:housenumber": "4 R", "addr:street": "Via Santa Margherita", "amenity": "restaurant", "name": "Da'Vinattieri", "phone": "+39 055 294703", "website": "http://www.davinattieri.it/"}}, {"type": "Feature", "id": 4988219031, "geometry": {"type": "Point", "coordinates": [11.270364, 43.7703802]}, "properties": {"amenity": "restaurant", "cuisine": "ice_cream", "name:en": "Gelateria de' Medici"}}, {"type": "Feature", "id": 5008275480, "geometry": {"type": "Point", "coordinates": [11.1725508, 43.5605257]}, "properties": {"addr:city": "Tavarnelle Val di Pesa", "addr:housenumber": "121", "addr:street": "Via Roma", "amenity": "restaurant", "cuisine": "italian", "level": "0", "name": "Il Caff\u00e8 degli Amici", "outdoor_seating": "yes"}}, {"type": "Feature", "id": 5009561052, "geometry": {"type": "Point", "coordinates": [11.3636797, 43.5988083]}, "properties": {"amenity": "restaurant", "cuisine": "italian", "internet_access": "wlan", "name": "Borgo Antico"}}, {"type": "Feature", "id": 5026572222, "geometry": {"type": "Point", "coordinates": [11.3919862, 44.0227391]}, "properties": {"amenity": "restaurant", "name": "L'Aia Di Martino", "name:it": "L'Aia Di Martino", "website": "http://www.laiadimartino.it/ristorazione/"}}, {"type": "Feature", "id": 5030891427, "geometry": {"type": "Point", "coordinates": [11.2171268, 43.9845662]}, "properties": {"addr:postcode": "50031", "addr:street": "via Meucci", "amenity": "restaurant", "opening_hours": "Mo-Su 12:00-22:00"}}, {"type": "Feature", "id": 5030891448, "geometry": {"type": "Point", "coordinates": [11.2142087, 43.9855045]}, "properties": {"addr:postcode": "50031", "addr:street": "via Meucci", "amenity": "restaurant", "name": "Wok", "name:en": "Wok", "name:it": "Wok", "opening_hours": "Mo-Su 11:00-22:00"}}, {"type": "Feature", "id": 5039624463, "geometry": {"type": "Point", "coordinates": [11.3351171, 44.0211901]}, "properties": {"amenity": "restaurant"}}, {"type": "Feature", "id": 5039641942, "geometry": {"type": "Point", "coordinates": [11.2427134, 44.1422122]}, "properties": {"amenity": "restaurant", "name": "Da Paco"}}, {"type": "Feature", "id": 5047499149, "geometry": {"type": "Point", "coordinates": [11.4828813, 43.8228207]}, "properties": {"addr:city": "Rufina", "addr:housenumber": "16/b", "addr:postcode": "50068", "addr:street": "Via 25 Aprile", "amenity": "restaurant", "cuisine": "regional;pizza;italian", "delivery": "no", "email": "amicimiei.rufina@gmail.com", "name": "Amici Miei", "outdoor_seating": "yes", "smoking": "outside", "takeaway": "yes"}}, {"type": "Feature", "id": 5050896376, "geometry": {"type": "Point", "coordinates": [11.2747267, 43.7680281]}, "properties": {"addr:street": "Via Fra' Giovanni Angelico", "amenity": "restaurant", "name": "La Pasticceria", "name:it": "La Pasticceria"}}, {"type": "Feature", "id": 5069362637, "geometry": {"type": "Point", "coordinates": [11.2667717, 43.7710457]}, "properties": {"addr:city": "Firenze", "addr:housenumber": "40r", "addr:postcode": "50122", "addr:street": "Piazza Lorenzo Ghiberti", "amenity": "restaurant", "cuisine": "regional", "name": "Gilda Bistrot", "opening_hours": "Mo-Sa 12,00-15,00 19,00-23,00", "outdoor_seating": "yes", "phone": "+39 055 234 3885"}}, {"type": "Feature", "id": 5079056522, "geometry": {"type": "Point", "coordinates": [11.3158915, 43.5834921]}, "properties": {"addr:housenumber": "1", "addr:street": "Via Domenico Giuliotti", "amenity": "restaurant", "name": "Trattoria Di Borgo"}}, {"type": "Feature", "id": 5082709822, "geometry": {"type": "Point", "coordinates": [11.2578153, 43.7717111]}, "properties": {"addr:housenumber": "59r", "addr:street": "Via del Proconsolo", "amenity": "restaurant", "name": "Osteria del Proconsolo"}}, {"type": "Feature", "id": 5102550521, "geometry": {"type": "Point", "coordinates": [11.2717384, 43.778374]}, "properties": {"amenity": "restaurant", "name": "DONFEFE", "name:it": "DONFEFE"}}, {"type": "Feature", "id": 5105299725, "geometry": {"type": "Point", "coordinates": [11.2526747, 43.7702515]}, "properties": {"addr:housenumber": "58", "addr:street": "Piazza dei Davanzati", "amenity": "restaurant", "cuisine": "italian;italian_pizza", "name": "la Bussola", "name:nl": "la Bussola"}}, {"type": "Feature", "id": 5105526121, "geometry": {"type": "Point", "coordinates": [11.4287467, 44.0038072]}, "properties": {"addr:housenumber": "3", "addr:postcode": "50032", "addr:street": "Via Angelo Gatti", "amenity": "restaurant", "cuisine": "italian_pizza;local", "internet_access": "wlan", "name": "I'Cantuccio", "phone": "0558495710", "website": "http://icantuccio.it"}}, {"type": "Feature", "id": 5105538722, "geometry": {"type": "Point", "coordinates": [11.3239356, 43.9614327]}, "properties": {"addr:housenumber": "38", "addr:postcode": "50037", "addr:street": "Via Provinciale", "amenity": "restaurant", "cuisine": "steak_house;italian_pizza", "name": "La Bisboccina", "opening_hours": "We-Mo 19:00-00:00", "phone": "0558486950", "website": "http://ristorantepizzerialabisboccina.com"}}, {"type": "Feature", "id": 5113208003, "geometry": {"type": "Point", "coordinates": [11.2560738, 43.7709875]}, "properties": {"amenity": "restaurant", "cuisine": "persian", "name": "Teheran"}}, {"type": "Feature", "id": 5119428022, "geometry": {"type": "Point", "coordinates": [11.1607791, 43.8462064]}, "properties": {"addr:housenumber": "39", "addr:postcode": "50041", "addr:street": "Via di Pratignone", "amenity": "restaurant", "cuisine": "coffee_shop;italian", "name": "Caff\u00e8 Neri", "opening_hours": "Mo-Su 06:30-16:00", "phone": "0558878280", "website": "http://caffeneri.it"}}, {"type": "Feature", "id": 5136214730, "geometry": {"type": "Point", "coordinates": [11.2521487, 43.7765448]}, "properties": {"amenity": "restaurant"}}, {"type": "Feature", "id": 5137013611, "geometry": {"type": "Point", "coordinates": [10.9515979, 43.5569676]}, "properties": {"amenity": "restaurant", "name": "Osteria del Pellegrino"}}, {"type": "Feature", "id": 5137014599, "geometry": {"type": "Point", "coordinates": [10.9541079, 43.5395389]}, "properties": {"amenity": "restaurant", "name": "Osteria del Castagno"}}, {"type": "Feature", "id": 5143467602, "geometry": {"type": "Point", "coordinates": [11.2711778, 43.7888711]}, "properties": {"amenity": "restaurant", "cuisine": "italian", "name": "Osteria I Riffaioli"}}, {"type": "Feature", "id": 5147364323, "geometry": {"type": "Point", "coordinates": [11.2489621, 43.7709136]}, "properties": {"addr:housenumber": "74/76 R", "addr:postcode": "50123", "addr:street": "Via del Parione", "amenity": "restaurant", "name": "Parione", "phone": "+39 05 521 4005", "website": "http://www.parione.net"}}, {"type": "Feature", "id": 5147372022, "geometry": {"type": "Point", "coordinates": [11.2562035, 43.7713231]}, "properties": {"addr:housenumber": "40R", "addr:postcode": "50100", "addr:street": "Via dei Cerchi", "amenity": "restaurant", "cuisine": "steak_house;italian;mediterranean;grill;vegetarian", "email": "trattoriaoste@hotmail.com", "internet_access": "wlan", "name": "Trattoria dall Oste", "opening_hours": "Mo-Su 11:00-22:30", "phone": "+39 055 212048", "website": "http://www.osteriadalloste.it"}}, {"type": "Feature", "id": 5158590922, "geometry": {"type": "Point", "coordinates": [11.2494276, 43.7661881]}, "properties": {"amenity": "restaurant", "name": "Alimentari"}}, {"type": "Feature", "id": 5160290521, "geometry": {"type": "Point", "coordinates": [11.2717484, 43.766143]}, "properties": {"addr:housenumber": "52", "addr:street": "Lungarno del Tempio", "amenity": "restaurant", "name": "Trattoria Moderna"}}, {"type": "Feature", "id": 5160705270, "geometry": {"type": "Point", "coordinates": [11.2168366, 43.8241923]}, "properties": {"amenity": "restaurant", "cuisine": "pizza"}}, {"type": "Feature", "id": 5186162121, "geometry": {"type": "Point", "coordinates": [11.2456214, 43.7725753]}, "properties": {"amenity": "restaurant", "cuisine": "korean", "name:en": "Ristorante Goong"}}, {"type": "Feature", "id": 5190978423, "geometry": {"type": "Point", "coordinates": [11.2474049, 43.7732383]}, "properties": {"amenity": "restaurant", "name:en": "Osteria dei Centopoveri"}}, {"type": "Feature", "id": 5194827121, "geometry": {"type": "Point", "coordinates": [11.2686892, 43.7703772]}, "properties": {"amenity": "restaurant", "cuisine": "fish;seafood", "name": "Vivo"}}, {"type": "Feature", "id": 5203672924, "geometry": {"type": "Point", "coordinates": [11.396863, 44.0013736]}, "properties": {"addr:city": "Grezzano", "addr:housenumber": "95", "addr:postcode": "50032", "addr:street": "Via Giovanni Traversi", "amenity": "restaurant", "cuisine": "regional;tortelli", "name": "Bar Pizzeria Valeri"}}, {"type": "Feature", "id": 5203684021, "geometry": {"type": "Point", "coordinates": [11.4070077, 44.0129205]}, "properties": {"amenity": "restaurant", "name": "Bottega di Grezzano"}}, {"type": "Feature", "id": 5204833795, "geometry": {"type": "Point", "coordinates": [11.2427473, 43.7749674]}, "properties": {"addr:housenumber": "4/b", "addr:street": "via Il Prato", "amenity": "restaurant", "cuisine": "vegan", "name": "Nirvana", "phone": "+393466381015", "website": "https://www.nirvanaristorante.it/"}}, {"type": "Feature", "id": 5216665023, "geometry": {"type": "Point", "coordinates": [11.2578385, 43.7763706]}, "properties": {"addr:housenumber": "149/R", "addr:postcode": "50121", "addr:street": "Via degli Alfani", "amenity": "restaurant", "cuisine": "chinese", "internet_access": "wlan", "name": "Ristorante Alfani", "phone": "3939393966"}}, {"type": "Feature", "id": 5218570610, "geometry": {"type": "Point", "coordinates": [11.252016, 43.6840059]}, "properties": {"amenity": "restaurant"}}, {"type": "Feature", "id": 5222477621, "geometry": {"type": "Point", "coordinates": [11.2059315, 43.7814165]}, "properties": {"addr:housenumber": "65", "addr:street": "Via dell'Argingrosso", "amenity": "restaurant", "cuisine": "italian_pizza;regional", "name": "Cinzia"}}, {"type": "Feature", "id": 5224935121, "geometry": {"type": "Point", "coordinates": [11.2917993, 43.7676433]}, "properties": {"amenity": "restaurant", "cuisine": "italian_pizza", "name": "Pizzeria Settebello"}}, {"type": "Feature", "id": 5247555218, "geometry": {"type": "Point", "coordinates": [11.1066301, 43.7708514]}, "properties": {"amenity": "restaurant", "name": "Antica Trattoria Sanesi"}}, {"type": "Feature", "id": 5270684294, "geometry": {"type": "Point", "coordinates": [10.9395136, 43.7268281]}, "properties": {"amenity": "restaurant"}}, {"type": "Feature", "id": 5286543195, "geometry": {"type": "Point", "coordinates": [10.9430675, 43.6782532]}, "properties": {"amenity": "restaurant", "cuisine": "regional", "name": "Il Rifugio Monterappoli", "opening_hours": "Tu-Sa 19:00-23:00; Su 12:30-14:30, 19:00-23:00"}}, {"type": "Feature", "id": 5326134182, "geometry": {"type": "Point", "coordinates": [11.0749721, 43.5475382]}, "properties": {"amenity": "restaurant", "name": "Pizzeria Ristorante Maroni Di Maroni Daniela"}}, {"type": "Feature", "id": 5333797281, "geometry": {"type": "Point", "coordinates": [11.2692174, 43.7727123]}, "properties": {"amenity": "restaurant", "name": "Trattoria Cesarino", "outdoor_seating": "yes"}}, {"type": "Feature", "id": 5349701284, "geometry": {"type": "Point", "coordinates": [11.3610499, 43.7846339]}, "properties": {"addr:city": "Compiobbi", "addr:housenumber": "1", "addr:postcode": "50061", "addr:street": "Piazza Giuseppe Mazzini", "amenity": "restaurant", "contact:facebook": "https://www.facebook.com/Pizzeriacrazytrain/", "cuisine": "pizza", "delivery": "yes", "name": "The Crazy Train", "opening_hours": "Su-Th 19:00-24:00; Fr-Sa 19:00-01:00", "outdoor_seating": "yes", "phone": "+39 055 6593640", "takeaway": "yes"}}, {"type": "Feature", "id": 5379052921, "geometry": {"type": "Point", "coordinates": [11.6179091, 43.9259298]}, "properties": {"amenity": "restaurant", "cuisine": "regional;local", "name": "Agnoletti"}}, {"type": "Feature", "id": 5390115264, "geometry": {"type": "Point", "coordinates": [11.194116, 43.8351345]}, "properties": {"amenity": "restaurant", "name": "Carlo"}}, {"type": "Feature", "id": 5398469767, "geometry": {"type": "Point", "coordinates": [11.1745547, 43.8471315]}, "properties": {"amenity": "restaurant", "name": "1950 American Diner"}}, {"type": "Feature", "id": 5402842091, "geometry": {"type": "Point", "coordinates": [11.2647906, 44.1375894]}, "properties": {"amenity": "restaurant", "cuisine": "regional", "name": "Ristorante Agriturismo Il Passeggere"}}, {"type": "Feature", "id": 5402931404, "geometry": {"type": "Point", "coordinates": [11.3295888, 43.8932738]}, "properties": {"amenity": "restaurant", "name": "Bar Ristorante Hotel Gli Scoiattoli"}}, {"type": "Feature", "id": 5402931408, "geometry": {"type": "Point", "coordinates": [11.3212657, 43.8950817]}, "properties": {"amenity": "restaurant", "name": "Ristorante Giotto Park"}}, {"type": "Feature", "id": 5402943822, "geometry": {"type": "Point", "coordinates": [11.3373409, 43.8583943]}, "properties": {"amenity": "restaurant", "cuisine": "regional", "name": "Ristorante Dino Messeri Luigi"}}, {"type": "Feature", "id": 5404884637, "geometry": {"type": "Point", "coordinates": [11.2198579, 43.7110471]}, "properties": {"amenity": "restaurant", "name": "I Maleavezzi"}}, {"type": "Feature", "id": 5405011839, "geometry": {"type": "Point", "coordinates": [11.2464359, 43.7720389]}, "properties": {"amenity": "restaurant", "name": "Sei Divino", "name:it": "Sei Divino"}}, {"type": "Feature", "id": 5431618984, "geometry": {"type": "Point", "coordinates": [11.2587068, 43.7775259]}, "properties": {"amenity": "restaurant", "contact:email": "info@ristoranteaccademia.it", "contact:phone": "+39 055 217343", "contact:website": "http://www.ristoranteaccademia.it", "cuisine": "italian", "name": "Ristorante Accademia", "opening_hours": "Mo-Su 12:00-15:00, 19:00-23:00", "payment:american_express": "yes", "payment:mastercard": "yes", "payment:visa": "yes"}}, {"type": "Feature", "id": 5431622720, "geometry": {"type": "Point", "coordinates": [11.2583977, 43.7776466]}, "properties": {"amenity": "restaurant", "name": "Pasticceria"}}, {"type": "Feature", "id": 5435977822, "geometry": {"type": "Point", "coordinates": [11.2552297, 43.7794281]}, "properties": {"addr:housenumber": "16", "addr:street": "Via 27 Aprile", "amenity": "restaurant", "name:en": "Fuoco Matto", "opening_hours": "Su-Fr 12:00-14:30, 19:00-23:30; Sa 19:00-23:30"}}, {"type": "Feature", "id": 5446406624, "geometry": {"type": "Point", "coordinates": [11.2529966, 43.7778406]}, "properties": {"amenity": "restaurant", "name:en": "Mostodolce"}}, {"type": "Feature", "id": 5501734301, "geometry": {"type": "Point", "coordinates": [11.2562954, 43.7721797]}, "properties": {"addr:city": "Firenze", "addr:housenumber": "15 r", "addr:postcode": "50122", "addr:street": "Via delle Oche", "amenity": "restaurant", "capacity": "45", "delivery": "no", "name": "Osteria de'Cicalini", "opening_hours": "Mo-Sa 12:30-14:30; 19:30-22:30", "outdoor_seating": "yes", "takeaway": "no"}}, {"type": "Feature", "id": 5513759621, "geometry": {"type": "Point", "coordinates": [11.2492332, 43.7682992]}, "properties": {"amenity": "restaurant", "name": "Ristorante il Cantinone"}}, {"type": "Feature", "id": 5525368484, "geometry": {"type": "Point", "coordinates": [11.5248242, 43.8910019]}, "properties": {"amenity": "restaurant", "name": "I' Ghiottone"}}, {"type": "Feature", "id": 5531715974, "geometry": {"type": "Point", "coordinates": [11.3007748, 43.6548257]}, "properties": {"addr:city": "Greve in Chianti", "addr:street": "Via Jacopo da Strada", "amenity": "restaurant", "cuisine": "pizza", "delivery": "no", "name": "Giardino di Strada", "opening_hours": "Tu-Su 19:00-23:00", "takeaway": "yes", "wheelchair": "yes"}}, {"type": "Feature", "id": 5533937524, "geometry": {"type": "Point", "coordinates": [11.2728992, 43.7706058]}, "properties": {"addr:housenumber": "140", "addr:street": "Via Vincenzo Gioberti", "amenity": "restaurant", "name": "Osteria del Cocotrippone", "phone": "0552347527"}}, {"type": "Feature", "id": 5547388635, "geometry": {"type": "Point", "coordinates": [11.2493524, 43.5801558]}, "properties": {"amenity": "restaurant", "cuisine": "italian", "name": "La Cantinetta Di Passignano", "outdoor_seating": "yes"}}, {"type": "Feature", "id": 5547388636, "geometry": {"type": "Point", "coordinates": [11.247274, 43.5780243]}, "properties": {"amenity": "restaurant", "cuisine": "italian", "name": "Ristoro l'Antica Scuderia", "outdoor_seating": "yes"}}, {"type": "Feature", "id": 5547388637, "geometry": {"type": "Point", "coordinates": [11.2459356, 43.5768507]}, "properties": {"amenity": "restaurant", "cuisine": "italian", "name": "Osteria di Passignano", "outdoor_seating": "yes"}}, {"type": "Feature", "id": 5547896124, "geometry": {"type": "Point", "coordinates": [11.5374413, 43.7000629]}, "properties": {"addr:housenumber": "68", "addr:street": "Ponte di Caslino", "amenity": "restaurant", "cuisine": "italian;fish;diner", "name": "Ristorante Archimede"}}, {"type": "Feature", "id": 5547970824, "geometry": {"type": "Point", "coordinates": [11.3672302, 43.7829177]}, "properties": {"addr:housenumber": "59", "addr:street": "Via di Rosano", "amenity": "restaurant", "cuisine": "italian;seafood;fish", "name": "Acquacheta"}}, {"type": "Feature", "id": 5548013421, "geometry": {"type": "Point", "coordinates": [11.4694131, 43.8524878]}, "properties": {"addr:housenumber": "65", "addr:street": "Via della Vittoria", "amenity": "restaurant", "cuisine": "diner;pizza;italian_pizza", "name": "Acone"}}, {"type": "Feature", "id": 5548027822, "geometry": {"type": "Point", "coordinates": [11.203855, 43.7959678]}, "properties": {"addr:housenumber": "2", "addr:street": "Via Pistoiese", "amenity": "restaurant", "cuisine": "diner;seafood;italian_pizza", "name": "Aloisus"}}, {"type": "Feature", "id": 5550857021, "geometry": {"type": "Point", "coordinates": [11.4711755, 43.7511958]}, "properties": {"addr:street": "Via Aretina 46", "amenity": "restaurant", "cuisine": "italian_pizza;diner;regional", "name": "Francesco"}}, {"type": "Feature", "id": 5552533022, "geometry": {"type": "Point", "coordinates": [11.3306035, 43.7581092]}, "properties": {"addr:housenumber": "22", "addr:street": "Via di Rimaggio", "amenity": "restaurant", "cuisine": "italian;regional;diner", "name": "Trattoria Donnini"}}, {"type": "Feature", "id": 5555208021, "geometry": {"type": "Point", "coordinates": [11.2593012, 43.7759428]}, "properties": {"addr:housenumber": "78r", "addr:street": "via Alfani", "amenity": "restaurant", "cuisine": "fish;fine_dining;seafood;regional", "name": "Skipper"}}, {"type": "Feature", "id": 5555214542, "geometry": {"type": "Point", "coordinates": [11.2353051, 43.7495585]}, "properties": {"addr:housenumber": "160", "addr:street": "Via Senese", "amenity": "restaurant", "cuisine": "diner;italian_pizza;regional", "name": "Pipistrello"}}, {"type": "Feature", "id": 5557772222, "geometry": {"type": "Point", "coordinates": [11.256491, 43.7829561]}, "properties": {"amenity": "restaurant", "cuisine": "chinese", "name": "Osir"}}, {"type": "Feature", "id": 5560324322, "geometry": {"type": "Point", "coordinates": [11.2946158, 43.8070754]}, "properties": {"amenity": "restaurant", "cuisine": "indian", "name": "India"}}, {"type": "Feature", "id": 5560324323, "geometry": {"type": "Point", "coordinates": [11.2685501, 43.7689305]}, "properties": {"amenity": "restaurant", "cuisine": "italian_pizza;local", "name": "Le Murate"}}, {"type": "Feature", "id": 5560324522, "geometry": {"type": "Point", "coordinates": [11.2931216, 43.8069438]}, "properties": {"amenity": "restaurant", "cuisine": "grill;local;steak_house", "name": "Perseus"}}, {"type": "Feature", "id": 5561067322, "geometry": {"type": "Point", "coordinates": [11.1744706, 43.7622422]}, "properties": {"addr:housenumber": "38", "addr:street": "Via Gaetano Donizetti", "amenity": "restaurant", "cuisine": "italian_pizza;seafood;fish", "name": "L\u2019Aragosta"}}, {"type": "Feature", "id": 5561071422, "geometry": {"type": "Point", "coordinates": [11.4283064, 43.7703239]}, "properties": {"addr:housenumber": "20", "addr:street": "Via di Rosano", "amenity": "restaurant", "cuisine": "local;pizza", "name": "La Torre"}}, {"type": "Feature", "id": 5561085821, "geometry": {"type": "Point", "coordinates": [11.4774795, 43.8260773]}, "properties": {"addr:housenumber": "28", "addr:street": "Via Colognolese", "amenity": "restaurant", "cuisine": "italian;local", "name": "La Casellina"}}, {"type": "Feature", "id": 5561091521, "geometry": {"type": "Point", "coordinates": [11.2193778, 43.7109032]}, "properties": {"addr:housenumber": "50", "addr:street": "Via della Repubblica", "amenity": "restaurant", "cuisine": "italian_pizza;local", "name": "La Capricciosa"}}, {"type": "Feature", "id": 5561103021, "geometry": {"type": "Point", "coordinates": [11.2651628, 43.7728789]}, "properties": {"addr:housenumber": "1", "addr:street": "Via Luigi Carlo Farini", "amenity": "restaurant", "cuisine": "diner;international", "name": "Il Sedano Allegro", "name:it": "Il Sedano Allegro (cucina ebraica)"}}, {"type": "Feature", "id": 5561125921, "geometry": {"type": "Point", "coordinates": [11.190856, 43.7537713]}, "properties": {"addr:housenumber": "33", "addr:street": "Via Dante", "amenity": "restaurant", "cuisine": "steak_house;local;grill", "name": "La Braceria"}}, {"type": "Feature", "id": 5561137021, "geometry": {"type": "Point", "coordinates": [11.5047496, 43.9265138]}, "properties": {"addr:street": "Localit\u00e0 Rossoio", "amenity": "restaurant", "cuisine": "italian_pizza;local", "name": "Il Caldentino"}}, {"type": "Feature", "id": 5561147721, "geometry": {"type": "Point", "coordinates": [11.384028, 43.5985755]}, "properties": {"addr:street": "Strada Provinciale Chianti-Valdarno", "amenity": "restaurant", "cuisine": "local;italian;grill", "name": "Il Dudda"}}, {"type": "Feature", "id": 5561147722, "geometry": {"type": "Point", "coordinates": [11.2337669, 43.791918]}, "properties": {"addr:street": "Via Antonio Pigafetta", "amenity": "restaurant", "cuisine": "italian_pizza;local", "name": "I Ciri B\u00e8"}}, {"type": "Feature", "id": 5562839521, "geometry": {"type": "Point", "coordinates": [11.1424599, 43.7485548]}, "properties": {"addr:housenumber": "5", "addr:street": "Via di Calcinaia", "amenity": "restaurant", "cuisine": "local;sandwich;buschenschank", "name": "Antica Pizzicheria San Martino"}}, {"type": "Feature", "id": 5562845721, "geometry": {"type": "Point", "coordinates": [11.2661635, 43.8858672]}, "properties": {"addr:housenumber": "2383", "addr:street": "Via di Paterno", "amenity": "restaurant", "cuisine": "local;buschenschank", "name": "Antica Trattoria di Paterno"}}, {"type": "Feature", "id": 5562951421, "geometry": {"type": "Point", "coordinates": [11.2829181, 43.7759438]}, "properties": {"addr:housenumber": "4", "addr:street": "Viale Malta", "amenity": "restaurant", "cuisine": "steak_house;italian_pizza;burger", "name": "Aviazione"}}, {"type": "Feature", "id": 5562964022, "geometry": {"type": "Point", "coordinates": [11.2261347, 43.7906184]}, "properties": {"addr:housenumber": "53", "addr:street": "Via di Novoli", "amenity": "restaurant", "cuisine": "sushi;chinese", "name": "Bamboo"}}, {"type": "Feature", "id": 5562979821, "geometry": {"type": "Point", "coordinates": [11.2580455, 43.7680824]}, "properties": {"addr:housenumber": "16", "addr:street": "Via della Mosca", "amenity": "restaurant", "cuisine": "regional;buschenschank;diner", "name": "Benvenuto"}}, {"type": "Feature", "id": 5569930933, "geometry": {"type": "Point", "coordinates": [11.3643564, 44.0048442]}, "properties": {"addr:housenumber": "93", "addr:street": "Viale Dante", "amenity": "restaurant", "cuisine": "local;italian", "name": "Il Palagio", "name:it": "Fattoria il Palagio"}}, {"type": "Feature", "id": 78328019, "geometry": {"type": "Point", "coordinates": [11.3643564, 44.0048442]}, "properties": {"building": "yes"}}, {"type": "Feature", "id": 78328020, "geometry": {"type": "Point", "coordinates": [11.3643564, 44.0048442]}, "properties": {"building": "yes"}}, {"type": "Feature", "id": 109770092, "geometry": {"type": "Point", "coordinates": [11.3643564, 44.0048442]}, "properties": {"building": "yes"}}, {"type": "Feature", "id": 112763071, "geometry": {"type": "Point", "coordinates": [11.3643564, 44.0048442]}, "properties": {"building": "yes"}}, {"type": "Feature", "id": 170317241, "geometry": {"type": "Point", "coordinates": [11.3643564, 44.0048442]}, "properties": {"building": "apartments"}}, {"type": "Feature", "id": 272730784, "geometry": {"type": "Point", "coordinates": [11.3643564, 44.0048442]}, "properties": {"building": "yes"}}, {"type": "Feature", "id": 279796626, "geometry": {"type": "Point", "coordinates": [11.3643564, 44.0048442]}, "properties": {"building": "yes"}}, {"type": "Feature", "id": 314476107, "geometry": {"type": "Point", "coordinates": [11.3643564, 44.0048442]}, "properties": {"building": "yes"}}]}